<?xml version="1.0" encoding="UTF-8"?>
<kml xmlns="http://www.opengis.net/kml/2.2" xmlns:gx="http://www.google.com/kml/ext/2.2" xmlns:kml="http://www.opengis.net/kml/2.2" xmlns:atom="http://www.w3.org/2005/Atom">
<Document>
	<name>HomePnts.kml</name>
	<Style id="inline">
		<LineStyle>
			<color>ff00ff00</color>
			<width>2</width>
		</LineStyle>
	</Style>
	<StyleMap id="inline0">
		<Pair>
			<key>normal</key>
			<styleUrl>#inline3</styleUrl>
		</Pair>
		<Pair>
			<key>highlight</key>
			<styleUrl>#inline2</styleUrl>
		</Pair>
	</StyleMap>
	<StyleMap id="inline1">
		<Pair>
			<key>normal</key>
			<styleUrl>#inline4</styleUrl>
		</Pair>
		<Pair>
			<key>highlight</key>
			<styleUrl>#inline8</styleUrl>
		</Pair>
	</StyleMap>
	<Style id="inline2">
		<LineStyle>
			<color>ffff00aa</color>
			<width>2</width>
		</LineStyle>
	</Style>
	<Style id="inline3">
		<LineStyle>
			<color>ffff00aa</color>
			<width>2</width>
		</LineStyle>
	</Style>
	<Style id="inline4">
		<LineStyle>
			<color>ff00ff00</color>
			<width>2</width>
		</LineStyle>
	</Style>
	<StyleMap id="inline5">
		<Pair>
			<key>normal</key>
			<styleUrl>#inline13</styleUrl>
		</Pair>
		<Pair>
			<key>highlight</key>
			<styleUrl>#inline</styleUrl>
		</Pair>
	</StyleMap>
	<Style id="inline6">
		<LineStyle>
			<color>ffff00aa</color>
			<width>2</width>
		</LineStyle>
	</Style>
	<Style id="inline7">
		<LineStyle>
			<color>ffff00aa</color>
			<width>2</width>
		</LineStyle>
	</Style>
	<Style id="inline8">
		<LineStyle>
			<color>ff00ff00</color>
			<width>2</width>
		</LineStyle>
	</Style>
	<StyleMap id="inline9">
		<Pair>
			<key>normal</key>
			<styleUrl>#inline7</styleUrl>
		</Pair>
		<Pair>
			<key>highlight</key>
			<styleUrl>#inline16</styleUrl>
		</Pair>
	</StyleMap>
	<StyleMap id="inline10">
		<Pair>
			<key>normal</key>
			<styleUrl>#inline14</styleUrl>
		</Pair>
		<Pair>
			<key>highlight</key>
			<styleUrl>#inline6</styleUrl>
		</Pair>
	</StyleMap>
	<Style id="inline11">
		<LineStyle>
			<color>ffff00aa</color>
			<width>2</width>
		</LineStyle>
	</Style>
	<Style id="inline12">
		<LineStyle>
			<color>ffff00aa</color>
			<width>2</width>
		</LineStyle>
	</Style>
	<Style id="inline13">
		<LineStyle>
			<color>ff00ff00</color>
			<width>2</width>
		</LineStyle>
	</Style>
	<Style id="inline14">
		<LineStyle>
			<color>ffff00aa</color>
			<width>2</width>
		</LineStyle>
	</Style>
	<StyleMap id="inline15">
		<Pair>
			<key>normal</key>
			<styleUrl>#inline11</styleUrl>
		</Pair>
		<Pair>
			<key>highlight</key>
			<styleUrl>#inline12</styleUrl>
		</Pair>
	</StyleMap>
	<Style id="inline16">
		<LineStyle>
			<color>ffff00aa</color>
			<width>2</width>
		</LineStyle>
	</Style>
	<StyleMap id="m_ylw-pushpin">
		<Pair>
			<key>normal</key>
			<styleUrl>#s_ylw-pushpin</styleUrl>
		</Pair>
		<Pair>
			<key>highlight</key>
			<styleUrl>#s_ylw-pushpin_hl</styleUrl>
		</Pair>
	</StyleMap>
	<StyleMap id="msn_homegardenbusiness">
		<Pair>
			<key>normal</key>
			<styleUrl>#sn_homegardenbusiness</styleUrl>
		</Pair>
		<Pair>
			<key>highlight</key>
			<styleUrl>#sh_homegardenbusiness</styleUrl>
		</Pair>
	</StyleMap>
	<Style id="s_ylw-pushpin">
		<IconStyle>
			<scale>0.7</scale>
			<Icon>
				<href>http://maps.google.com/mapfiles/kml/shapes/campground.png</href>
			</Icon>
			<hotSpot x="0.5" y="0" xunits="fraction" yunits="fraction"/>
		</IconStyle>
		<LabelStyle>
			<scale>0.7</scale>
		</LabelStyle>
		<ListStyle>
		</ListStyle>
	</Style>
	<Style id="s_ylw-pushpin_hl">
		<IconStyle>
			<scale>0.827273</scale>
			<Icon>
				<href>http://maps.google.com/mapfiles/kml/shapes/campground.png</href>
			</Icon>
			<hotSpot x="0.5" y="0" xunits="fraction" yunits="fraction"/>
		</IconStyle>
		<LabelStyle>
			<scale>0.7</scale>
		</LabelStyle>
		<ListStyle>
		</ListStyle>
	</Style>
	<Style id="sh_homegardenbusiness">
		<IconStyle>
			<scale>0.945455</scale>
			<Icon>
				<href>http://maps.google.com/mapfiles/kml/shapes/homegardenbusiness.png</href>
			</Icon>
			<hotSpot x="0.5" y="0" xunits="fraction" yunits="fraction"/>
		</IconStyle>
		<LabelStyle>
			<scale>0.7</scale>
		</LabelStyle>
		<BalloonStyle>
		</BalloonStyle>
		<ListStyle>
		</ListStyle>
	</Style>
	<Style id="sn_homegardenbusiness">
		<IconStyle>
			<scale>0.8</scale>
			<Icon>
				<href>http://maps.google.com/mapfiles/kml/shapes/homegardenbusiness.png</href>
			</Icon>
			<hotSpot x="0.5" y="0" xunits="fraction" yunits="fraction"/>
		</IconStyle>
		<LabelStyle>
			<scale>0.7</scale>
		</LabelStyle>
		<BalloonStyle>
		</BalloonStyle>
		<ListStyle>
		</ListStyle>
	</Style>
	<Folder>
		<name>Homes</name>
		<Placemark>
			<name>Swain</name>
			<LookAt>
				<longitude>-77.24396771713361</longitude>
				<latitude>39.03116117715339</latitude>
				<altitude>0</altitude>
				<heading>0.002581841038808255</heading>
				<tilt>0</tilt>
				<range>317.4845353149516</range>
				<gx:altitudeMode>relativeToSeaFloor</gx:altitudeMode>
			</LookAt>
			<styleUrl>#m_ylw-pushpin</styleUrl>
			<Point>
				<gx:drawOrder>1</gx:drawOrder>
				<coordinates>-77.24339598865497,39.03131632780196,0</coordinates>
			</Point>
		</Placemark>
		<Placemark>
			<name>Swain II</name>
			<styleUrl>#inline5</styleUrl>
			<LineString>
				<tessellate>1</tessellate>
				<coordinates>
					-77.24338579552263,39.03132860559625,159.9974957142873 -76.93543333059996,38.87241014585769,263.0480689021596 
				</coordinates>
			</LineString>
		</Placemark>
		<Placemark>
			<name>Swain S</name>
			<styleUrl>#inline1</styleUrl>
			<LineString>
				<tessellate>1</tessellate>
				<coordinates>
					-77.24338766695486,39.03132257472963,159.7946502247777 -77.04020170106378,38.78544613451381,0.235005015640825 
				</coordinates>
			</LineString>
		</Placemark>
		<Placemark>
			<name>Mana90</name>
			<styleUrl>#inline9</styleUrl>
			<LineString>
				<tessellate>1</tessellate>
				<coordinates>
					-77.49280856247795,38.79351567792769,172.112336776179 -76.93508415833004,38.79215463209914,226.0983664829189 
				</coordinates>
			</LineString>
		</Placemark>
		<Placemark>
			<name>VB</name>
			<LookAt>
				<longitude>-77.24127205754866</longitude>
				<latitude>39.0739857339029</latitude>
				<altitude>0</altitude>
				<heading>0.1612037127072216</heading>
				<tilt>0</tilt>
				<range>292.9227280413083</range>
				<gx:altitudeMode>relativeToSeaFloor</gx:altitudeMode>
			</LookAt>
			<styleUrl>#msn_homegardenbusiness</styleUrl>
			<Point>
				<gx:drawOrder>1</gx:drawOrder>
				<coordinates>-77.24177957664725,39.07398310928575,0</coordinates>
			</Point>
		</Placemark>
		<Placemark>
			<name>VB 135</name>
			<styleUrl>#inline0</styleUrl>
			<LineString>
				<tessellate>1</tessellate>
				<coordinates>
					-77.24177075386353,39.0739950011907,295.9320913099915 -76.95844536881317,38.85291653924391,129.0250589748579 
				</coordinates>
			</LineString>
		</Placemark>
		<Placemark>
			<name>Manassas</name>
			<LookAt>
				<longitude>-77.49235396401392</longitude>
				<latitude>38.79387555207265</latitude>
				<altitude>0</altitude>
				<heading>0.00382661742224932</heading>
				<tilt>0</tilt>
				<range>244.4998563775766</range>
				<gx:altitudeMode>relativeToSeaFloor</gx:altitudeMode>
			</LookAt>
			<styleUrl>#msn_homegardenbusiness</styleUrl>
			<Point>
				<gx:drawOrder>1</gx:drawOrder>
				<coordinates>-77.49281200898736,38.79350909397235,0</coordinates>
			</Point>
		</Placemark>
		<Placemark>
			<name>Mana60</name>
			<styleUrl>#inline10</styleUrl>
			<LineString>
				<tessellate>1</tessellate>
				<coordinates>
					-77.49277882704534,38.79351298925495,172.4166512680872 -77.04054125585904,38.99558437321489,254.693887266668 
				</coordinates>
			</LineString>
		</Placemark>
		<Placemark>
			<name>RestOn</name>
			<LookAt>
				<longitude>-77.35415616957937</longitude>
				<latitude>38.9306174284273</latitude>
				<altitude>0</altitude>
				<heading>-0.006621401801934777</heading>
				<tilt>0</tilt>
				<range>207.505477688649</range>
				<gx:altitudeMode>relativeToSeaFloor</gx:altitudeMode>
			</LookAt>
			<styleUrl>#msn_homegardenbusiness</styleUrl>
			<Point>
				<gx:drawOrder>1</gx:drawOrder>
				<coordinates>-77.35429888335523,38.93052173422537,0</coordinates>
			</Point>
		</Placemark>
		<Placemark>
			<name>Rest90</name>
			<styleUrl>#inline15</styleUrl>
			<LineString>
				<tessellate>1</tessellate>
				<coordinates>
					-77.35429466515737,38.93053286131995,381.6668928047193 -76.95648808217403,38.92987292556302,90.84054401015325 
				</coordinates>
			</LineString>
		</Placemark>
		<atom:link rel="app" href="https://www.google.com/earth/about/versions/#earth-pro" title="Google Earth Pro 7.3.6.10201"></atom:link>
	</Folder>
</Document>
</kml>
