<?xml version="1.0" encoding="UTF-8"?>
<kml xmlns="http://www.opengis.net/kml/2.2" xmlns:gx="http://www.google.com/kml/ext/2.2" xmlns:kml="http://www.opengis.net/kml/2.2" xmlns:atom="http://www.w3.org/2005/Atom">
<Document>
	<name>map_refpnts.kml</name>
	<Schema name="centerpnts" id="S_centerpnts_SDD0">
		<SimpleField type="string" name="LOC"><displayName>&lt;b&gt;LOC&lt;/b&gt;</displayName>
</SimpleField>
		<SimpleField type="double" name="LAT"><displayName>&lt;b&gt;LAT&lt;/b&gt;</displayName>
</SimpleField>
		<SimpleField type="double" name="LON"><displayName>&lt;b&gt;LON&lt;/b&gt;</displayName>
</SimpleField>
	</Schema>
	<Schema name="trypoints" id="S_trypoints_SDDD0">
		<SimpleField type="string" name="LOC"><displayName>&lt;b&gt;LOC&lt;/b&gt;</displayName>
</SimpleField>
		<SimpleField type="double" name="LAT"><displayName>&lt;b&gt;LAT&lt;/b&gt;</displayName>
</SimpleField>
		<SimpleField type="double" name="LON"><displayName>&lt;b&gt;LON&lt;/b&gt;</displayName>
</SimpleField>
		<SimpleField type="double" name="ALT"><displayName>&lt;b&gt;ALT&lt;/b&gt;</displayName>
</SimpleField>
	</Schema>
	<StyleMap id="msn_placemark_circle13">
		<Pair>
			<key>normal</key>
			<styleUrl>#sn_placemark_circle1021</styleUrl>
		</Pair>
		<Pair>
			<key>highlight</key>
			<styleUrl>#sh_placemark_circle_highlight1521</styleUrl>
		</Pair>
	</StyleMap>
	<Style id="sh_placemark_circle_highlight1521">
		<IconStyle>
			<color>ffb3ffff</color>
			<scale>0.7</scale>
			<Icon>
				<href>http://maps.google.com/mapfiles/kml/shapes/donut.png</href>
			</Icon>
		</IconStyle>
		<LabelStyle>
			<color>40ffffff</color>
			<scale>0.3</scale>
		</LabelStyle>
		<ListStyle>
		</ListStyle>
		<LineStyle>
			<color>ffffaad2</color>
			<width>0.5</width>
		</LineStyle>
		<PolyStyle>
			<color>ffffaad2</color>
		</PolyStyle>
	</Style>
	<Style id="sn_placemark_circle1021">
		<IconStyle>
			<color>ffb3ffff</color>
			<scale>0.7</scale>
			<Icon>
				<href>http://maps.google.com/mapfiles/kml/shapes/donut.png</href>
			</Icon>
		</IconStyle>
		<LabelStyle>
			<color>40ffffff</color>
			<scale>0.3</scale>
		</LabelStyle>
		<ListStyle>
		</ListStyle>
		<LineStyle>
			<color>ffffaad2</color>
			<width>0.5</width>
		</LineStyle>
		<PolyStyle>
			<color>ffffaad2</color>
		</PolyStyle>
	</Style>
	<Folder>
		<name>xfer</name>
		<Placemark>
			<name>Intsct082</name>
			<LookAt>
				<longitude>-77.00894087812381</longitude>
				<latitude>38.87088924136681</latitude>
				<altitude>0</altitude>
				<heading>0.007375442641764845</heading>
				<tilt>0</tilt>
				<range>300.8748368801351</range>
				<gx:altitudeMode>relativeToSeaFloor</gx:altitudeMode>
			</LookAt>
			<styleUrl>#msn_placemark_circle13</styleUrl>
			<Point>
				<gx:drawOrder>1</gx:drawOrder>
				<coordinates>-77.0090785493361,38.87069432450439,0</coordinates>
			</Point>
		</Placemark>
		<Placemark>
			<name>Intsct050</name>
			<LookAt>
				<longitude>-76.97825990840396</longitude>
				<latitude>38.87428857625743</latitude>
				<altitude>0</altitude>
				<heading>0.02665695173219428</heading>
				<tilt>0</tilt>
				<range>2427.188101969998</range>
				<gx:altitudeMode>relativeToSeaFloor</gx:altitudeMode>
			</LookAt>
			<styleUrl>#msn_placemark_circle13</styleUrl>
			<Point>
				<gx:drawOrder>1</gx:drawOrder>
				<coordinates>-76.98072166352279,38.87838133334684,0</coordinates>
			</Point>
		</Placemark>
		<Placemark>
			<name>Intsct062</name>
			<LookAt>
				<longitude>-76.9897280550594</longitude>
				<latitude>38.8897825533662</latitude>
				<altitude>0</altitude>
				<heading>0.01943146707106274</heading>
				<tilt>0</tilt>
				<range>418.4198685019479</range>
				<gx:altitudeMode>relativeToSeaFloor</gx:altitudeMode>
			</LookAt>
			<styleUrl>#msn_placemark_circle13</styleUrl>
			<Point>
				<gx:drawOrder>1</gx:drawOrder>
				<coordinates>-76.99025502597063,38.88980114214431,0</coordinates>
			</Point>
		</Placemark>
		<Placemark>
			<name>Intsct009</name>
			<LookAt>
				<longitude>-77.04414104151931</longitude>
				<latitude>38.90901746043443</latitude>
				<altitude>0</altitude>
				<heading>-0.0147286078565961</heading>
				<tilt>0</tilt>
				<range>882.9803587597979</range>
				<gx:altitudeMode>relativeToSeaFloor</gx:altitudeMode>
			</LookAt>
			<styleUrl>#msn_placemark_circle13</styleUrl>
			<Point>
				<gx:drawOrder>1</gx:drawOrder>
				<coordinates>-77.04345942253296,38.90964122798432,0</coordinates>
			</Point>
		</Placemark>
		<Placemark>
			<name>Intsct008</name>
			<LookAt>
				<longitude>-77.04928837439259</longitude>
				<latitude>38.9035865551196</latitude>
				<altitude>0</altitude>
				<heading>-0.01796118641433139</heading>
				<tilt>0</tilt>
				<range>471.9971500231773</range>
				<gx:altitudeMode>relativeToSeaFloor</gx:altitudeMode>
			</LookAt>
			<styleUrl>#msn_placemark_circle13</styleUrl>
			<Point>
				<gx:drawOrder>1</gx:drawOrder>
				<coordinates>-77.05013189771242,38.90252157183857,0</coordinates>
			</Point>
		</Placemark>
		<Placemark>
			<name>LP1</name>
			<LookAt>
				<longitude>-76.99112287859867</longitude>
				<latitude>38.8892665928345</latitude>
				<altitude>0</altitude>
				<heading>0.01870199010674073</heading>
				<tilt>0</tilt>
				<range>156.6179326710279</range>
				<gx:altitudeMode>relativeToSeaFloor</gx:altitudeMode>
			</LookAt>
			<styleUrl>#msn_placemark_circle13</styleUrl>
			<Point>
				<gx:drawOrder>1</gx:drawOrder>
				<coordinates>-76.99157892959356,38.88923864095456,0</coordinates>
			</Point>
		</Placemark>
		<Placemark>
			<name>Hi WH</name>
			<LookAt>
				<longitude>-77.0743218331759</longitude>
				<latitude>38.89749323586066</latitude>
				<altitude>0</altitude>
				<heading>-89.34316609776971</heading>
				<tilt>89.38314750527104</tilt>
				<range>3715.329198433071</range>
				<gx:altitudeMode>relativeToSeaFloor</gx:altitudeMode>
			</LookAt>
			<styleUrl>#msn_placemark_circle13</styleUrl>
			<Point>
				<extrude>1</extrude>
				<gx:drawOrder>1</gx:drawOrder>
				<coordinates>-77.036556,38.897786,66</coordinates>
			</Point>
		</Placemark>
		<Placemark>
			<name>Hk</name>
			<styleUrl>#msn_placemark_circle13</styleUrl>
			<ExtendedData>
				<SchemaData schemaUrl="#S_trypoints_SDDD0">
					<SimpleData name="LOC">Hk</SimpleData>
					<SimpleData name="LAT">38.8951</SimpleData>
					<SimpleData name="LON">-77.0514</SimpleData>
					<SimpleData name="ALT">96.77</SimpleData>
				</SchemaData>
			</ExtendedData>
			<Point>
				<extrude>1</extrude>
				<coordinates>-77.051444,38.8951366,1</coordinates>
			</Point>
		</Placemark>
		<Placemark>
			<name>NOa</name>
			<LookAt>
				<longitude>-77.06708911060748</longitude>
				<latitude>38.92156126922538</latitude>
				<altitude>0</altitude>
				<heading>-179.2219842926249</heading>
				<tilt>0</tilt>
				<range>165.4793027074781</range>
				<gx:altitudeMode>relativeToSeaFloor</gx:altitudeMode>
			</LookAt>
			<styleUrl>#msn_placemark_circle13</styleUrl>
			<Point>
				<extrude>1</extrude>
				<gx:drawOrder>1</gx:drawOrder>
				<coordinates>-77.06705128052432,38.92154464050518,66</coordinates>
			</Point>
		</Placemark>
		<Placemark>
			<name>M</name>
			<LookAt>
				<longitude>-77.03501869930255</longitude>
				<latitude>38.88956781797305</latitude>
				<altitude>0</altitude>
				<heading>-3.609436577485464e-10</heading>
				<tilt>0</tilt>
				<range>217.0701662614351</range>
				<gx:altitudeMode>relativeToSeaFloor</gx:altitudeMode>
			</LookAt>
			<styleUrl>#msn_placemark_circle13</styleUrl>
			<Point>
				<extrude>1</extrude>
				<gx:drawOrder>1</gx:drawOrder>
				<coordinates>-77.03527800000001,38.889484,169</coordinates>
			</Point>
		</Placemark>
		<Placemark>
			<name>CFb</name>
			<Camera>
				<longitude>-77.01211659304602</longitude>
				<latitude>38.88899919410375</latitude>
				<altitude>136.9104441430418</altitude>
				<heading>23.02394244629244</heading>
				<tilt>0.3793333211804653</tilt>
				<roll>89.96002103307305</roll>
				<gx:altitudeMode>relativeToSeaFloor</gx:altitudeMode>
			</Camera>
			<styleUrl>#msn_placemark_circle13</styleUrl>
			<Point>
				<gx:drawOrder>1</gx:drawOrder>
				<coordinates>-77.01233379820508,38.88898718985376,0</coordinates>
			</Point>
		</Placemark>
		<Placemark>
			<name>CFa</name>
			<Camera>
				<longitude>-77.01272180156393</longitude>
				<latitude>38.89051425647678</latitude>
				<altitude>712.8545528203134</altitude>
				<heading>-58.19667952895244</heading>
				<tilt>0.03263897275980378</tilt>
				<roll>126.1927401114794</roll>
				<gx:altitudeMode>relativeToSeaFloor</gx:altitudeMode>
			</Camera>
			<styleUrl>#msn_placemark_circle13</styleUrl>
			<Point>
				<gx:drawOrder>1</gx:drawOrder>
				<coordinates>-77.01235207597406,38.89064396166972,0</coordinates>
			</Point>
		</Placemark>
		<Placemark>
			<name>CapK</name>
			<LookAt>
				<longitude>-77.00880523001071</longitude>
				<latitude>38.88990543090053</latitude>
				<altitude>0</altitude>
				<heading>0.007467212844387712</heading>
				<tilt>0</tilt>
				<range>153.6665464494</range>
				<gx:altitudeMode>relativeToSeaFloor</gx:altitudeMode>
			</LookAt>
			<styleUrl>#msn_placemark_circle13</styleUrl>
			<Point>
				<extrude>1</extrude>
				<gx:drawOrder>1</gx:drawOrder>
				<coordinates>-77.00904745,38.889801,79.99999999999999</coordinates>
			</Point>
		</Placemark>
		<Placemark>
			<name>P</name>
			<styleUrl>#msn_placemark_circle13</styleUrl>
			<ExtendedData>
				<SchemaData schemaUrl="#S_centerpnts_SDD0">
					<SimpleData name="LOC">PEN</SimpleData>
					<SimpleData name="LAT">38.871</SimpleData>
					<SimpleData name="LON">-77.056</SimpleData>
				</SchemaData>
			</ExtendedData>
			<Point>
				<extrude>1</extrude>
				<coordinates>-77.05596854698287,38.87100323118176,44</coordinates>
			</Point>
		</Placemark>
		<Placemark>
			<name>B</name>
			<LookAt>
				<longitude>-77.00849352356889</longitude>
				<latitude>38.89347235899669</latitude>
				<altitude>0</altitude>
				<heading>0.02696499850188151</heading>
				<tilt>0</tilt>
				<range>735.9854902395907</range>
				<gx:altitudeMode>relativeToSeaFloor</gx:altitudeMode>
			</LookAt>
			<styleUrl>#msn_placemark_circle13</styleUrl>
			<Point>
				<extrude>1</extrude>
				<gx:drawOrder>1</gx:drawOrder>
				<coordinates>-77.008989,38.892747285,33</coordinates>
			</Point>
		</Placemark>
		<Placemark>
			<name>K</name>
			<styleUrl>#msn_placemark_circle13</styleUrl>
			<ExtendedData>
				<SchemaData schemaUrl="#S_centerpnts_SDD0">
					<SimpleData name="LOC">KEY</SimpleData>
					<SimpleData name="LAT">38.8928</SimpleData>
					<SimpleData name="LON">-77.0514</SimpleData>
				</SchemaData>
			</ExtendedData>
			<Point>
				<extrude>1</extrude>
				<coordinates>-77.051435,38.892755,15</coordinates>
			</Point>
		</Placemark>
		<Placemark>
			<name>J</name>
			<Camera>
				<longitude>-77.03659196640794</longitude>
				<latitude>38.8898082232756</latitude>
				<altitude>15.67543074603685</altitude>
				<heading>-172.646385657433</heading>
				<tilt>0.1276454240040489</tilt>
				<roll>10.36020002336397</roll>
				<gx:altitudeMode>relativeToSeaFloor</gx:altitudeMode>
			</Camera>
			<styleUrl>#msn_placemark_circle13</styleUrl>
			<Point>
				<extrude>1</extrude>
				<gx:drawOrder>1</gx:drawOrder>
				<coordinates>-77.03656908080315,38.889801,9.999999999999998</coordinates>
			</Point>
		</Placemark>
		<atom:link rel="app" href="https://www.google.com/earth/about/versions/#earth-pro" title="Google Earth Pro 7.3.6.10201"></atom:link>
	</Folder>
</Document>
</kml>
