{
  "type": "FeatureCollection",
  "features": [
    {
      "type": "Feature",
      "geometry": {
        "type": "Point",
        "coordinates": [
          -77.009079,
          38.870694
        ]
      },
      "properties": {
        "LOC": "I082",
        "LAT_Orig": 38.87069432,
        "LON_Orig": -77.00907854,
        "ALT_M": 7.083,
        "ALT_FT": 23.239
      }
    },
    {
      "type": "Feature",
      "geometry": {
        "type": "Point",
        "coordinates": [
          -76.980722,
          38.878381
        ]
      },
      "properties": {
        "LOC": "I050",
        "LAT_Orig": 38.87838133,
        "LON_Orig": -76.98072166,
        "ALT_M": 14.15,
        "ALT_FT": 46.424
      }
    },
    {
      "type": "Feature",
      "geometry": {
        "type": "Point",
        "coordinates": [
          -76.990255,
          38.889801
        ]
      },
      "properties": {
        "LOC": "I062",
        "LAT_Orig": 38.88980114,
        "LON_Orig": -76.99025502,
        "ALT_M": 27.951,
        "ALT_FT": 91.701
      }
    },
    {
      "type": "Feature",
      "geometry": {
        "type": "Point",
        "coordinates": [
          -77.043459,
          38.909641
        ]
      },
      "properties": {
        "LOC": "I009",
        "LAT_Orig": 38.90964122,
        "LON_Orig": -77.04345942,
        "ALT_M": 27.629,
        "ALT_FT": 90.646
      }
    },
    {
      "type": "Feature",
      "geometry": {
        "type": "Point",
        "coordinates": [
          -77.050132,
          38.902522
        ]
      },
      "properties": {
        "LOC": "I008",
        "LAT_Orig": 38.90252157,
        "LON_Orig": -77.05013189,
        "ALT_M": 21.799,
        "ALT_FT": 71.518
      }
    },
    {
      "type": "Feature",
      "geometry": {
        "type": "Point",
        "coordinates": [
          -76.991579,
          38.889239
        ]
      },
      "properties": {
        "LOC": "LP1",
        "LAT_Orig": 38.88923864,
        "LON_Orig": -76.99157892,
        "ALT_M": 26.343,
        "ALT_FT": 86.428
      }
    },
    {
      "type": "Feature",
      "geometry": {
        "type": "Point",
        "coordinates": [
          -77.036556,
          38.897786
        ]
      },
      "properties": {
        "LOC": "Hi WH",
        "LAT_Orig": 38.897786,
        "LON_Orig": -77.036556,
        "ALT_M": 19.447,
        "ALT_FT": 63.804
      }
    },
    {
      "type": "Feature",
      "geometry": {
        "type": "Point",
        "coordinates": [
          -77.051444,
          38.895137
        ]
      },
      "properties": {
        "LOC": "Hk",
        "LAT_Orig": 38.8951366,
        "LON_Orig": -77.051444,
        "ALT_M": 29.496,
        "ALT_FT": 96.771
      }
    },
    {
      "type": "Feature",
      "geometry": {
        "type": "Point",
        "coordinates": [
          -77.067051,
          38.921545
        ]
      },
      "properties": {
        "LOC": "NOa",
        "LAT_Orig": 38.92154464,
        "LON_Orig": -77.06705128,
        "ALT_M": 85.285,
        "ALT_FT": 279.808
      }
    },
    {
      "type": "Feature",
      "geometry": {
        "type": "Point",
        "coordinates": [
          -77.035278,
          38.889484
        ]
      },
      "properties": {
        "LOC": "M",
        "LAT_Orig": 38.889484,
        "LON_Orig": -77.035278,
        "ALT_M": 12.247,
        "ALT_FT": 40.18
      }
    },
    {
      "type": "Feature",
      "geometry": {
        "type": "Point",
        "coordinates": [
          -77.012334,
          38.888987
        ]
      },
      "properties": {
        "LOC": "CFb",
        "LAT_Orig": 38.88898718,
        "LON_Orig": -77.01233379,
        "ALT_M": 4.308,
        "ALT_FT": 14.133
      }
    },
    {
      "type": "Feature",
      "geometry": {
        "type": "Point",
        "coordinates": [
          -77.012352,
          38.890644
        ]
      },
      "properties": {
        "LOC": "CFa",
        "LAT_Orig": 38.89064396,
        "LON_Orig": -77.01235207,
        "ALT_M": 4.292,
        "ALT_FT": 14.082
      }
    },
    {
      "type": "Feature",
      "geometry": {
        "type": "Point",
        "coordinates": [
          -77.009047,
          38.889801
        ]
      },
      "properties": {
        "LOC": "CapK",
        "LAT_Orig": 38.889801,
        "LON_Orig": -77.00904745,
        "ALT_M": 26.707,
        "ALT_FT": 87.622
      }
    },
    {
      "type": "Feature",
      "geometry": {
        "type": "Point",
        "coordinates": [
          -77.055969,
          38.871003
        ]
      },
      "properties": {
        "LOC": "P",
        "LAT_Orig": 38.87100323,
        "LON_Orig": -77.05596854,
        "ALT_M": 10.779,
        "ALT_FT": 35.363
      }
    },
    {
      "type": "Feature",
      "geometry": {
        "type": "Point",
        "coordinates": [
          -77.008989,
          38.892747
        ]
      },
      "properties": {
        "LOC": "B",
        "LAT_Orig": 38.89274728,
        "LON_Orig": -77.008989,
        "ALT_M": 18.307,
        "ALT_FT": 60.062
      }
    },
    {
      "type": "Feature",
      "geometry": {
        "type": "Point",
        "coordinates": [
          -77.051435,
          38.892755
        ]
      },
      "properties": {
        "LOC": "K",
        "LAT_Orig": 38.892755,
        "LON_Orig": -77.051435,
        "ALT_M": 8.765,
        "ALT_FT": 28.756
      }
    },
    {
      "type": "Feature",
      "geometry": {
        "type": "Point",
        "coordinates": [
          -77.036569,
          38.889801
        ]
      },
      "properties": {
        "LOC": "J",
        "LAT_Orig": 38.889801,
        "LON_Orig": -77.03656908,
        "ALT_M": 6.824,
        "ALT_FT": 22.389
      }
    }
  ]
}