{
"type": "FeatureCollection",
"name": "Washington_DC_Boundary_Stones_Points",
"crs": { "type": "name", "properties": { "name": "urn:ogc:def:crs:OGC:1.3:CRS84" } },
"features": [
{ "type": "Feature", "properties": { "CREATION_DT": "2011-02-17T05:00:00Z", "NARRATIVE": " ", "LOCATION_DESCRIPTION": "150 feet west of the exit from Chevy Chase Crest Apts and 20 feet south of the 1880 block of East-West Highway (MD410) in Silver Spring, MD.\r\n", "STONE_NUM": "NORTH", "PIC_LINK": "http://octo.dc.gov/sites/default/files/dc/sites/octo/featured_content/images/NORTH_2.jpg", "Z": 79.041, "Z_FT": 259.32, "XCOORD": 396449.535, "YCOORD": 147558.137, "GIS_ID": "BoundaryStonesPt_1", "GLOBALID": "{33BFADE0-B15B-4EFA-A172-C1EF50877210}", "CREATOR": null, "CREATED": null, "EDITOR": "DCGIS", "EDITED": "2017-12-29T23:04:48Z", "LATITUDE": 38.99595651, "LONGITUDE": -77.04098558, "OBJECTID": 1 }, "geometry": { "type": "Point", "coordinates": [ -77.040987881400966, 38.995964317643214 ] } },
{ "type": "Feature", "properties": { "CREATION_DT": "2011-02-18T05:00:00Z", "NARRATIVE": " ", "LOCATION_DESCRIPTION": "5 feet East of a driveway at 2701 Daniel P1., 165 ft. NE from the midline of the intersection of Oregon Ave. and Daniel Pl., NW.", "STONE_NUM": "NW9", "PIC_LINK": "http://octo.dc.gov/sites/default/files/dc/sites/octo/featured_content/images/NW9_2.jpg", "Z": 75.173, "Z_FT": 246.63, "XCOORD": 395310.295, "YCOORD": 146419.994, "GIS_ID": "BoundaryStonesPt_2", "GLOBALID": "{0FC0F58B-3453-4231-B438-82909EB229D5}", "CREATOR": null, "CREATED": null, "EDITOR": "DCGIS", "EDITED": "2017-12-29T23:04:48Z", "LATITUDE": 38.98569855, "LONGITUDE": -77.05412886000001, "OBJECTID": 2 }, "geometry": { "type": "Point", "coordinates": [ -77.054131161137605, 38.985706349714512 ] } },
{ "type": "Feature", "properties": { "CREATION_DT": "2011-02-17T05:00:00Z", "NARRATIVE": "SURVEYED CENTER OF THE PLAQUE", "LOCATION_DESCRIPTION": "A bronze plaque exists on the sidewalk in front of convenience store at 7847 Eastern Ave in Silver Spring, MD.", "STONE_NUM": "NE1", "PIC_LINK": "http://octo.dc.gov/sites/default/files/dc/sites/octo/featured_content/images/NE1_3.jpg", "Z": 108.329, "Z_FT": 355.41, "XCOORD": 397596.322, "YCOORD": 146410.287, "GIS_ID": "BoundaryStonesPt_3", "GLOBALID": "{49011B83-3FAD-46D4-A525-5910EBD60AD6}", "CREATOR": null, "CREATED": null, "EDITOR": "DCGIS", "EDITED": "2017-12-29T23:04:48Z", "LATITUDE": 38.98562034, "LONGITUDE": -77.02774336, "OBJECTID": 3 }, "geometry": { "type": "Point", "coordinates": [ -77.02774566095205, 38.985628142432816 ] } },
{ "type": "Feature", "properties": { "CREATION_DT": "2011-02-18T05:00:00Z", "NARRATIVE": " ", "LOCATION_DESCRIPTION": "Center of a front lawn at 6422 Western Ave., NW.", "STONE_NUM": "NW8", "PIC_LINK": "http://octo.dc.gov/sites/default/files/dc/sites/octo/featured_content/images/NW8_2.jpg", "Z": 100.078, "Z_FT": 328.34, "XCOORD": 394171.1779, "YCOORD": 145282.2134, "GIS_ID": "BoundaryStonesPt_4", "GLOBALID": "{6972EA74-9EC3-4394-9848-6246FB6136C1}", "CREATOR": null, "CREATED": null, "EDITOR": "DCGIS", "EDITED": "2017-12-29T23:04:48Z", "LATITUDE": 38.97544235, "LONGITUDE": -77.06726693, "OBJECTID": 4 }, "geometry": { "type": "Point", "coordinates": [ -77.067269240119444, 38.97545014552221 ] } },
{ "type": "Feature", "properties": { "CREATION_DT": "2011-02-17T05:00:00Z", "NARRATIVE": " ", "LOCATION_DESCRIPTION": "South corner of a front lawn at 6890 Maple Ave, NE", "STONE_NUM": "NE2", "PIC_LINK": "http://octo.dc.gov/sites/default/files/dc/sites/octo/featured_content/images/NE2_2.jpg", "Z": 85.408, "Z_FT": 280.21, "XCOORD": 398735.3701, "YCOORD": 145270.0561, "GIS_ID": "BoundaryStonesPt_5", "GLOBALID": "{2CF112A4-EB02-4A63-8B66-E978DF2EF213}", "CREATOR": null, "CREATED": null, "EDITOR": "DCGIS", "EDITED": "2017-12-29T23:04:48Z", "LATITUDE": 38.97535127, "LONGITUDE": -77.01459431000001, "OBJECTID": 5 }, "geometry": { "type": "Point", "coordinates": [ -77.014596607445228, 38.975359069120088 ] } },
{ "type": "Feature", "properties": { "CREATION_DT": "2011-02-17T05:00:00Z", "NARRATIVE": " ", "LOCATION_DESCRIPTION": "About 140 feet northwest of intersection of Chillum Rd and Eastern Ave, NE", "STONE_NUM": "NE3", "PIC_LINK": "http://octo.dc.gov/sites/default/files/dc/sites/octo/featured_content/images/NE3_2.jpg", "Z": 56.4, "Z_FT": 185.04, "XCOORD": 399853.465, "YCOORD": 144151.1289, "GIS_ID": "BoundaryStonesPt_6", "GLOBALID": "{D8179C55-2BB1-4EFF-BD1E-053E7356D093}", "CREATOR": null, "CREATED": null, "EDITOR": "DCGIS", "EDITED": "2017-12-29T23:04:48Z", "LATITUDE": 38.9652726, "LONGITUDE": -77.00169083, "OBJECTID": 6 }, "geometry": { "type": "Point", "coordinates": [ -77.001693118945667, 38.965280405007142 ] } },
{ "type": "Feature", "properties": { "CREATION_DT": "2011-02-18T05:00:00Z", "NARRATIVE": " ", "LOCATION_DESCRIPTION": "Under a tree on the South corner of the front lawn of 5600 Western Ave., NW.", "STONE_NUM": "NW7", "PIC_LINK": "http://octo.dc.gov/sites/default/files/dc/sites/octo/featured_content/images/NW7_2.jpg", "Z": 104.242, "Z_FT": 342.0, "XCOORD": 393031.8656, "YCOORD": 144144.1793, "GIS_ID": "BoundaryStonesPt_7", "GLOBALID": "{FF800E4A-AC90-4934-94CD-B5821CB9EAB1}", "CREATOR": null, "CREATED": null, "EDITOR": "DCGIS", "EDITED": "2017-12-29T23:04:48Z", "LATITUDE": 38.96518237, "LONGITUDE": -77.08040347, "OBJECTID": 7 }, "geometry": { "type": "Point", "coordinates": [ -77.080405784919279, 38.965190163927105 ] } },
{ "type": "Feature", "properties": { "CREATION_DT": "2011-02-18T05:00:00Z", "NARRATIVE": " ", "LOCATION_DESCRIPTION": "Just West of a bus stop opposite Fesseden St., in between Park Place and Western Avenue, NW.", "STONE_NUM": "NW6", "PIC_LINK": "http://octo.dc.gov/sites/default/files/dc/sites/octo/featured_content/images/NW6_2.jpg", "Z": 84.994, "Z_FT": 278.85, "XCOORD": 391891.5661, "YCOORD": 143004.7817, "GIS_ID": "BoundaryStonesPt_8", "GLOBALID": "{8A6443B6-4F50-4D54-B207-21F97F868C1C}", "CREATOR": null, "CREATED": null, "EDITOR": "DCGIS", "EDITED": "2017-12-29T23:04:48Z", "LATITUDE": 38.9549086, "LONGITUDE": -77.09354761, "OBJECTID": 8 }, "geometry": { "type": "Point", "coordinates": [ -77.093549930169416, 38.954916398623197 ] } },
{ "type": "Feature", "properties": { "CREATION_DT": "2011-02-17T05:00:00Z", "NARRATIVE": " ", "LOCATION_DESCRIPTION": "About 75 feet northwest of the intersection of Eastern Ave and Sargent Rd, NE", "STONE_NUM": "NE4", "PIC_LINK": "http://octo.dc.gov/sites/default/files/dc/sites/octo/featured_content/images/NE4_2.jpg", "Z": 36.905, "Z_FT": 121.08, "XCOORD": 401022.1615, "YCOORD": 142981.1776, "GIS_ID": "BoundaryStonesPt_9", "GLOBALID": "{10BA6E3A-4DD6-4198-8409-37BB1C12E6BE}", "CREATOR": null, "CREATED": null, "EDITOR": "DCGIS", "EDITED": "2017-12-29T23:04:48Z", "LATITUDE": 38.9547328, "LONGITUDE": -76.98820727, "OBJECTID": 9 }, "geometry": { "type": "Point", "coordinates": [ -76.988209554297484, 38.95474060193709 ] } },
{ "type": "Feature", "properties": { "CREATION_DT": "2011-03-08T05:00:00Z", "NARRATIVE": " ", "LOCATION_DESCRIPTION": "About 300 ft. SE of a concrete culvert, 600 feet West of the Daleclaria Parkway, NW. It is atop small ridge about 100 ft. SE of a small gully.", "STONE_NUM": "NW5", "PIC_LINK": "http://octo.dc.gov/sites/default/files/dc/sites/octo/featured_content/images/NW5_1.jpg", "Z": 62.02, "Z_FT": 203.48, "XCOORD": 390751.824, "YCOORD": 141866.021, "GIS_ID": "BoundaryStonesPt_10", "GLOBALID": "{19F8959B-D728-4D43-8F9E-A1E1350B0A69}", "CREATOR": null, "CREATED": null, "EDITOR": "DCGIS", "EDITED": "2017-12-29T23:04:48Z", "LATITUDE": 38.94463908, "LONGITUDE": -77.10668154, "OBJECTID": 10 }, "geometry": { "type": "Point", "coordinates": [ -77.106683858456677, 38.944646870484682 ] } },
{ "type": "Feature", "properties": { "CREATION_DT": "2011-02-17T05:00:00Z", "NARRATIVE": " ", "LOCATION_DESCRIPTION": "Center of a front lawn at 4609 Eastern Ave., NE.", "STONE_NUM": "NE5", "PIC_LINK": "http://octo.dc.gov/sites/default/files/dc/sites/octo/featured_content/images/NE5_2.jpg", "Z": 18.526, "Z_FT": 60.78, "XCOORD": 402166.4792, "YCOORD": 141835.9109, "GIS_ID": "BoundaryStonesPt_11", "GLOBALID": "{92AB4003-7246-4306-A927-EBCF7A1D10D2}", "CREATOR": null, "CREATED": null, "EDITOR": "DCGIS", "EDITED": "2017-12-29T23:04:48Z", "LATITUDE": 38.94441385, "LONGITUDE": -76.97500885, "OBJECTID": 11 }, "geometry": { "type": "Point", "coordinates": [ -76.975011130596883, 38.944421643516414 ] } },
{ "type": "Feature", "properties": { "CREATION_DT": "2011-03-04T05:00:00Z", "NARRATIVE": " ", "LOCATION_DESCRIPTION": "The back yard of 5609 Daleclaria Place, NW. About 900 ft. N of the SW corner fence of the Daleclaria Reservoir, about 100 East of the fence. ", "STONE_NUM": "NW4", "PIC_LINK": "http://octo.dc.gov/sites/default/files/dc/sites/octo/featured_content/images/NW4_2.jpg", "Z": 44.65, "Z_FT": 146.48, "XCOORD": 389971.489, "YCOORD": 141086.236, "GIS_ID": "BoundaryStonesPt_12", "GLOBALID": "{FD22F65E-2844-4D17-B166-0D36CE147D4B}", "CREATOR": null, "CREATED": null, "EDITOR": "DCGIS", "EDITED": "2017-12-29T23:04:48Z", "LATITUDE": 38.93760599, "LONGITUDE": -77.11567162, "OBJECTID": 12 }, "geometry": { "type": "Point", "coordinates": [ -77.115673941116469, 38.937613783757271 ] } },
{ "type": "Feature", "properties": { "CREATION_DT": "2011-02-17T05:00:00Z", "NARRATIVE": " ", "LOCATION_DESCRIPTION": "South corner of a front lawn at 3601 Eastern Ave., NE.", "STONE_NUM": "NE6", "PIC_LINK": "http://octo.dc.gov/sites/default/files/dc/sites/octo/featured_content/images/NE6_2.jpg", "Z": 17.206, "Z_FT": 56.45, "XCOORD": 403352.8032, "YCOORD": 140648.6499, "GIS_ID": "BoundaryStonesPt_13", "GLOBALID": "{D0D37F5C-F112-4B51-A5FB-1A5F3B2B5313}", "CREATOR": null, "CREATED": null, "EDITOR": "DCGIS", "EDITED": "2017-12-29T23:04:48Z", "LATITUDE": 38.93371493, "LONGITUDE": -76.96132996, "OBJECTID": 13 }, "geometry": { "type": "Point", "coordinates": [ -76.961332236170236, 38.933722720873028 ] } },
{ "type": "Feature", "properties": { "CREATION_DT": "2011-02-18T05:00:00Z", "NARRATIVE": " ", "LOCATION_DESCRIPTION": "Center of a back yard at 4013 Tazwell St., Arl. VA.", "STONE_NUM": "NW3", "PIC_LINK": "http://octo.dc.gov/sites/default/files/dc/sites/octo/featured_content/images/NW3_2.jpg", "Z": 69.559, "Z_FT": 228.21, "XCOORD": 388533.267, "YCOORD": 139648.0958, "GIS_ID": "BoundaryStonesPt_14", "GLOBALID": "{AFB77496-3F7D-4B32-A308-A982E85F2D67}", "CREATOR": null, "CREATED": null, "EDITOR": "DCGIS", "EDITED": "2017-12-29T23:04:48Z", "LATITUDE": 38.92463321, "LONGITUDE": -77.13223642, "OBJECTID": 14 }, "geometry": { "type": "Point", "coordinates": [ -77.13223874553475, 38.924640993988824 ] } },
{ "type": "Feature", "properties": { "CREATION_DT": "2011-02-17T05:00:00Z", "NARRATIVE": " ", "LOCATION_DESCRIPTION": "About 100 ft. SE of the South corner of a series of raised monuments on the 18th block of Fort Lincoln Cemetery, Cottage City, MD. West of the Garden of the Crucifixion, along the boundary fence.", "STONE_NUM": "NE7", "PIC_LINK": "http://octo.dc.gov/sites/default/files/dc/sites/octo/featured_content/images/NE7_1.jpg", "Z": 25.262, "Z_FT": 82.88, "XCOORD": 404452.856, "YCOORD": 139547.2399, "GIS_ID": "BoundaryStonesPt_15", "GLOBALID": "{74C2D185-9ED1-45FA-8D7D-814C88B905A7}", "CREATOR": null, "CREATED": null, "EDITOR": "DCGIS", "EDITED": "2017-12-29T23:04:48Z", "LATITUDE": 38.9237882, "LONGITUDE": -76.94864949, "OBJECTID": 15 }, "geometry": { "type": "Point", "coordinates": [ -76.948651759581367, 38.923795990795668 ] } },
{ "type": "Feature", "properties": { "CREATION_DT": "2011-03-03T05:00:00Z", "NARRATIVE": " ", "LOCATION_DESCRIPTION": "On the NE corner of 5298 Old Dominion Drive, Arl. VA.", "STONE_NUM": "NW2", "PIC_LINK": "http://octo.dc.gov/sites/default/files/dc/sites/octo/featured_content/images/NW2_1.jpg", "Z": 93.162, "Z_FT": 305.65, "XCOORD": 387338.96, "YCOORD": 138456.344, "GIS_ID": "BoundaryStonesPt_16", "GLOBALID": "{3BAEA793-41A7-48B9-B4DE-F5D784DF72A8}", "CREATOR": null, "CREATED": null, "EDITOR": "DCGIS", "EDITED": "2017-12-29T23:04:48Z", "LATITUDE": 38.91388113, "LONGITUDE": -77.14598738, "OBJECTID": 16 }, "geometry": { "type": "Point", "coordinates": [ -77.145989710667692, 38.913888917300135 ] } },
{ "type": "Feature", "properties": { "CREATION_DT": "2011-02-17T05:00:00Z", "NARRATIVE": " ", "LOCATION_DESCRIPTION": "About 500 ft. NE of intersection of Kenilworth and Eastern Ayes, behind a D.C. Public Housing Project, NE. ", "STONE_NUM": "NE8", "PIC_LINK": "http://octo.dc.gov/sites/default/files/dc/sites/octo/featured_content/images/NE8_2.jpg", "Z": 4.938, "Z_FT": 16.2, "XCOORD": 405595.369, "YCOORD": 138403.979, "GIS_ID": "BoundaryStonesPt_17", "GLOBALID": "{F0768BAC-3CA5-4B10-9A11-10EA6661729A}", "CREATOR": null, "CREATED": null, "EDITOR": "DCGIS", "EDITED": "2017-12-29T23:04:48Z", "LATITUDE": 38.9134828, "LONGITUDE": -76.93548331, "OBJECTID": 17 }, "geometry": { "type": "Point", "coordinates": [ -76.935485571897104, 38.913490589679391 ] } },
{ "type": "Feature", "properties": { "CREATION_DT": "2011-02-18T05:00:00Z", "NARRATIVE": " ", "LOCATION_DESCRIPTION": "N corner of a back yard at 3607 Powhatan St., Arl., VA.", "STONE_NUM": "NW1", "PIC_LINK": "http://octo.dc.gov/sites/default/files/dc/sites/octo/featured_content/images/NW1_2.jpg", "Z": 130.595, "Z_FT": 428.46, "XCOORD": 386195.9, "YCOORD": 137312.693, "GIS_ID": "BoundaryStonesPt_18", "GLOBALID": "{627EC3CB-C071-45ED-ABB4-2A4F30545275}", "CREATOR": null, "CREATED": null, "EDITOR": "DCGIS", "EDITED": "2017-12-29T23:04:48Z", "LATITUDE": 38.90356154, "LONGITUDE": -77.15914435000001, "OBJECTID": 18 }, "geometry": { "type": "Point", "coordinates": [ -77.159146686281332, 38.903569318170703 ] } },
{ "type": "Feature", "properties": { "CREATION_DT": "2011-02-17T05:00:00Z", "NARRATIVE": " ", "LOCATION_DESCRIPTION": "West corner of the front lawn at 919 Eastern Ave., NE.", "STONE_NUM": "NE9", "PIC_LINK": "http://octo.dc.gov/sites/default/files/dc/sites/octo/featured_content/images/NE9_2.jpg", "Z": 37.862, "Z_FT": 124.22, "XCOORD": 406738.0024, "YCOORD": 137259.942, "GIS_ID": "BoundaryStonesPt_19", "GLOBALID": "{7DDA3F37-EABF-449B-BB05-657821BC23A2}", "CREATOR": null, "CREATED": null, "EDITOR": "DCGIS", "EDITED": "2017-12-29T23:04:48Z", "LATITUDE": 38.9031689, "LONGITUDE": -76.92231955, "OBJECTID": 19 }, "geometry": { "type": "Point", "coordinates": [ -76.922321812958359, 38.903176694569986 ] } },
{ "type": "Feature", "properties": { "CREATION_DT": "2011-03-03T05:00:00Z", "NARRATIVE": " ", "LOCATION_DESCRIPTION": "Andrew Ellicott Park, 2848 N. Arizona Street, Arl., VA", "STONE_NUM": "WEST", "PIC_LINK": "http://octo.dc.gov/sites/default/files/dc/sites/octo/featured_content/images/WEST_2.jpg", "Z": 104.481, "Z_FT": 342.785, "XCOORD": 385052.527, "YCOORD": 136169.563, "GIS_ID": "BoundaryStonesPt_20", "GLOBALID": "{4E9D300D-3B50-4339-8105-756C709EFFEA}", "CREATOR": null, "CREATED": null, "EDITOR": "DCGIS", "EDITED": "2017-12-29T23:04:48Z", "LATITUDE": 38.89324513, "LONGITUDE": -77.17230114, "OBJECTID": 20 }, "geometry": { "type": "Point", "coordinates": [ -77.172303474591615, 38.893252906615693 ] } },
{ "type": "Feature", "properties": { "CREATION_DT": "2011-03-02T05:00:00Z", "NARRATIVE": " ", "LOCATION_DESCRIPTION": "About 100 ft. East of the intersection of Eastern and Southern Aves.", "STONE_NUM": "EAST", "PIC_LINK": "http://octo.dc.gov/sites/default/files/dc/sites/octo/featured_content/images/EAST_2.jpg", "Z": 28.624, "Z_FT": 93.91, "XCOORD": 407880.12, "YCOORD": 136116.681, "GIS_ID": "BoundaryStonesPt_21", "GLOBALID": "{B33BEB30-CA66-4CA5-9647-05765D78507F}", "CREATOR": null, "CREATED": null, "EDITOR": "DCGIS", "EDITED": "2017-12-29T23:04:48Z", "LATITUDE": 38.8928605, "LONGITUDE": -76.90916553, "OBJECTID": 21 }, "geometry": { "type": "Point", "coordinates": [ -76.909167787995884, 38.892868292610139 ] } },
{ "type": "Feature", "properties": { "CREATION_DT": "2011-03-03T05:00:00Z", "NARRATIVE": " ", "LOCATION_DESCRIPTION": "A park along Van Buren Street, N of Columbia St., F.C., VA.", "STONE_NUM": "SW9", "PIC_LINK": "http://octo.dc.gov/sites/default/files/dc/sites/octo/featured_content/images/SW9_2.jpg", "Z": 85.009, "Z_FT": 278.9, "XCOORD": 386196.6208, "YCOORD": 135023.8586, "GIS_ID": "BoundaryStonesPt_22", "GLOBALID": "{2C78C78B-6C2C-4BC3-B6B8-F89FB7475CCC}", "CREATOR": null, "CREATED": null, "EDITOR": "DCGIS", "EDITED": "2017-12-29T23:04:48Z", "LATITUDE": 38.88294292, "LONGITUDE": -77.15909005, "OBJECTID": 22 }, "geometry": { "type": "Point", "coordinates": [ -77.159092386949524, 38.882950694859829 ] } },
{ "type": "Feature", "properties": { "CREATION_DT": "2011-03-02T05:00:00Z", "NARRATIVE": " ", "LOCATION_DESCRIPTION": "Opposite the end of D St., along Southern Ave., SE.", "STONE_NUM": "SE1", "PIC_LINK": "http://octo.dc.gov/sites/default/files/dc/sites/octo/featured_content/images/SE1_2.jpg", "Z": 61.92, "Z_FT": 203.15, "XCOORD": 406742.205, "YCOORD": 134981.08, "GIS_ID": "BoundaryStonesPt_23", "GLOBALID": "{0BF12036-1018-4E19-83B0-1AABDB606A0D}", "CREATOR": null, "CREATED": null, "EDITOR": "DCGIS", "EDITED": "2017-12-29T23:04:48Z", "LATITUDE": 38.88264005, "LONGITUDE": -76.92229346000001, "OBJECTID": 23 }, "geometry": { "type": "Point", "coordinates": [ -76.92229572008263, 38.882647834033556 ] } },
{ "type": "Feature", "properties": { "CREATION_DT": "2011-03-03T05:00:00Z", "NARRATIVE": " ", "LOCATION_DESCRIPTION": "About 120 ft. SE of a water tower in an apartment complex parking lot on the SE corner of John Marshall Dr. and Wilson Blvd., Falls Church, VA. ", "STONE_NUM": "SW8", "PIC_LINK": "http://octo.dc.gov/sites/default/files/dc/sites/octo/featured_content/images/SW8_2.jpg", "Z": 124.414, "Z_FT": 408.18, "XCOORD": 387335.2983, "YCOORD": 133881.7158, "GIS_ID": "BoundaryStonesPt_24", "GLOBALID": "{66DD3803-57D5-4ACB-B182-11FDB6216659}", "CREATOR": null, "CREATED": null, "EDITOR": "DCGIS", "EDITED": "2017-12-29T23:04:48Z", "LATITUDE": 38.8726712, "LONGITUDE": -77.14594528000001, "OBJECTID": 24 }, "geometry": { "type": "Point", "coordinates": [ -77.145947603850885, 38.872678971613354 ] } },
{ "type": "Feature", "properties": { "CREATION_DT": "2011-03-02T05:00:00Z", "NARRATIVE": " ", "LOCATION_DESCRIPTION": "N corner of a front lawn at 4345 Southern Ave., SE.", "STONE_NUM": "SE2", "PIC_LINK": "http://octo.dc.gov/sites/default/files/dc/sites/octo/featured_content/images/SE2_2.jpg", "Z": 88.276, "Z_FT": 289.62, "XCOORD": 405603.709, "YCOORD": 133844.6301, "GIS_ID": "BoundaryStonesPt_25", "GLOBALID": "{B726377D-7511-471F-8A3C-E30F7C7D6767}", "CREATOR": null, "CREATED": null, "EDITOR": "DCGIS", "EDITED": "2017-12-29T23:04:48Z", "LATITUDE": 38.87241045, "LONGITUDE": -76.93542433, "OBJECTID": 25 }, "geometry": { "type": "Point", "coordinates": [ -76.935426593768028, 38.872418237693132 ] } },
{ "type": "Feature", "properties": { "CREATION_DT": "2011-03-03T05:00:00Z", "NARRATIVE": " ", "LOCATION_DESCRIPTION": "Along the SW fence on the grounds of Carlin Springs Elementary School, Arl., VA.", "STONE_NUM": "SW7", "PIC_LINK": "http://octo.dc.gov/sites/default/files/dc/sites/octo/featured_content/images/SW7_1.jpg", "Z": 81.778, "Z_FT": 268.3, "XCOORD": 388480.7701, "YCOORD": 132736.6848, "GIS_ID": "BoundaryStonesPt_26", "GLOBALID": "{90011988-0A74-4F39-92A8-821DA748C5D5}", "CREATOR": null, "CREATED": null, "EDITOR": "DCGIS", "EDITED": "2017-12-29T23:04:48Z", "LATITUDE": 38.86237205, "LONGITUDE": -77.13272594, "OBJECTID": 26 }, "geometry": { "type": "Point", "coordinates": [ -77.132728263417064, 38.862379823914274 ] } },
{ "type": "Feature", "properties": { "CREATION_DT": "2011-03-02T05:00:00Z", "NARRATIVE": " ", "LOCATION_DESCRIPTION": "Opposite 3908 Southern Ave., surrounded by ivy.", "STONE_NUM": "SE3", "PIC_LINK": "http://octo.dc.gov/sites/default/files/dc/sites/octo/featured_content/images/SE3_2.jpg", "Z": 74.231, "Z_FT": 243.54, "XCOORD": 404463.5306, "YCOORD": 132706.0963, "GIS_ID": "BoundaryStonesPt_27", "GLOBALID": "{C00B57F3-A64B-41E7-9518-0FE65083F9FC}", "CREATOR": null, "CREATED": null, "EDITOR": "DCGIS", "EDITED": "2017-12-29T23:04:48Z", "LATITUDE": 38.8621606, "LONGITUDE": -76.94857083, "OBJECTID": 27 }, "geometry": { "type": "Point", "coordinates": [ -76.948573096856023, 38.86216838243233 ] } },
{ "type": "Feature", "properties": { "CREATION_DT": "2011-02-18T05:00:00Z", "NARRATIVE": " ", "LOCATION_DESCRIPTION": "In the median strip of S. Jefferson Street between Columbia and Leesburg Pikes, Fairfax Co./Arlington, VA.", "STONE_NUM": "SW6", "PIC_LINK": "http://octo.dc.gov/sites/default/files/dc/sites/octo/featured_content/images/SW6_2.jpg", "Z": 64.974, "Z_FT": 213.17, "XCOORD": 389647.6382, "YCOORD": 131568.7526, "GIS_ID": "BoundaryStonesPt_28", "GLOBALID": "{3F997A8A-DF42-4955-BF4E-F87235D17398}", "CREATOR": null, "CREATED": null, "EDITOR": "DCGIS", "EDITED": "2017-12-29T23:04:48Z", "LATITUDE": 38.85186534, "LONGITUDE": -77.11926358, "OBJECTID": 28 }, "geometry": { "type": "Point", "coordinates": [ -77.119265901677949, 38.851873112309903 ] } },
{ "type": "Feature", "properties": { "CREATION_DT": "2011-03-03T05:00:00Z", "NARRATIVE": " ", "LOCATION_DESCRIPTION": "About 100 ft. NE of the intersection of King St. and Walter Reed Dr., on The N side of Walter Reed Dr., An., VA.", "STONE_NUM": "SW5", "PIC_LINK": "http://octo.dc.gov/sites/default/files/dc/sites/octo/featured_content/images/SW5_1.jpg", "Z": 37.401, "Z_FT": 122.707, "XCOORD": 390733.437, "YCOORD": 130481.298, "GIS_ID": "BoundaryStonesPt_29", "GLOBALID": "{30A0D82D-6A45-435C-931C-AAA768E4B381}", "CREATOR": null, "CREATED": null, "EDITOR": "DCGIS", "EDITED": "2017-12-29T23:04:48Z", "LATITUDE": 38.84208118, "LONGITUDE": -77.10674008, "OBJECTID": 29 }, "geometry": { "type": "Point", "coordinates": [ -77.106742397615221, 38.842088952891736 ] } },
{ "type": "Feature", "properties": { "CREATION_DT": "2011-03-02T05:00:00Z", "NARRATIVE": " ", "LOCATION_DESCRIPTION": "Opposite the NE end of Valley Terrace, along Southern Ave., Next to a parking lot for the Southern Ave. Metro stop, SE.", "STONE_NUM": "SE5", "PIC_LINK": "http://octo.dc.gov/sites/default/files/dc/sites/octo/featured_content/images/SE5_2.jpg", "Z": 34.659, "Z_FT": 113.71, "XCOORD": 402184.31, "YCOORD": 130431.9279, "GIS_ID": "BoundaryStonesPt_30", "GLOBALID": "{2B4DF732-3FA3-4B95-9EA5-E8B18D53B97E}", "CREATOR": null, "CREATED": null, "EDITOR": "DCGIS", "EDITED": "2017-12-29T23:04:48Z", "LATITUDE": 38.84168253, "LONGITUDE": -76.97483942, "OBJECTID": 30 }, "geometry": { "type": "Point", "coordinates": [ -76.974841694099098, 38.8416903023925 ] } },
{ "type": "Feature", "properties": { "CREATION_DT": "2011-02-18T05:00:00Z", "NARRATIVE": " ", "LOCATION_DESCRIPTION": "Just off the sidewalk on King St., about 150 ft. NW of Wakefield St., Alex., VA.", "STONE_NUM": "SW4", "PIC_LINK": "http://octo.dc.gov/sites/default/files/dc/sites/octo/featured_content/images/SW4_1.jpg", "Z": 60.012, "Z_FT": 196.89, "XCOORD": 391908.8495, "YCOORD": 129310.199, "GIS_ID": "BoundaryStonesPt_31", "GLOBALID": "{AD66CE91-AD96-48B6-9059-3B448DC7E976}", "CREATOR": null, "CREATED": null, "EDITOR": "DCGIS", "EDITED": "2017-12-29T23:04:48Z", "LATITUDE": 38.83154299, "LONGITUDE": -77.09318693, "OBJECTID": 31 }, "geometry": { "type": "Point", "coordinates": [ -77.093189234802651, 38.831550759895158 ] } },
{ "type": "Feature", "properties": { "CREATION_DT": "2011-03-02T05:00:00Z", "NARRATIVE": " ", "LOCATION_DESCRIPTION": "About 20 ft. West of the entrance to the Tribles Co., 901 Southern Ave., SE.", "STONE_NUM": "SE6", "PIC_LINK": "http://octo.dc.gov/sites/default/files/dc/sites/octo/featured_content/images/SE6_2.jpg", "Z": 58.51, "Z_FT": 191.96, "XCOORD": 401044.2453, "YCOORD": 129294.3916, "GIS_ID": "BoundaryStonesPt_32", "GLOBALID": "{15EA3B4F-7DE4-4F7B-9829-57330A9A739C}", "CREATOR": null, "CREATED": null, "EDITOR": "DCGIS", "EDITED": "2017-12-29T23:04:48Z", "LATITUDE": 38.83143718, "LONGITUDE": -76.9879733, "OBJECTID": 32 }, "geometry": { "type": "Point", "coordinates": [ -76.987975577167859, 38.831444949671258 ] } },
{ "type": "Feature", "properties": { "CREATION_DT": "2011-03-02T05:00:00Z", "NARRATIVE": " ", "LOCATION_DESCRIPTION": "About 25 ft. East of the intersection of Indian Head Hwy. and Southern Ave., SE. Just SE of the bridge going over Oxon Run on Indian Head Hwy.", "STONE_NUM": "SE7", "PIC_LINK": "http://octo.dc.gov/sites/default/files/dc/sites/octo/featured_content/images/SE7_2.jpg", "Z": 12.527, "Z_FT": 41.1, "XCOORD": 399904.7845, "YCOORD": 128157.5424, "GIS_ID": "BoundaryStonesPt_33", "GLOBALID": "{C446EA3F-2426-4829-BF45-3302E2A5D590}", "CREATOR": null, "CREATED": null, "EDITOR": "DCGIS", "EDITED": "2017-12-29T23:04:48Z", "LATITUDE": 38.82119651, "LONGITUDE": -77.00109645000001, "OBJECTID": 33 }, "geometry": { "type": "Point", "coordinates": [ -77.001098724725793, 38.82120428263898 ] } },
{ "type": "Feature", "properties": { "CREATION_DT": "2011-02-18T05:00:00Z", "NARRATIVE": " ", "LOCATION_DESCRIPTION": "North end of a parking lot of the First Baptist Church of Alexandria at 2932 King St., Alex., VA", "STONE_NUM": "SW3", "PIC_LINK": "http://octo.dc.gov/sites/default/files/dc/sites/octo/featured_content/images/SW3_2.jpg", "Z": 52.971, "Z_FT": 173.79, "XCOORD": 393111.8066, "YCOORD": 128100.1608, "GIS_ID": "BoundaryStonesPt_34", "GLOBALID": "{D9F77609-02E0-48EF-AEF1-6FB5B780E1C8}", "CREATOR": null, "CREATED": null, "EDITOR": "DCGIS", "EDITED": "2017-12-29T23:04:48Z", "LATITUDE": 38.82065264, "LONGITUDE": -77.0793202, "OBJECTID": 34 }, "geometry": { "type": "Point", "coordinates": [ -77.079322501296701, 38.820660410902768 ] } },
{ "type": "Feature", "properties": { "CREATION_DT": "2011-03-02T05:00:00Z", "NARRATIVE": "STONE UNDER 4' OF WATER, COORDINATES APPROX.", "LOCATION_DESCRIPTION": "SE corner of the D.C. Village Impound Lot, SW.", "STONE_NUM": "SE8", "PIC_LINK": "http://octo.dc.gov/sites/default/files/dc/sites/octo/featured_content/images/SE8_1.jpg", "Z": 5.29, "Z_FT": 17.36, "XCOORD": 398762.3166, "YCOORD": 127016.8414, "GIS_ID": "BoundaryStonesPt_35", "GLOBALID": "{32D89A1B-9504-4431-9FE4-E233A27DFA55}", "CREATOR": null, "CREATED": null, "EDITOR": "DCGIS", "EDITED": "2017-12-29T23:04:48Z", "LATITUDE": 38.81091966, "LONGITUDE": -77.01425045000001, "OBJECTID": 35 }, "geometry": { "type": "Point", "coordinates": [ -77.014252735546805, 38.810927428023071 ] } },
{ "type": "Feature", "properties": { "CREATION_DT": "2011-02-18T05:00:00Z", "NARRATIVE": " ", "LOCATION_DESCRIPTION": "On the sidewalk just West of 7 Russell Rd., Alex. VA.", "STONE_NUM": "SW2", "PIC_LINK": "http://octo.dc.gov/sites/default/files/dc/sites/octo/featured_content/images/SW2_2.jpg", "Z": 8.662, "Z_FT": 28.42, "XCOORD": 394559.5063, "YCOORD": 126649.2671, "GIS_ID": "BoundaryStonesPt_36", "GLOBALID": "{D528ADD1-9D81-4FFB-AC21-B880BEA15CC9}", "CREATOR": null, "CREATED": null, "EDITOR": "DCGIS", "EDITED": "2017-12-29T23:04:48Z", "LATITUDE": 38.80759243, "LONGITUDE": -77.06263793, "OBJECTID": 36 }, "geometry": { "type": "Point", "coordinates": [ -77.06264022516531, 38.807600193367904 ] } },
{ "type": "Feature", "properties": { "CREATION_DT": "2011-03-03T05:00:00Z", "NARRATIVE": " ", "LOCATION_DESCRIPTION": "About 1000 ft. SW of the South end of Oxon Cove Bridge along Interstate 295, about 120 ft. East of the Potomac river bed.", "STONE_NUM": "SE9", "PIC_LINK": "http://octo.dc.gov/sites/default/files/dc/sites/octo/featured_content/images/SE9_1.jpg", "Z": 2.041, "Z_FT": 6.696, "XCOORD": 397938.158, "YCOORD": 126194.122, "GIS_ID": "BoundaryStonesPt_37", "GLOBALID": "{91D9434F-7C0D-4593-B8F5-2E49D562CE07}", "CREATOR": null, "CREATED": null, "EDITOR": "DCGIS", "EDITED": "2017-12-29T23:04:48Z", "LATITUDE": 38.80350665, "LONGITUDE": -77.0237372, "OBJECTID": 37 }, "geometry": { "type": "Point", "coordinates": [ -77.023739488787328, 38.803514420461852 ] } },
{ "type": "Feature", "properties": { "CREATION_DT": "2011-02-18T05:00:00Z", "NARRATIVE": " ", "LOCATION_DESCRIPTION": "On the NW corner of a lot at 1220 Wilkes Street, Alex. VA.", "STONE_NUM": "SW1", "PIC_LINK": "http://octo.dc.gov/sites/default/files/dc/sites/octo/featured_content/images/SW1_1.jpg", "Z": 8.909, "Z_FT": 29.23, "XCOORD": 395275.2067, "YCOORD": 125944.0426, "GIS_ID": "BoundaryStonesPt_38", "GLOBALID": "{5262CCC2-91C5-4A13-A81B-36A88F08AF83}", "CREATOR": null, "CREATED": null, "EDITOR": "DCGIS", "EDITED": "2017-12-29T23:04:48Z", "LATITUDE": 38.80124355, "LONGITUDE": -77.05439303, "OBJECTID": 38 }, "geometry": { "type": "Point", "coordinates": [ -77.054395320838566, 38.801251315937634 ] } },
{ "type": "Feature", "properties": { "CREATION_DT": "2011-06-01T04:00:00Z", "NARRATIVE": "Could not survey due to site being under construction. Stone wrapped in burlap & packed in sand.  Approximate coordinates (+/-0.4') obtained from AMT surveyor working for PCC at Woodrow Wilson Bridge ", "LOCATION_DESCRIPTION": "Currently in seawall on the side of the Joint Point Lighthouse on Jones Point Park, Alexandria VA,  Site currently under construction (May, 2011) and stone may be moved.", "STONE_NUM": "SOUTH", "PIC_LINK": null, "Z": null, "Z_FT": null, "XCOORD": 396473.9993, "YCOORD": 124732.9642, "GIS_ID": "BoundaryStonesPt_39", "GLOBALID": "{86EE8AA1-8C81-48B5-A032-2D974F7FF2B9}", "CREATOR": null, "CREATED": null, "EDITOR": "DCGIS", "EDITED": "2017-12-29T23:04:48Z", "LATITUDE": 38.79033915, "LONGITUDE": -77.04058603, "OBJECTID": 39 }, "geometry": { "type": "Point", "coordinates": [ -77.040588319062778, 38.790346914335274 ] } }
]
}
