<?xml version="1.0" encoding="UTF-8"?>
<kml xmlns="http://www.opengis.net/kml/2.2" xmlns:gx="http://www.google.com/kml/ext/2.2">
    <Document id="1">
        <Placemark id="3">
            <name>K</name>
            <Point id="2">
                <coordinates>-77.051435,38.892755,15.0</coordinates>
            </Point>
        </Placemark>
        <Placemark id="5">
            <name>J</name>
            <Point id="4">
                <coordinates>-77.03656908080315,38.889801,9.999999999999998</coordinates>
            </Point>
        </Placemark>
        <Placemark id="7">
            <name>elEc</name>
            <Point id="6">
                <coordinates>-77.04033404260801,38.89278681802996,15.0</coordinates>
            </Point>
        </Placemark>
        <Placemark id="9">
            <name>elSc</name>
            <Point id="8">
                <coordinates>-77.04058603,38.89284818820199,15.0</coordinates>
            </Point>
        </Placemark>
        <Placemark id="11">
            <name>elNc</name>
            <Point id="10">
                <coordinates>-77.04098558,38.89344928705847,15.0</coordinates>
            </Point>
        </Placemark>
        <Placemark id="13">
            <name>elWc</name>
            <Point id="12">
                <coordinates>-77.04113191993082,38.89317145702438,15.0</coordinates>
            </Point>
        </Placemark>
        <Placemark id="15">
            <name>PO</name>
            <Point id="14">
                <coordinates>-77.1199159,38.93449309999998,9.0</coordinates>
            </Point>
        </Placemark>
        <Placemark id="17">
            <name>AN</name>
            <Point id="16">
                <coordinates>-76.94192180000002,38.91858289999999,9.0</coordinates>
            </Point>
        </Placemark>
        <Placemark id="19">
            <name>RC</name>
            <Point id="18">
                <coordinates>-77.05231894611552,38.98682226543504,9.0</coordinates>
            </Point>
        </Placemark>
        <Placemark id="21">
            <name>RCrkA</name>
            <Point id="20">
                <coordinates>-77.05755337263248,38.89950909563222,9.0</coordinates>
            </Point>
        </Placemark>
        <Placemark id="23">
            <name>RCrkB</name>
            <Point id="22">
                <coordinates>-77.05911419748726,38.90094461320923,9.0</coordinates>
            </Point>
        </Placemark>
        <Placemark id="25">
            <name>POOthr2a</name>
            <Point id="24">
                <coordinates>-77.04279029496989,38.86374289004072,0.0</coordinates>
            </Point>
        </Placemark>
        <Placemark id="27">
            <name>POOthr2c</name>
            <Point id="26">
                <coordinates>-77.08165575743644,38.9040771959102,0.0</coordinates>
            </Point>
        </Placemark>
        <Placemark id="29">
            <name>AnOthr02</name>
            <Point id="28">
                <coordinates>-76.95766732477911,38.90608413980003,0.0</coordinates>
            </Point>
        </Placemark>
        <Placemark id="31">
            <name>AnOthr01</name>
            <Point id="30">
                <coordinates>-76.99696100301952,38.86898287196977,0.0</coordinates>
            </Point>
        </Placemark>
        <Placemark id="33">
            <name>POOthr3b</name>
            <Point id="32">
                <coordinates>-77.03902815721085,38.79164360258566,0.0</coordinates>
            </Point>
        </Placemark>
        <Placemark id="35">
            <name>POOthr3a</name>
            <Point id="34">
                <coordinates>-77.0402519018478,38.7852261694161,0.0</coordinates>
            </Point>
        </Placemark>
        <Placemark id="37">
            <name>RCOthr3a</name>
            <Point id="36">
                <coordinates>-77.03793092768112,38.99355611820573,0.0</coordinates>
            </Point>
        </Placemark>
        <Placemark id="39">
            <name>OtrA</name>
            <Point id="38">
                <coordinates>-76.95188801292042,38.92624596949343,0.0</coordinates>
            </Point>
        </Placemark>
        <Placemark id="41">
            <name>OtrB</name>
            <Point id="40">
                <coordinates>-76.99134485249716,38.95704643888089,0.0</coordinates>
            </Point>
        </Placemark>
        <Placemark id="43">
            <name>OtrC</name>
            <Point id="42">
                <coordinates>-76.98472940704961,38.95177142459147,0.0</coordinates>
            </Point>
        </Placemark>
        <Placemark id="45">
            <name>OtrD</name>
            <Point id="44">
                <coordinates>-76.91344596466341,38.88972524047381,0.0</coordinates>
            </Point>
        </Placemark>
        <Placemark id="47">
            <name>RK</name>
            <Point id="46">
                <coordinates>-77.02356040000001,38.85513800000002,9.0</coordinates>
            </Point>
        </Placemark>
        <Placemark id="49">
            <name>P</name>
            <Point id="48">
                <coordinates>-77.05596854698287,38.87100323118176,44.0</coordinates>
            </Point>
        </Placemark>
        <Placemark id="51">
            <name>PenE</name>
            <Point id="50">
                <coordinates>-77.05322825200388,38.87062329503496,44.0</coordinates>
            </Point>
        </Placemark>
        <Placemark id="53">
            <name>PenF</name>
            <Point id="52">
                <coordinates>-77.0555808299749,38.86885510940446,44.0</coordinates>
            </Point>
        </Placemark>
        <Placemark id="55">
            <name>PenG</name>
            <Point id="54">
                <coordinates>-77.05467449297677,38.87292974342279,44.0</coordinates>
            </Point>
        </Placemark>
        <Placemark id="57">
            <name>PenB</name>
            <Point id="56">
                <coordinates>-77.05628256361138,38.87273680802001,44.0</coordinates>
            </Point>
        </Placemark>
        <Placemark id="59">
            <name>PenA</name>
            <Point id="58">
                <coordinates>-77.05790028667388,38.872552231854,44.0</coordinates>
            </Point>
        </Placemark>
        <Placemark id="61">
            <name>PenD</name>
            <Point id="60">
                <coordinates>-77.05846414671291,38.87004437347602,44.0</coordinates>
            </Point>
        </Placemark>
        <Placemark id="63">
            <name>PenC</name>
            <Point id="62">
                <coordinates>-77.05702684244545,38.87632204707956,44.0</coordinates>
            </Point>
        </Placemark>
        <Placemark id="65">
            <name>NOa</name>
            <Point id="64">
                <coordinates>-77.06705128052432,38.92154464050518,66.0</coordinates>
            </Point>
        </Placemark>
        <Placemark id="67">
            <name>Sb</name>
            <Point id="66">
                <coordinates>-77.04058603,38.79033915000001,121.0</coordinates>
            </Point>
        </Placemark>
        <Placemark id="69">
            <name>Eb</name>
            <Point id="68">
                <coordinates>-76.90916553,38.89286049999997,121.0</coordinates>
            </Point>
        </Placemark>
        <Placemark id="71">
            <name>Nb</name>
            <Point id="70">
                <coordinates>-77.04098558,38.99595650999999,121.0</coordinates>
            </Point>
        </Placemark>
        <Placemark id="73">
            <name>Wb</name>
            <Point id="72">
                <coordinates>-77.17230114000002,38.89324512999998,121.0</coordinates>
            </Point>
        </Placemark>
        <Placemark id="75">
            <name>Cavg</name>
            <Point id="74">
                <coordinates>-77.04077541312266,38.89307792552204,1.0</coordinates>
            </Point>
        </Placemark>
        <Placemark id="77">
            <name>B</name>
            <Point id="76">
                <coordinates>-77.008989,38.892747285,33.0</coordinates>
            </Point>
        </Placemark>
        <Placemark id="79">
            <name>Hk</name>
            <Point id="78">
                <coordinates>-77.051444,38.8951366,1.0</coordinates>
            </Point>
        </Placemark>
        <Placemark id="81">
            <name>Gs1</name>
            <Point id="80">
                <coordinates>-77.11877083238855,38.93539090046842,0.0</coordinates>
            </Point>
        </Placemark>
        <Placemark id="83">
            <name>Gs2</name>
            <Point id="82">
                <coordinates>-76.96785270415687,38.86573364111086,0.0</coordinates>
            </Point>
        </Placemark>
        <Placemark id="85">
            <name>Gs3</name>
            <Point id="84">
                <coordinates>-77.0180027100891,38.92487183560202,0.0</coordinates>
            </Point>
        </Placemark>
        <Placemark id="87">
            <name>Gs4</name>
            <Point id="86">
                <coordinates>-77.09353884670664,38.9132912447494,66.0</coordinates>
            </Point>
        </Placemark>
        <Placemark id="89">
            <name>Gs5</name>
            <Point id="88">
                <coordinates>-76.97570336712812,38.90446612895163,0.0</coordinates>
            </Point>
        </Placemark>
        <Placemark id="91">
            <name>Chk01</name>
            <Point id="90">
                <coordinates>-77.0045692366363,38.80358701301893,66.0</coordinates>
            </Point>
        </Placemark>
        <Placemark id="93">
            <name>Chk02</name>
            <Point id="92">
                <coordinates>-76.98066122302069,38.83591588236636,66.0</coordinates>
            </Point>
        </Placemark>
        <Placemark id="95">
            <name>Chk03</name>
            <Point id="94">
                <coordinates>-77.01339590231409,38.80887860350852,66.0</coordinates>
            </Point>
        </Placemark>
        <Placemark id="97">
            <name>Chk04</name>
            <Point id="96">
                <coordinates>-76.9884528433251,38.93525554614944,66.0</coordinates>
            </Point>
        </Placemark>
        <Placemark id="99">
            <name>Chk05</name>
            <Point id="98">
                <coordinates>-77.01099576844469,38.94213905894748,66.0</coordinates>
            </Point>
        </Placemark>
        <Placemark id="101">
            <name>Chk06</name>
            <Point id="100">
                <coordinates>-76.95853332476764,38.92609741015503,66.0</coordinates>
            </Point>
        </Placemark>
        <Placemark id="103">
            <name>Chk08</name>
            <Point id="102">
                <coordinates>-77.07846439947777,38.8580454440363,66.0</coordinates>
            </Point>
        </Placemark>
        <Placemark id="105">
            <name>Chk09</name>
            <Point id="104">
                <coordinates>-77.08911728826524,38.92188332835548,66.0</coordinates>
            </Point>
        </Placemark>
        <Placemark id="107">
            <name>Chk10</name>
            <Point id="106">
                <coordinates>-76.95502425801097,38.86173720173936,0.0</coordinates>
            </Point>
        </Placemark>
        <Placemark id="109">
            <name>Chk23a</name>
            <Point id="108">
                <coordinates>-76.97546834269932,38.90863930872903,66.0</coordinates>
            </Point>
        </Placemark>
        <Placemark id="111">
            <name>Chk23b</name>
            <Point id="110">
                <coordinates>-76.97387114815113,38.90969480185885,66.0</coordinates>
            </Point>
        </Placemark>
        <Placemark id="113">
            <name>Chk23c</name>
            <Point id="112">
                <coordinates>-76.97239108771012,38.90964452291605,66.0</coordinates>
            </Point>
        </Placemark>
        <Placemark id="115">
            <name>I014</name>
            <Point id="114">
                <coordinates>-77.03197530601018,38.90564871624386,0.0</coordinates>
            </Point>
        </Placemark>
        <Placemark id="117">
            <name>I079</name>
            <Point id="116">
                <coordinates>-77.0501392974717,38.90252822129722,0.0</coordinates>
            </Point>
        </Placemark>
        <Placemark id="119">
            <name>I069</name>
            <Point id="118">
                <coordinates>-77.00659984972448,38.89642237002393,0.0</coordinates>
            </Point>
        </Placemark>
        <Placemark id="121">
            <name>Gs6</name>
            <Point id="120">
                <coordinates>-77.11066858924072,38.94253116241286,0.0</coordinates>
            </Point>
        </Placemark>
        <Placemark id="123">
            <name>Gs7</name>
            <Point id="122">
                <coordinates>-77.11677799130699,38.91601482291505,0.0</coordinates>
            </Point>
        </Placemark>
        <Placemark id="125">
            <name>Gs8</name>
            <Point id="124">
                <coordinates>-77.04288644534626,38.89107936946611,0.0</coordinates>
            </Point>
        </Placemark>
        <Placemark id="127">
            <name>Gs9</name>
            <Point id="126">
                <coordinates>-77.03197308076226,38.79290977473043,0.0</coordinates>
            </Point>
        </Placemark>
        <Placemark id="129">
            <name>Chk11</name>
            <Point id="128">
                <coordinates>-77.13554467903445,38.89433083867851,66.0</coordinates>
            </Point>
        </Placemark>
        <Placemark id="131">
            <name>Chk22</name>
            <Point id="130">
                <coordinates>-77.0858650836171,38.93790243521637,66.0</coordinates>
            </Point>
        </Placemark>
        <Placemark id="133">
            <name>Chk33</name>
            <Point id="132">
                <coordinates>-77.05142116747349,38.95878698101598,0.0</coordinates>
            </Point>
        </Placemark>
        <Placemark id="135">
            <name>Chk44</name>
            <Point id="134">
                <coordinates>-77.04345033773585,38.9096320124952,0.0</coordinates>
            </Point>
        </Placemark>
        <Placemark id="137">
            <name>Chk55</name>
            <Point id="136">
                <coordinates>-77.0352088314432,38.71079049783587,0.0</coordinates>
            </Point>
        </Placemark>
        <Placemark id="139">
            <name>KS</name>
            <Point id="138">
                <coordinates>-77.051444,38.790339,9.999999999999998</coordinates>
            </Point>
        </Placemark>
        <Placemark id="141">
            <name>Chk12</name>
            <Point id="140">
                <coordinates>-76.9425428132187,38.88869436289873,66.0</coordinates>
            </Point>
        </Placemark>
        <Placemark id="143">
            <name>Chk13</name>
            <Point id="142">
                <coordinates>-77.0340714747954,38.97800673083694,66.0</coordinates>
            </Point>
        </Placemark>
        <Placemark id="145">
            <name>Chk14</name>
            <Point id="144">
                <coordinates>-77.03571742899706,38.92072480308088,0.0</coordinates>
            </Point>
        </Placemark>
        <Placemark id="147">
            <name>Chk15</name>
            <Point id="146">
                <coordinates>-77.0702598537815,38.9339121071402,0.0</coordinates>
            </Point>
        </Placemark>
        <Placemark id="149">
            <name>Chk16</name>
            <Point id="148">
                <coordinates>-77.02680651074166,38.95984790558003,66.0</coordinates>
            </Point>
        </Placemark>
        <Placemark id="151">
            <name>Chk17</name>
            <Point id="150">
                <coordinates>-77.01059198844285,38.96039316959799,66.0</coordinates>
            </Point>
        </Placemark>
        <Placemark id="153">
            <name>Chk18</name>
            <Point id="152">
                <coordinates>-77.11265634246809,38.87614213026904,66.0</coordinates>
            </Point>
        </Placemark>
        <Placemark id="155">
            <name>Chk19</name>
            <Point id="154">
                <coordinates>-77.04677082443145,38.98909790584569,66.0</coordinates>
            </Point>
        </Placemark>
        <Placemark id="157">
            <name>Chk20</name>
            <Point id="156">
                <coordinates>-77.00135736591604,38.82106536665973,66.0</coordinates>
            </Point>
        </Placemark>
        <Placemark id="159">
            <name>Chk21</name>
            <Point id="158">
                <coordinates>-76.94019736733574,38.87280409544193,66.0</coordinates>
            </Point>
        </Placemark>
        <Placemark id="161">
            <name>Chk24</name>
            <Point id="160">
                <coordinates>-77.06832915730651,38.97126514652496,66.0</coordinates>
            </Point>
        </Placemark>
        <Placemark id="163">
            <name>Chk25</name>
            <Point id="162">
                <coordinates>-77.03584297932892,38.9229071947,66.0</coordinates>
            </Point>
        </Placemark>
        <Placemark id="165">
            <name>Chk26</name>
            <Point id="164">
                <coordinates>-76.91666542015503,38.88686719010732,66.0</coordinates>
            </Point>
        </Placemark>
        <Placemark id="167">
            <name>Chk27</name>
            <Point id="166">
                <coordinates>-77.06834544975686,38.96791103163879,66.0</coordinates>
            </Point>
        </Placemark>
        <Placemark id="169">
            <name>Chk28</name>
            <Point id="168">
                <coordinates>-77.0776296316338,38.95399489057218,0.0</coordinates>
            </Point>
        </Placemark>
        <Placemark id="171">
            <name>Chk30</name>
            <Point id="170">
                <coordinates>-77.14434316078132,38.87080074981925,0.0</coordinates>
            </Point>
        </Placemark>
        <Placemark id="173">
            <name>Chk31</name>
            <Point id="172">
                <coordinates>-77.10483209910393,38.84552270708302,0.0</coordinates>
            </Point>
        </Placemark>
        <Placemark id="175">
            <name>Chk34</name>
            <Point id="174">
                <coordinates>-77.01438697638629,38.93536052674429,0.0</coordinates>
            </Point>
        </Placemark>
        <Placemark id="177">
            <name>Chk35</name>
            <Point id="176">
                <coordinates>-77.05068501975197,38.89407905799511,66.0</coordinates>
            </Point>
        </Placemark>
        <Placemark id="179">
            <name>Chk36</name>
            <Point id="178">
                <coordinates>-76.99354755099984,38.91158883943301,0.0</coordinates>
            </Point>
        </Placemark>
        <Placemark id="181">
            <name>Chk37</name>
            <Point id="180">
                <coordinates>-77.12641979728585,38.93508740486395,0.0</coordinates>
            </Point>
        </Placemark>
        <Placemark id="183">
            <name>Chk38</name>
            <Point id="182">
                <coordinates>-77.0022595046106,38.85493665631558,0.0</coordinates>
            </Point>
        </Placemark>
        <Placemark id="185">
            <name>Chk39</name>
            <Point id="184">
                <coordinates>-76.91182568346446,38.8974237158863,0.0</coordinates>
            </Point>
        </Placemark>
        <Placemark id="187">
            <name>Chk40</name>
            <Point id="186">
                <coordinates>-76.89912135737723,38.89172055971182,0.0</coordinates>
            </Point>
        </Placemark>
        <Placemark id="189">
            <name>Chk41</name>
            <Point id="188">
                <coordinates>-76.9575387987198,38.91261730408393,0.0</coordinates>
            </Point>
        </Placemark>
        <Placemark id="191">
            <name>Chk42</name>
            <Point id="190">
                <coordinates>-77.07230698965536,38.93017051598103,0.0</coordinates>
            </Point>
        </Placemark>
        <Placemark id="193">
            <name>Chk43</name>
            <Point id="192">
                <coordinates>-77.0192667064925,38.94312493001874,0.0</coordinates>
            </Point>
        </Placemark>
        <Placemark id="195">
            <name>Chk45</name>
            <Point id="194">
                <coordinates>-77.02188334594942,38.94732510830963,0.0</coordinates>
            </Point>
        </Placemark>
        <Placemark id="197">
            <name>Chk46</name>
            <Point id="196">
                <coordinates>-77.07473802861425,38.87650889195688,0.0</coordinates>
            </Point>
        </Placemark>
        <Placemark id="199">
            <name>Chk47</name>
            <Point id="198">
                <coordinates>-77.00484480332231,38.94812410619182,0.0</coordinates>
            </Point>
        </Placemark>
        <Placemark id="201">
            <name>Chk48</name>
            <Point id="200">
                <coordinates>-77.0365266731042,38.90721119681356,0.0</coordinates>
            </Point>
        </Placemark>
        <Placemark id="203">
            <name>Chk49</name>
            <Point id="202">
                <coordinates>-77.02956862943489,38.90963170613946,0.0</coordinates>
            </Point>
        </Placemark>
        <Placemark id="205">
            <name>Chk50</name>
            <Point id="204">
                <coordinates>-77.07961687570274,38.88471525220831,0.0</coordinates>
            </Point>
        </Placemark>
        <Placemark id="207">
            <name>Chk51</name>
            <Point id="206">
                <coordinates>-76.99025683060958,38.88979572156659,0.0</coordinates>
            </Point>
        </Placemark>
        <Placemark id="209">
            <name>Chk52</name>
            <Point id="208">
                <coordinates>-76.99952509051057,38.89358765171932,0.0</coordinates>
            </Point>
        </Placemark>
        <Placemark id="211">
            <name>Chk53</name>
            <Point id="210">
                <coordinates>-77.00907388669604,38.8706887702613,0.0</coordinates>
            </Point>
        </Placemark>
        <Placemark id="213">
            <name>Chk54</name>
            <Point id="212">
                <coordinates>-77.04351796976675,38.68922831692476,0.0</coordinates>
            </Point>
        </Placemark>
        <Placemark id="215">
            <name>Chk57</name>
            <Point id="214">
                <coordinates>-77.06541563323557,38.83300987616117,0.0</coordinates>
            </Point>
        </Placemark>
        <Placemark id="217">
            <name>Chk58</name>
            <Point id="216">
                <coordinates>-77.05973097339024,38.84739885578784,0.0</coordinates>
            </Point>
        </Placemark>
        <Placemark id="219">
            <name>Chk59</name>
            <Point id="218">
                <coordinates>-77.04244035387981,39.01004268273348,0.0</coordinates>
            </Point>
        </Placemark>
        <Placemark id="221">
            <name>Chk60</name>
            <Point id="220">
                <coordinates>-77.03806204873727,39.00533947251964,0.0</coordinates>
            </Point>
        </Placemark>
        <Placemark id="223">
            <name>Chk61</name>
            <Point id="222">
                <coordinates>-77.02294473847918,38.9027413920959,0.0</coordinates>
            </Point>
        </Placemark>
        <Placemark id="225">
            <name>Chk62</name>
            <Point id="224">
                <coordinates>-77.02133073015519,38.90537641569407,0.0</coordinates>
            </Point>
        </Placemark>
        <Placemark id="227">
            <name>Chk63</name>
            <Point id="226">
                <coordinates>-77.036569,38.89999431930673,0.0</coordinates>
            </Point>
        </Placemark>
        <Placemark id="229">
            <name>Cap</name>
            <Point id="228">
                <coordinates>-77.009227,38.889801,160.0</coordinates>
            </Point>
        </Placemark>
        <Placemark id="231">
            <name>CapK</name>
            <Point id="230">
                <coordinates>-77.00904745,38.889801,79.99999999999999</coordinates>
            </Point>
        </Placemark>
        <Placemark id="233">
            <name>CCnrA</name>
            <Point id="232">
                <coordinates>-77.00860327209443,38.88881417737429,0.0</coordinates>
            </Point>
        </Placemark>
        <Placemark id="235">
            <name>H71</name>
            <Point id="234">
                <coordinates>-77.00844224089784,38.88981684871572,66.0</coordinates>
            </Point>
        </Placemark>
        <Placemark id="237">
            <name>CFa</name>
            <Point id="236">
                <coordinates>-77.01235207597406,38.89064396166972,0.0</coordinates>
            </Point>
        </Placemark>
        <Placemark id="239">
            <name>CFb</name>
            <Point id="238">
                <coordinates>-77.01233379820508,38.88898718985376,0.0</coordinates>
            </Point>
        </Placemark>
        <Placemark id="241">
            <name>CFc</name>
            <Point id="240">
                <coordinates>-77.01360995348632,38.88974917890155,0.0</coordinates>
            </Point>
        </Placemark>
        <Placemark id="243">
            <name>CFd</name>
            <Point id="242">
                <coordinates>-77.00578323852076,38.88868978460074,0.0</coordinates>
            </Point>
        </Placemark>
        <Placemark id="245">
            <name>CFe</name>
            <Point id="244">
                <coordinates>-77.01012017665087,38.88981116007428,0.0</coordinates>
            </Point>
        </Placemark>
        <Placemark id="247">
            <name>CFf</name>
            <Point id="246">
                <coordinates>-77.00467871165168,38.88868578496108,222.0</coordinates>
            </Point>
        </Placemark>
        <Placemark id="249">
            <name>CFg</name>
            <Point id="248">
                <coordinates>-77.00907795602103,38.89361386946052,0.0</coordinates>
            </Point>
        </Placemark>
        <Placemark id="251">
            <name>CptA</name>
            <Point id="250">
                <coordinates>-77.0072678806584,38.89077979476803,0.0</coordinates>
            </Point>
        </Placemark>
        <Placemark id="253">
            <name>CptB</name>
            <Point id="252">
                <coordinates>-77.00988737303246,38.88556174596554,0.0</coordinates>
            </Point>
        </Placemark>
        <Placemark id="255">
            <name>SCa</name>
            <Point id="254">
                <coordinates>-77.00510154468833,38.890621,77.0</coordinates>
            </Point>
        </Placemark>
        <Placemark id="257">
            <name>SCb</name>
            <Point id="256">
                <coordinates>-77.00442188577618,38.890621,77.0</coordinates>
            </Point>
        </Placemark>
        <Placemark id="259">
            <name>L</name>
            <Point id="258">
                <coordinates>-77.0501466575182,38.88924949780046,97.0</coordinates>
            </Point>
        </Placemark>
        <Placemark id="261">
            <name>La</name>
            <Point id="260">
                <coordinates>-77.05145152722608,38.88816903625909,0.0</coordinates>
            </Point>
        </Placemark>
        <Placemark id="263">
            <name>Lz</name>
            <Point id="262">
                <coordinates>-77.05220920463091,38.88921687259635,0.0</coordinates>
            </Point>
        </Placemark>
        <Placemark id="265">
            <name>Lcnr</name>
            <Point id="264">
                <coordinates>-77.04994269848781,38.88906071490013,0.0</coordinates>
            </Point>
        </Placemark>
        <Placemark id="267">
            <name>Bs</name>
            <Point id="266">
                <coordinates>-77.00889,38.892752,1.0</coordinates>
            </Point>
        </Placemark>
        <Placemark id="269">
            <name>WHs</name>
            <Point id="268">
                <coordinates>-77.036569,38.897561,3.0</coordinates>
            </Point>
        </Placemark>
        <Placemark id="271">
            <name>WHn</name>
            <Point id="270">
                <coordinates>-77.036569,38.89787121557463,3.0</coordinates>
            </Point>
        </Placemark>
        <Placemark id="273">
            <name>WHa</name>
            <Point id="272">
                <coordinates>-77.036569,38.89828563763562,3.0</coordinates>
            </Point>
        </Placemark>
        <Placemark id="275">
            <name>WHb</name>
            <Point id="274">
                <coordinates>-77.03656881060775,38.89609664728791,3.0</coordinates>
            </Point>
        </Placemark>
        <Placemark id="277">
            <name>WHc</name>
            <Point id="276">
                <coordinates>-77.03611695727467,38.89666242649749,0.0</coordinates>
            </Point>
        </Placemark>
        <Placemark id="279">
            <name>WHe</name>
            <Point id="278">
                <coordinates>-77.037723,38.9,3.0</coordinates>
            </Point>
        </Placemark>
        <Placemark id="281">
            <name>WHz</name>
            <Point id="280">
                <coordinates>-77.03431133703796,38.89597663639302,3.0</coordinates>
            </Point>
        </Placemark>
        <Placemark id="283">
            <name>WH SEcnr</name>
            <Point id="282">
                <coordinates>-77.03626431326734,38.89753757777559,3.0</coordinates>
            </Point>
        </Placemark>
        <Placemark id="285">
            <name>M</name>
            <Point id="284">
                <coordinates>-77.035278,38.889484,169.0</coordinates>
            </Point>
        </Placemark>
        <Placemark id="287">
            <name>MV</name>
            <Point id="286">
                <coordinates>-77.01151395666083,38.735159,169.0</coordinates>
            </Point>
        </Placemark>
        <Placemark id="289">
            <name>MVa</name>
            <Point id="288">
                <coordinates>-77.01540232831105,38.74397251515714,0.0</coordinates>
            </Point>
        </Placemark>
        <Placemark id="291">
            <name>HighWa</name>
            <Point id="290">
                <coordinates>-77.0660665577638,38.80760759772259,169.0</coordinates>
            </Point>
        </Placemark>
        <Placemark id="293">
            <name>HighWb</name>
            <Point id="292">
                <coordinates>-77.06728222257168,38.80859367009808,66.0</coordinates>
            </Point>
        </Placemark>
        <Placemark id="295">
            <name>HighWc</name>
            <Point id="294">
                <coordinates>-77.06748402979503,38.80681739491956,0.0</coordinates>
            </Point>
        </Placemark>
        <Placemark id="297">
            <name>H11</name>
            <Point id="296">
                <coordinates>-77.0046483262631,38.9146495509119,66.0</coordinates>
            </Point>
        </Placemark>
        <Placemark id="299">
            <name>H22</name>
            <Point id="298">
                <coordinates>-77.06004232078331,38.92823446130691,66.0</coordinates>
            </Point>
        </Placemark>
        <Placemark id="301">
            <name>H33</name>
            <Point id="300">
                <coordinates>-77.11324805943606,38.92053966660955,66.0</coordinates>
            </Point>
        </Placemark>
        <Placemark id="303">
            <name>H44</name>
            <Point id="302">
                <coordinates>-77.11259304457337,38.90361498656535,66.0</coordinates>
            </Point>
        </Placemark>
        <Placemark id="305">
            <name>H66</name>
            <Point id="304">
                <coordinates>-77.10094955658019,38.90533124793031,66.0</coordinates>
            </Point>
        </Placemark>
        <Placemark id="307">
            <name>H77</name>
            <Point id="306">
                <coordinates>-77.03762786655247,38.89703882730361,66.0</coordinates>
            </Point>
        </Placemark>
        <Placemark id="309">
            <name>H88</name>
            <Point id="308">
                <coordinates>-77.00492179089107,38.84950002068123,66.0</coordinates>
            </Point>
        </Placemark>
        <Placemark id="311">
            <name>H99</name>
            <Point id="310">
                <coordinates>-77.00096480083693,38.8889443857454,0.0</coordinates>
            </Point>
        </Placemark>
        <Placemark id="313">
            <name>H67</name>
            <Point id="312">
                <coordinates>-77.08923640277803,38.91551942120227,66.0</coordinates>
            </Point>
        </Placemark>
        <Placemark id="315">
            <name>H69</name>
            <Point id="314">
                <coordinates>-77.07234178427055,38.87633745296441,66.0</coordinates>
            </Point>
        </Placemark>
        <Placemark id="317">
            <name>H70</name>
            <Point id="316">
                <coordinates>-77.07038741369139,38.8737311478417,66.0</coordinates>
            </Point>
        </Placemark>
        <Placemark id="319">
            <name>H70a</name>
            <Point id="318">
                <coordinates>-77.06775220195667,38.87147694689254,66.0</coordinates>
            </Point>
        </Placemark>
        <Placemark id="321">
            <name>H70b</name>
            <Point id="320">
                <coordinates>-76.97878782846644,38.91008217241069,0.0</coordinates>
            </Point>
        </Placemark>
        <Placemark id="323">
            <name>H81</name>
            <Point id="322">
                <coordinates>-76.9299762903957,38.88687029383775,66.0</coordinates>
            </Point>
        </Placemark>
        <Placemark id="325">
            <name>H86</name>
            <Point id="324">
                <coordinates>-76.99664817839795,38.810462075372,66.0</coordinates>
            </Point>
        </Placemark>
        <Placemark id="327">
            <name>H98</name>
            <Point id="326">
                <coordinates>-77.0388345966892,38.9450714821746,0.0</coordinates>
            </Point>
        </Placemark>
        <Placemark id="329">
            <name>H12</name>
            <Point id="328">
                <coordinates>-76.94844865915428,38.92005589287478,66.0</coordinates>
            </Point>
        </Placemark>
        <Placemark id="331">
            <name>H13</name>
            <Point id="330">
                <coordinates>-77.01391219662139,38.94626278806017,66.0</coordinates>
            </Point>
        </Placemark>
        <Placemark id="333">
            <name>H17</name>
            <Point id="332">
                <coordinates>-77.07263105649967,38.88120136333437,66.0</coordinates>
            </Point>
        </Placemark>
        <Placemark id="335">
            <name>H19</name>
            <Point id="334">
                <coordinates>-77.07888357211404,38.91560586754403,66.0</coordinates>
            </Point>
        </Placemark>
        <Placemark id="337">
            <name>H20</name>
            <Point id="336">
                <coordinates>-77.07763287849671,38.9230873705844,66.0</coordinates>
            </Point>
        </Placemark>
        <Placemark id="339">
            <name>H23</name>
            <Point id="338">
                <coordinates>-77.08834070412745,38.93923731423045,66.0</coordinates>
            </Point>
        </Placemark>
        <Placemark id="341">
            <name>H24</name>
            <Point id="340">
                <coordinates>-77.0704105785321,38.91738246946505,66.0</coordinates>
            </Point>
        </Placemark>
        <Placemark id="343">
            <name>H27</name>
            <Point id="342">
                <coordinates>-77.17620182600818,38.83334538875507,66.0</coordinates>
            </Point>
        </Placemark>
        <Placemark id="345">
            <name>H28</name>
            <Point id="344">
                <coordinates>-77.12853595395019,38.90499081362246,66.0</coordinates>
            </Point>
        </Placemark>
        <Placemark id="347">
            <name>H29</name>
            <Point id="346">
                <coordinates>-77.12474875900264,38.91226863882422,66.0</coordinates>
            </Point>
        </Placemark>
        <Placemark id="349">
            <name>H31</name>
            <Point id="348">
                <coordinates>-77.09367738494352,38.93203756982007,66.0</coordinates>
            </Point>
        </Placemark>
        <Placemark id="351">
            <name>H32</name>
            <Point id="350">
                <coordinates>-77.09063005508365,38.9243596243616,66.0</coordinates>
            </Point>
        </Placemark>
        <Placemark id="353">
            <name>H35</name>
            <Point id="352">
                <coordinates>-77.07975099520537,38.92066077312896,66.0</coordinates>
            </Point>
        </Placemark>
        <Placemark id="355">
            <name>H37</name>
            <Point id="354">
                <coordinates>-77.11248589188622,38.89634739382956,66.0</coordinates>
            </Point>
        </Placemark>
        <Placemark id="357">
            <name>H38</name>
            <Point id="356">
                <coordinates>-77.30556025520397,38.92033648688445,66.0</coordinates>
            </Point>
        </Placemark>
        <Placemark id="359">
            <name>H39</name>
            <Point id="358">
                <coordinates>-77.24236058241425,38.9189665077175,66.0</coordinates>
            </Point>
        </Placemark>
        <Placemark id="361">
            <name>H40</name>
            <Point id="360">
                <coordinates>-77.15854915633481,38.90128237275844,66.0</coordinates>
            </Point>
        </Placemark>
        <Placemark id="363">
            <name>H42</name>
            <Point id="362">
                <coordinates>-77.01466103512618,38.82554707680318,66.0</coordinates>
            </Point>
        </Placemark>
        <Placemark id="365">
            <name>H43</name>
            <Point id="364">
                <coordinates>-77.146392815978,38.87451597139456,66.0</coordinates>
            </Point>
        </Placemark>
        <Placemark id="367">
            <name>H47</name>
            <Point id="366">
                <coordinates>-77.01018660152103,38.93841562644008,66.0</coordinates>
            </Point>
        </Placemark>
        <Placemark id="369">
            <name>H50</name>
            <Point id="368">
                <coordinates>-77.05095505059923,38.96327236063456,66.0</coordinates>
            </Point>
        </Placemark>
        <Placemark id="371">
            <name>H51</name>
            <Point id="370">
                <coordinates>-77.04953191350309,38.91448986470866,66.0</coordinates>
            </Point>
        </Placemark>
        <Placemark id="373">
            <name>H52</name>
            <Point id="372">
                <coordinates>-77.0746835467705,38.92312150962155,66.0</coordinates>
            </Point>
        </Placemark>
        <Placemark id="375">
            <name>H56</name>
            <Point id="374">
                <coordinates>-77.06120140091524,38.91681538320637,66.0</coordinates>
            </Point>
        </Placemark>
        <Placemark id="377">
            <name>H60</name>
            <Point id="376">
                <coordinates>-76.91720945574568,38.93132296535497,66.0</coordinates>
            </Point>
        </Placemark>
        <Placemark id="379">
            <name>H65</name>
            <Point id="378">
                <coordinates>-77.00739402065348,38.91883509061264,66.0</coordinates>
            </Point>
        </Placemark>
        <Placemark id="381">
            <name>SF01</name>
            <Point id="380">
                <coordinates>-77.08586335465753,38.90124200833564,111.0</coordinates>
            </Point>
        </Placemark>
        <Placemark id="383">
            <name>SF02</name>
            <Point id="382">
                <coordinates>-77.0901139945135,38.90117456916591,111.0</coordinates>
            </Point>
        </Placemark>
        <Placemark id="385">
            <name>SF03</name>
            <Point id="384">
                <coordinates>-76.97215841432278,38.77367519361357,111.0</coordinates>
            </Point>
        </Placemark>
        <Placemark id="387">
            <name>SF04</name>
            <Point id="386">
                <coordinates>-77.07087604008456,38.90017164390296,111.0</coordinates>
            </Point>
        </Placemark>
        <Placemark id="389">
            <name>SF06</name>
            <Point id="388">
                <coordinates>-77.16354886186852,38.98876568157223,111.0</coordinates>
            </Point>
        </Placemark>
    </Document>
</kml>
