<?xml version="1.0" encoding="UTF-8"?>
<kml xmlns="http://www.opengis.net/kml/2.2" xmlns:gx="http://www.google.com/kml/ext/2.2" xmlns:kml="http://www.opengis.net/kml/2.2" xmlns:atom="http://www.w3.org/2005/Atom">
<Document>
	<name>Stones</name>
	<atom:link rel="app" href="https://www.google.com/earth/about/versions/#earth-pro" title="Google Earth Pro 7.3.6.10201"></atom:link>
	<StyleMap id="icon-123-nodesc">
		<Pair>
			<key>normal</key>
			<styleUrl>#icon-123-nodesc-normal0001</styleUrl>
		</Pair>
		<Pair>
			<key>highlight</key>
			<styleUrl>#icon-123-nodesc-highlight00</styleUrl>
		</Pair>
	</StyleMap>
	<Style id="icon-123-nodesc-highlight0">
		<IconStyle>
			<color>ff00ffff</color>
			<scale>0.8</scale>
			<Icon>
				<href>http://maps.google.com/mapfiles/kml/shapes/triangle.png</href>
			</Icon>
		</IconStyle>
		<LabelStyle>
			<scale>0.2</scale>
		</LabelStyle>
		<BalloonStyle>
			<text><![CDATA[<h3>$[name]</h3>]]></text>
		</BalloonStyle>
	</Style>
	<Style id="icon-123-nodesc-highlight00">
		<IconStyle>
			<color>ff00ffff</color>
			<scale>0.8</scale>
			<Icon>
				<href>http://maps.google.com/mapfiles/kml/shapes/triangle.png</href>
			</Icon>
		</IconStyle>
		<LabelStyle>
			<scale>0.2</scale>
		</LabelStyle>
		<BalloonStyle>
			<text><![CDATA[<h3>$[name]</h3>]]></text>
		</BalloonStyle>
	</Style>
	<Style id="icon-123-nodesc-highlight000">
		<IconStyle>
			<color>ff0000ff</color>
			<scale>0.8</scale>
			<Icon>
				<href>http://maps.google.com/mapfiles/kml/shapes/triangle.png</href>
			</Icon>
		</IconStyle>
		<LabelStyle>
			<scale>0.2</scale>
		</LabelStyle>
		<BalloonStyle>
			<text><![CDATA[<h3>$[name]</h3>]]></text>
		</BalloonStyle>
	</Style>
	<Style id="icon-123-nodesc-highlight001">
		<IconStyle>
			<color>ff0000ff</color>
			<scale>0.8</scale>
			<Icon>
				<href>http://maps.google.com/mapfiles/kml/shapes/triangle.png</href>
			</Icon>
		</IconStyle>
		<LabelStyle>
			<scale>0.2</scale>
		</LabelStyle>
		<BalloonStyle>
			<text><![CDATA[<h3>$[name]</h3>]]></text>
		</BalloonStyle>
	</Style>
	<Style id="icon-123-nodesc-normal00">
		<IconStyle>
			<color>ff0000ff</color>
			<scale>0.8</scale>
			<Icon>
				<href>http://maps.google.com/mapfiles/kml/shapes/triangle.png</href>
			</Icon>
		</IconStyle>
		<LabelStyle>
			<scale>0.2</scale>
		</LabelStyle>
		<BalloonStyle>
			<text><![CDATA[<h3>$[name]</h3>]]></text>
		</BalloonStyle>
	</Style>
	<Style id="icon-123-nodesc-normal000">
		<IconStyle>
			<color>ff0000ff</color>
			<scale>0.8</scale>
			<Icon>
				<href>http://maps.google.com/mapfiles/kml/shapes/triangle.png</href>
			</Icon>
		</IconStyle>
		<LabelStyle>
			<scale>0.2</scale>
		</LabelStyle>
		<BalloonStyle>
			<text><![CDATA[<h3>$[name]</h3>]]></text>
		</BalloonStyle>
	</Style>
	<Style id="icon-123-nodesc-normal0000">
		<IconStyle>
			<color>ff00ffff</color>
			<scale>0.8</scale>
			<Icon>
				<href>http://maps.google.com/mapfiles/kml/shapes/triangle.png</href>
			</Icon>
		</IconStyle>
		<LabelStyle>
			<scale>0.2</scale>
		</LabelStyle>
		<BalloonStyle>
			<text><![CDATA[<h3>$[name]</h3>]]></text>
		</BalloonStyle>
	</Style>
	<Style id="icon-123-nodesc-normal0001">
		<IconStyle>
			<color>ff00ffff</color>
			<scale>0.8</scale>
			<Icon>
				<href>http://maps.google.com/mapfiles/kml/shapes/triangle.png</href>
			</Icon>
		</IconStyle>
		<LabelStyle>
			<scale>0.2</scale>
		</LabelStyle>
		<BalloonStyle>
			<text><![CDATA[<h3>$[name]</h3>]]></text>
		</BalloonStyle>
	</Style>
	<StyleMap id="icon-123-nodesc0">
		<Pair>
			<key>normal</key>
			<styleUrl>#icon-123-nodesc-normal00</styleUrl>
		</Pair>
		<Pair>
			<key>highlight</key>
			<styleUrl>#icon-123-nodesc-highlight001</styleUrl>
		</Pair>
	</StyleMap>
	<StyleMap id="icon-123-nodesc00">
		<Pair>
			<key>normal</key>
			<styleUrl>#icon-123-nodesc-normal000</styleUrl>
		</Pair>
		<Pair>
			<key>highlight</key>
			<styleUrl>#icon-123-nodesc-highlight000</styleUrl>
		</Pair>
	</StyleMap>
	<StyleMap id="icon-123-nodesc1">
		<Pair>
			<key>normal</key>
			<styleUrl>#icon-123-nodesc-normal0000</styleUrl>
		</Pair>
		<Pair>
			<key>highlight</key>
			<styleUrl>#icon-123-nodesc-highlight0</styleUrl>
		</Pair>
	</StyleMap>
	<StyleMap id="msn_open-diamond0000">
		<Pair>
			<key>normal</key>
			<styleUrl>#sn_open-diamond3</styleUrl>
		</Pair>
		<Pair>
			<key>highlight</key>
			<styleUrl>#sh_open-diamond0000</styleUrl>
		</Pair>
	</StyleMap>
	<StyleMap id="msn_open-diamond1">
		<Pair>
			<key>normal</key>
			<styleUrl>#sn_open-diamond10</styleUrl>
		</Pair>
		<Pair>
			<key>highlight</key>
			<styleUrl>#sh_open-diamond1</styleUrl>
		</Pair>
	</StyleMap>
	<StyleMap id="msn_open-diamond100">
		<Pair>
			<key>normal</key>
			<styleUrl>#sn_open-diamond200</styleUrl>
		</Pair>
		<Pair>
			<key>highlight</key>
			<styleUrl>#sh_open-diamond2</styleUrl>
		</Pair>
	</StyleMap>
	<StyleMap id="msn_open-diamond2">
		<Pair>
			<key>normal</key>
			<styleUrl>#sn_open-diamond000</styleUrl>
		</Pair>
		<Pair>
			<key>highlight</key>
			<styleUrl>#sh_open-diamond100</styleUrl>
		</Pair>
	</StyleMap>
	<StyleMap id="msn_open-diamond3">
		<Pair>
			<key>normal</key>
			<styleUrl>#sn_open-diamond100</styleUrl>
		</Pair>
		<Pair>
			<key>highlight</key>
			<styleUrl>#sh_open-diamond3</styleUrl>
		</Pair>
	</StyleMap>
	<StyleMap id="msn_placemark_circle30">
		<Pair>
			<key>normal</key>
			<styleUrl>#sn_placemark_circle001</styleUrl>
		</Pair>
		<Pair>
			<key>highlight</key>
			<styleUrl>#sh_placemark_circle_highlight011</styleUrl>
		</Pair>
	</StyleMap>
	<StyleMap id="msn_placemark_circle400">
		<Pair>
			<key>normal</key>
			<styleUrl>#sn_placemark_circle0000</styleUrl>
		</Pair>
		<Pair>
			<key>highlight</key>
			<styleUrl>#sh_placemark_circle_highlight30</styleUrl>
		</Pair>
	</StyleMap>
	<StyleMap id="msn_square000">
		<Pair>
			<key>normal</key>
			<styleUrl>#sn_square00</styleUrl>
		</Pair>
		<Pair>
			<key>highlight</key>
			<styleUrl>#sh_square01</styleUrl>
		</Pair>
	</StyleMap>
	<StyleMap id="msn_square1">
		<Pair>
			<key>normal</key>
			<styleUrl>#sn_square10</styleUrl>
		</Pair>
		<Pair>
			<key>highlight</key>
			<styleUrl>#sh_square000</styleUrl>
		</Pair>
	</StyleMap>
	<StyleMap id="msn_triangle000">
		<Pair>
			<key>normal</key>
			<styleUrl>#sn_triangle1</styleUrl>
		</Pair>
		<Pair>
			<key>highlight</key>
			<styleUrl>#sh_triangle1</styleUrl>
		</Pair>
	</StyleMap>
	<StyleMap id="msn_triangle02">
		<Pair>
			<key>normal</key>
			<styleUrl>#sn_triangle00</styleUrl>
		</Pair>
		<Pair>
			<key>highlight</key>
			<styleUrl>#sh_triangle000</styleUrl>
		</Pair>
	</StyleMap>
	<Style id="sh_open-diamond0000">
		<IconStyle>
			<color>ff00ffff</color>
			<scale>1.4</scale>
			<Icon>
				<href>http://maps.google.com/mapfiles/kml/shapes/open-diamond.png</href>
			</Icon>
		</IconStyle>
		<LabelStyle>
			<scale>1.1</scale>
		</LabelStyle>
	</Style>
	<Style id="sh_open-diamond1">
		<IconStyle>
			<color>ffff00aa</color>
			<scale>1.16667</scale>
			<Icon>
				<href>http://maps.google.com/mapfiles/kml/shapes/open-diamond.png</href>
			</Icon>
		</IconStyle>
		<LabelStyle>
			<color>ccffffff</color>
			<scale>0.7</scale>
		</LabelStyle>
	</Style>
	<Style id="sh_open-diamond100">
		<IconStyle>
			<color>ffff55ff</color>
			<scale>1.4</scale>
			<Icon>
				<href>http://maps.google.com/mapfiles/kml/shapes/open-diamond.png</href>
			</Icon>
		</IconStyle>
		<LabelStyle>
			<scale>1.1</scale>
		</LabelStyle>
	</Style>
	<Style id="sh_open-diamond2">
		<IconStyle>
			<color>ff00ff00</color>
			<scale>1.4</scale>
			<Icon>
				<href>http://maps.google.com/mapfiles/kml/shapes/open-diamond.png</href>
			</Icon>
		</IconStyle>
		<LabelStyle>
			<scale>1.1</scale>
		</LabelStyle>
	</Style>
	<Style id="sh_open-diamond3">
		<IconStyle>
			<color>ffffff00</color>
			<scale>1.4</scale>
			<Icon>
				<href>http://maps.google.com/mapfiles/kml/shapes/open-diamond.png</href>
			</Icon>
		</IconStyle>
		<LabelStyle>
			<scale>1.1</scale>
		</LabelStyle>
	</Style>
	<Style id="sh_placemark_circle_highlight011">
		<IconStyle>
			<color>ffff0000</color>
			<colorMode>random</colorMode>
			<scale>0.8</scale>
			<Icon>
				<href>http://maps.google.com/mapfiles/kml/shapes/placemark_circle_highlight.png</href>
			</Icon>
		</IconStyle>
		<LabelStyle>
			<color>99ffffff</color>
			<scale>0.5</scale>
		</LabelStyle>
		<LineStyle>
			<colorMode>random</colorMode>
		</LineStyle>
		<PolyStyle>
			<colorMode>random</colorMode>
		</PolyStyle>
	</Style>
	<Style id="sh_placemark_circle_highlight30">
		<IconStyle>
			<color>cc00ff00</color>
			<scale>0.7</scale>
			<Icon>
				<href>http://maps.google.com/mapfiles/kml/shapes/triangle.png</href>
			</Icon>
		</IconStyle>
		<LabelStyle>
			<color>ccffffff</color>
			<scale>0.8</scale>
		</LabelStyle>
		<LineStyle>
			<colorMode>random</colorMode>
		</LineStyle>
		<PolyStyle>
			<colorMode>random</colorMode>
		</PolyStyle>
	</Style>
	<Style id="sh_square000">
		<IconStyle>
			<color>ccffffff</color>
			<scale>0.7</scale>
			<Icon>
				<href>http://maps.google.com/mapfiles/kml/shapes/square.png</href>
			</Icon>
		</IconStyle>
		<LabelStyle>
			<scale>1.1</scale>
		</LabelStyle>
	</Style>
	<Style id="sh_square01">
		<IconStyle>
			<color>ccffffff</color>
			<scale>0.8</scale>
			<Icon>
				<href>http://maps.google.com/mapfiles/kml/shapes/square.png</href>
			</Icon>
		</IconStyle>
		<LabelStyle>
			<scale>1.1</scale>
		</LabelStyle>
	</Style>
	<Style id="sh_triangle000">
		<IconStyle>
			<color>ffff0055</color>
			<scale>1.16667</scale>
			<Icon>
				<href>http://maps.google.com/mapfiles/kml/shapes/triangle.png</href>
			</Icon>
		</IconStyle>
		<LabelStyle>
			<color>bfffffff</color>
			<scale>0.7</scale>
		</LabelStyle>
	</Style>
	<Style id="sh_triangle1">
		<IconStyle>
			<color>ccffaaff</color>
			<scale>0.816669</scale>
			<Icon>
				<href>http://maps.google.com/mapfiles/kml/shapes/triangle.png</href>
			</Icon>
		</IconStyle>
		<LabelStyle>
			<color>ccffffff</color>
			<scale>0.6</scale>
		</LabelStyle>
	</Style>
	<Style id="sn_open-diamond000">
		<IconStyle>
			<color>ffff55ff</color>
			<scale>1.2</scale>
			<Icon>
				<href>http://maps.google.com/mapfiles/kml/shapes/open-diamond.png</href>
			</Icon>
		</IconStyle>
		<LabelStyle>
			<scale>0</scale>
		</LabelStyle>
	</Style>
	<Style id="sn_open-diamond10">
		<IconStyle>
			<color>ffff00aa</color>
			<Icon>
				<href>http://maps.google.com/mapfiles/kml/shapes/open-diamond.png</href>
			</Icon>
		</IconStyle>
		<LabelStyle>
			<color>ccffffff</color>
			<scale>0.7</scale>
		</LabelStyle>
	</Style>
	<Style id="sn_open-diamond100">
		<IconStyle>
			<color>ffffff00</color>
			<scale>1.2</scale>
			<Icon>
				<href>http://maps.google.com/mapfiles/kml/shapes/open-diamond.png</href>
			</Icon>
		</IconStyle>
		<LabelStyle>
			<scale>0</scale>
		</LabelStyle>
	</Style>
	<Style id="sn_open-diamond200">
		<IconStyle>
			<color>ff00ff00</color>
			<scale>1.2</scale>
			<Icon>
				<href>http://maps.google.com/mapfiles/kml/shapes/open-diamond.png</href>
			</Icon>
		</IconStyle>
		<LabelStyle>
			<scale>0</scale>
		</LabelStyle>
	</Style>
	<Style id="sn_open-diamond3">
		<IconStyle>
			<color>ff00ffff</color>
			<scale>1.2</scale>
			<Icon>
				<href>http://maps.google.com/mapfiles/kml/shapes/open-diamond.png</href>
			</Icon>
		</IconStyle>
		<LabelStyle>
			<scale>0</scale>
		</LabelStyle>
	</Style>
	<Style id="sn_placemark_circle0000">
		<IconStyle>
			<color>cc00ff00</color>
			<scale>0.7</scale>
			<Icon>
				<href>http://maps.google.com/mapfiles/kml/shapes/triangle.png</href>
			</Icon>
		</IconStyle>
		<LabelStyle>
			<color>ccffffff</color>
			<scale>0.8</scale>
		</LabelStyle>
		<LineStyle>
			<colorMode>random</colorMode>
		</LineStyle>
		<PolyStyle>
			<colorMode>random</colorMode>
		</PolyStyle>
	</Style>
	<Style id="sn_placemark_circle001">
		<IconStyle>
			<color>ffff0000</color>
			<colorMode>random</colorMode>
			<scale>0.8</scale>
			<Icon>
				<href>http://maps.google.com/mapfiles/kml/shapes/placemark_circle.png</href>
			</Icon>
		</IconStyle>
		<LabelStyle>
			<color>99ffffff</color>
			<scale>0.5</scale>
		</LabelStyle>
		<LineStyle>
			<colorMode>random</colorMode>
		</LineStyle>
		<PolyStyle>
			<colorMode>random</colorMode>
		</PolyStyle>
	</Style>
	<Style id="sn_square00">
		<IconStyle>
			<color>ccffffff</color>
			<scale>0.8</scale>
			<Icon>
				<href>http://maps.google.com/mapfiles/kml/shapes/square.png</href>
			</Icon>
		</IconStyle>
		<LabelStyle>
			<scale>0</scale>
		</LabelStyle>
	</Style>
	<Style id="sn_square10">
		<IconStyle>
			<color>ccffffff</color>
			<scale>0.7</scale>
			<Icon>
				<href>http://maps.google.com/mapfiles/kml/shapes/square.png</href>
			</Icon>
		</IconStyle>
		<LabelStyle>
			<scale>0</scale>
		</LabelStyle>
	</Style>
	<Style id="sn_triangle00">
		<IconStyle>
			<color>ffff0055</color>
			<Icon>
				<href>http://maps.google.com/mapfiles/kml/shapes/triangle.png</href>
			</Icon>
		</IconStyle>
		<LabelStyle>
			<color>bfffffff</color>
			<scale>0.7</scale>
		</LabelStyle>
	</Style>
	<Style id="sn_triangle1">
		<IconStyle>
			<color>ccffaaff</color>
			<scale>0.7</scale>
			<Icon>
				<href>http://maps.google.com/mapfiles/kml/shapes/triangle.png</href>
			</Icon>
		</IconStyle>
		<LabelStyle>
			<color>ccffffff</color>
			<scale>0.6</scale>
		</LabelStyle>
	</Style>
	<Folder>
		<name>Odd</name>
		<Placemark>
			<name>SW1</name>
			<styleUrl>#icon-123-nodesc1</styleUrl>
			<Point>
				<coordinates>-77.054393,38.801244,0</coordinates>
			</Point>
		</Placemark>
		<Placemark>
			<name>SW3</name>
			<styleUrl>#icon-123-nodesc1</styleUrl>
			<Point>
				<coordinates>-77.07932,38.820653,0</coordinates>
			</Point>
		</Placemark>
		<Placemark>
			<name>SW7</name>
			<styleUrl>#icon-123-nodesc1</styleUrl>
			<Point>
				<coordinates>-77.13272600000001,38.862372,0</coordinates>
			</Point>
		</Placemark>
		<Placemark>
			<name>SW9</name>
			<styleUrl>#icon-123-nodesc1</styleUrl>
			<Point>
				<coordinates>-77.15909000000001,38.882943,0</coordinates>
			</Point>
		</Placemark>
		<Placemark>
			<name>NW1</name>
			<styleUrl>#icon-123-nodesc1</styleUrl>
			<Point>
				<coordinates>-77.159144,38.903562,0</coordinates>
			</Point>
		</Placemark>
		<Placemark>
			<name>NW3</name>
			<styleUrl>#icon-123-nodesc1</styleUrl>
			<Point>
				<coordinates>-77.13223600000001,38.924633,0</coordinates>
			</Point>
		</Placemark>
		<Placemark>
			<name>NW7</name>
			<styleUrl>#icon-123-nodesc1</styleUrl>
			<Point>
				<coordinates>-77.080403,38.965182,0</coordinates>
			</Point>
		</Placemark>
		<Placemark>
			<name>NW9</name>
			<styleUrl>#icon-123-nodesc1</styleUrl>
			<Point>
				<coordinates>-77.054129,38.985699,0</coordinates>
			</Point>
		</Placemark>
		<Placemark>
			<name>NE1</name>
			<styleUrl>#icon-123-nodesc</styleUrl>
			<Point>
				<coordinates>-77.027743,38.98562,0</coordinates>
			</Point>
		</Placemark>
		<Placemark>
			<name>NE3</name>
			<styleUrl>#icon-123-nodesc1</styleUrl>
			<Point>
				<coordinates>-77.00169099999999,38.965273,0</coordinates>
			</Point>
		</Placemark>
		<Placemark>
			<name>NE7</name>
			<styleUrl>#icon-123-nodesc1</styleUrl>
			<Point>
				<coordinates>-76.948649,38.923788,0</coordinates>
			</Point>
		</Placemark>
		<Placemark>
			<name>NE9</name>
			<styleUrl>#icon-123-nodesc1</styleUrl>
			<Point>
				<coordinates>-76.92232,38.903169,0</coordinates>
			</Point>
		</Placemark>
		<Placemark>
			<name>SE1</name>
			<styleUrl>#icon-123-nodesc1</styleUrl>
			<Point>
				<coordinates>-76.922293,38.88264,0</coordinates>
			</Point>
		</Placemark>
		<Placemark>
			<name>SE3</name>
			<styleUrl>#icon-123-nodesc1</styleUrl>
			<Point>
				<coordinates>-76.948571,38.862161,0</coordinates>
			</Point>
		</Placemark>
		<Placemark>
			<name>SE7</name>
			<styleUrl>#icon-123-nodesc1</styleUrl>
			<Point>
				<coordinates>-77.001096,38.821197,0</coordinates>
			</Point>
		</Placemark>
		<Placemark>
			<name>SE9</name>
			<styleUrl>#icon-123-nodesc1</styleUrl>
			<Point>
				<coordinates>-77.02356899999999,38.803728,0</coordinates>
			</Point>
		</Placemark>
	</Folder>
	<Folder>
		<name>Even</name>
		<Placemark>
			<name>SW2</name>
			<styleUrl>#icon-123-nodesc00</styleUrl>
			<Point>
				<coordinates>-77.06263800000001,38.807592,0</coordinates>
			</Point>
		</Placemark>
		<Placemark>
			<name>SW4</name>
			<styleUrl>#icon-123-nodesc00</styleUrl>
			<Point>
				<coordinates>-77.093187,38.831543,0</coordinates>
			</Point>
		</Placemark>
		<Placemark>
			<name>SW6</name>
			<styleUrl>#icon-123-nodesc00</styleUrl>
			<Point>
				<coordinates>-77.119264,38.851832,0</coordinates>
			</Point>
		</Placemark>
		<Placemark>
			<name>SW8</name>
			<styleUrl>#icon-123-nodesc00</styleUrl>
			<Point>
				<coordinates>-77.145945,38.872671,0</coordinates>
			</Point>
		</Placemark>
		<Placemark>
			<name>NW2</name>
			<styleUrl>#icon-123-nodesc0</styleUrl>
			<Point>
				<coordinates>-77.14598700000001,38.913881,0</coordinates>
			</Point>
		</Placemark>
		<Placemark>
			<name>NW4</name>
			<styleUrl>#icon-123-nodesc00</styleUrl>
			<Point>
				<coordinates>-77.115672,38.937606,0</coordinates>
			</Point>
		</Placemark>
		<Placemark>
			<name>NW6</name>
			<styleUrl>#icon-123-nodesc00</styleUrl>
			<Point>
				<coordinates>-77.093548,38.954909,0</coordinates>
			</Point>
		</Placemark>
		<Placemark>
			<name>NW8</name>
			<styleUrl>#icon-123-nodesc00</styleUrl>
			<Point>
				<coordinates>-77.067267,38.975442,0</coordinates>
			</Point>
		</Placemark>
		<Placemark>
			<name>NE2</name>
			<styleUrl>#icon-123-nodesc00</styleUrl>
			<Point>
				<coordinates>-77.014594,38.975351,0</coordinates>
			</Point>
		</Placemark>
		<Placemark>
			<name>NE4</name>
			<styleUrl>#icon-123-nodesc00</styleUrl>
			<Point>
				<coordinates>-76.988207,38.954733,0</coordinates>
			</Point>
		</Placemark>
		<Placemark>
			<name>NE6</name>
			<styleUrl>#icon-123-nodesc00</styleUrl>
			<Point>
				<coordinates>-76.96133,38.933715,0</coordinates>
			</Point>
		</Placemark>
		<Placemark>
			<name>NE8</name>
			<styleUrl>#icon-123-nodesc00</styleUrl>
			<Point>
				<coordinates>-76.935483,38.913483,0</coordinates>
			</Point>
		</Placemark>
		<Placemark>
			<name>SE2</name>
			<styleUrl>#icon-123-nodesc00</styleUrl>
			<Point>
				<coordinates>-76.935424,38.87241,0</coordinates>
			</Point>
		</Placemark>
		<Placemark>
			<name>SE4</name>
			<styleUrl>#icon-123-nodesc00</styleUrl>
			<Point>
				<coordinates>-76.96189099999999,38.851756,0</coordinates>
			</Point>
		</Placemark>
		<Placemark>
			<name>SE8</name>
			<styleUrl>#icon-123-nodesc00</styleUrl>
			<Point>
				<coordinates>-77.01425,38.81092,0</coordinates>
			</Point>
		</Placemark>
		<Placemark>
			<name>SE6</name>
			<styleUrl>#icon-123-nodesc00</styleUrl>
			<Point>
				<coordinates>-76.987973,38.831437,0</coordinates>
			</Point>
		</Placemark>
	</Folder>
	<Placemark>
		<name>SOUTH</name>
		<styleUrl>#msn_open-diamond0000</styleUrl>
		<Point>
			<coordinates>-77.040586,38.790339,0</coordinates>
		</Point>
	</Placemark>
	<Placemark>
		<name>SW5</name>
		<styleUrl>#msn_square1</styleUrl>
		<Point>
			<coordinates>-77.10674,38.842081,0</coordinates>
		</Point>
	</Placemark>
	<Placemark>
		<name>WEST</name>
		<styleUrl>#msn_open-diamond100</styleUrl>
		<Point>
			<coordinates>-77.172301,38.893245,0</coordinates>
		</Point>
	</Placemark>
	<Placemark>
		<name>NW5</name>
		<styleUrl>#msn_square000</styleUrl>
		<Point>
			<coordinates>-77.10668200000001,38.944639,0</coordinates>
		</Point>
	</Placemark>
	<Placemark>
		<name>NORTH</name>
		<styleUrl>#msn_open-diamond3</styleUrl>
		<Point>
			<coordinates>-77.040986,38.995957,0</coordinates>
		</Point>
	</Placemark>
	<Placemark>
		<name>NE5</name>
		<styleUrl>#msn_square1</styleUrl>
		<Point>
			<coordinates>-76.975009,38.944414,0</coordinates>
		</Point>
	</Placemark>
	<Placemark>
		<name>EAST</name>
		<styleUrl>#msn_open-diamond2</styleUrl>
		<Point>
			<coordinates>-76.909166,38.89286,0</coordinates>
		</Point>
	</Placemark>
	<Placemark>
		<name>SE5</name>
		<styleUrl>#msn_square1</styleUrl>
		<Point>
			<coordinates>-76.974839,38.841683,0</coordinates>
		</Point>
	</Placemark>
	<Placemark>
		<name>Anacostia Border</name>
		<LookAt>
			<longitude>-76.9422343700474</longitude>
			<latitude>38.9176990942889</latitude>
			<altitude>0</altitude>
			<heading>0.05234358302471087</heading>
			<tilt>0</tilt>
			<range>361.8897786622118</range>
			<gx:altitudeMode>relativeToSeaFloor</gx:altitudeMode>
		</LookAt>
		<styleUrl>#msn_open-diamond1</styleUrl>
		<Point>
			<gx:drawOrder>1</gx:drawOrder>
			<coordinates>-76.94192177011202,38.91858294558368,0</coordinates>
		</Point>
	</Placemark>
	<Placemark>
		<name>Potomac Border</name>
		<LookAt>
			<longitude>-77.1199565151753</longitude>
			<latitude>38.93420574460334</latitude>
			<altitude>0</altitude>
			<heading>-0.05931343011030527</heading>
			<tilt>0</tilt>
			<range>345.0066598622503</range>
			<gx:altitudeMode>relativeToSeaFloor</gx:altitudeMode>
		</LookAt>
		<styleUrl>#msn_triangle02</styleUrl>
		<Point>
			<gx:drawOrder>1</gx:drawOrder>
			<coordinates>-77.11991586020626,38.93449308496549,0</coordinates>
		</Point>
	</Placemark>
	<Placemark>
		<name>RC Border</name>
		<LookAt>
			<gx:ViewerOptions>
				<gx:option name="historicalimagery"></gx:option>
				<gx:option enabled="0" name="sunlight"></gx:option>
				<gx:option enabled="0" name="streetview"></gx:option>
			</gx:ViewerOptions>
			<longitude>-77.05232207098962</longitude>
			<latitude>38.98690866249334</latitude>
			<altitude>0</altitude>
			<heading>0</heading>
			<tilt>0</tilt>
			<range>1000</range>
			<gx:altitudeMode>relativeToSeaFloor</gx:altitudeMode>
		</LookAt>
		<styleUrl>#msn_triangle000</styleUrl>
		<Point>
			<gx:drawOrder>1</gx:drawOrder>
			<coordinates>-77.05232207098962,38.98690866249334,0</coordinates>
		</Point>
	</Placemark>
	<Placemark>
		<name>Rock Potomac</name>
		<LookAt>
			<longitude>-77.05711649350084</longitude>
			<latitude>38.89934899795938</latitude>
			<altitude>0</altitude>
			<heading>-0.02271662366010205</heading>
			<tilt>0</tilt>
			<range>138.3050664895768</range>
			<gx:altitudeMode>relativeToSeaFloor</gx:altitudeMode>
		</LookAt>
		<styleUrl>#msn_placemark_circle30</styleUrl>
		<Point>
			<gx:drawOrder>1</gx:drawOrder>
			<coordinates>-77.057407,38.899574,0</coordinates>
		</Point>
	</Placemark>
	<Placemark>
		<name>KeyAnaPot</name>
		<LookAt>
			<longitude>-77.02481044102421</longitude>
			<latitude>38.8560073905638</latitude>
			<altitude>0</altitude>
			<heading>0.009944722982442268</heading>
			<tilt>0</tilt>
			<range>759.0736794288072</range>
			<gx:altitudeMode>relativeToSeaFloor</gx:altitudeMode>
		</LookAt>
		<styleUrl>#msn_placemark_circle400</styleUrl>
		<Point>
			<gx:drawOrder>1</gx:drawOrder>
			<coordinates>-77.023561,38.855142,0</coordinates>
		</Point>
	</Placemark>
</Document>
</kml>
