{
  "type": "FeatureCollection",
  "features": [
    {
      "type": "Feature",
      "geometry": {
        "type": "Point",
        "coordinates": [
          -77.009079,
          38.870694
        ]
      },
      "properties": {
        "LOC": "Intsct082",
        "LAT_Orig": 38.87069432,
        "LON_Orig": -77.00907854,
        "ALT_M": 7.08,
        "ALT_FT": 23.24
      }
    },
    {
      "type": "Feature",
      "geometry": {
        "type": "Point",
        "coordinates": [
          -76.980722,
          38.878381
        ]
      },
      "properties": {
        "LOC": "Intsct050",
        "LAT_Orig": 38.87838133,
        "LON_Orig": -76.98072166,
        "ALT_M": 14.15,
        "ALT_FT": 46.42
      }
    },
    {
      "type": "Feature",
      "geometry": {
        "type": "Point",
        "coordinates": [
          -76.990255,
          38.889801
        ]
      },
      "properties": {
        "LOC": "Intsct062",
        "LAT_Orig": 38.88980114,
        "LON_Orig": -76.99025502,
        "ALT_M": 27.95,
        "ALT_FT": 91.7
      }
    },
    {
      "type": "Feature",
      "geometry": {
        "type": "Point",
        "coordinates": [
          -77.043459,
          38.909641
        ]
      },
      "properties": {
        "LOC": "Intsct009",
        "LAT_Orig": 38.90964122,
        "LON_Orig": -77.04345942,
        "ALT_M": 27.63,
        "ALT_FT": 90.65
      }
    },
    {
      "type": "Feature",
      "geometry": {
        "type": "Point",
        "coordinates": [
          -77.050132,
          38.902522
        ]
      },
      "properties": {
        "LOC": "Intsct008",
        "LAT_Orig": 38.90252157,
        "LON_Orig": -77.05013189,
        "ALT_M": 21.8,
        "ALT_FT": 71.52
      }
    },
    {
      "type": "Feature",
      "geometry": {
        "type": "Point",
        "coordinates": [
          -76.991579,
          38.889239
        ]
      },
      "properties": {
        "LOC": "LP1",
        "LAT_Orig": 38.88923864,
        "LON_Orig": -76.99157892,
        "ALT_M": 26.34,
        "ALT_FT": 86.43
      }
    },
    {
      "type": "Feature",
      "geometry": {
        "type": "Point",
        "coordinates": [
          -77.036556,
          38.897786
        ]
      },
      "properties": {
        "LOC": "Hi WH",
        "LAT_Orig": 38.897786,
        "LON_Orig": -77.036556,
        "ALT_M": 19.45,
        "ALT_FT": 63.8
      }
    },
    {
      "type": "Feature",
      "geometry": {
        "type": "Point",
        "coordinates": [
          -77.051444,
          38.895137
        ]
      },
      "properties": {
        "LOC": "Hk",
        "LAT_Orig": 38.8951366,
        "LON_Orig": -77.051444,
        "ALT_M": 29.5,
        "ALT_FT": 96.77
      }
    },
    {
      "type": "Feature",
      "geometry": {
        "type": "Point",
        "coordinates": [
          -77.067051,
          38.921545
        ]
      },
      "properties": {
        "LOC": "NOa",
        "LAT_Orig": 38.92154464,
        "LON_Orig": -77.06705128,
        "ALT_M": 85.29,
        "ALT_FT": 279.81
      }
    },
    {
      "type": "Feature",
      "geometry": {
        "type": "Point",
        "coordinates": [
          -77.035278,
          38.889484
        ]
      },
      "properties": {
        "LOC": "M",
        "LAT_Orig": 38.889484,
        "LON_Orig": -77.035278,
        "ALT_M": 12.25,
        "ALT_FT": 40.18
      }
    },
    {
      "type": "Feature",
      "geometry": {
        "type": "Point",
        "coordinates": [
          -77.012334,
          38.888987
        ]
      },
      "properties": {
        "LOC": "CFb",
        "LAT_Orig": 38.88898718,
        "LON_Orig": -77.01233379,
        "ALT_M": 4.31,
        "ALT_FT": 14.13
      }
    },
    {
      "type": "Feature",
      "geometry": {
        "type": "Point",
        "coordinates": [
          -77.012352,
          38.890644
        ]
      },
      "properties": {
        "LOC": "CFa",
        "LAT_Orig": 38.89064396,
        "LON_Orig": -77.01235207,
        "ALT_M": 4.29,
        "ALT_FT": 14.08
      }
    },
    {
      "type": "Feature",
      "geometry": {
        "type": "Point",
        "coordinates": [
          -77.009047,
          38.889801
        ]
      },
      "properties": {
        "LOC": "CapK",
        "LAT_Orig": 38.889801,
        "LON_Orig": -77.00904745,
        "ALT_M": 26.71,
        "ALT_FT": 87.62
      }
    },
    {
      "type": "Feature",
      "geometry": {
        "type": "Point",
        "coordinates": [
          -77.055969,
          38.871003
        ]
      },
      "properties": {
        "LOC": "P",
        "LAT_Orig": 38.87100323,
        "LON_Orig": -77.05596854,
        "ALT_M": 10.78,
        "ALT_FT": 35.36
      }
    },
    {
      "type": "Feature",
      "geometry": {
        "type": "Point",
        "coordinates": [
          -77.008989,
          38.892747
        ]
      },
      "properties": {
        "LOC": "B",
        "LAT_Orig": 38.89274728,
        "LON_Orig": -77.008989,
        "ALT_M": 18.31,
        "ALT_FT": 60.06
      }
    },
    {
      "type": "Feature",
      "geometry": {
        "type": "Point",
        "coordinates": [
          -77.051435,
          38.892755
        ]
      },
      "properties": {
        "LOC": "K",
        "LAT_Orig": 38.892755,
        "LON_Orig": -77.051435,
        "ALT_M": 8.76,
        "ALT_FT": 28.76
      }
    },
    {
      "type": "Feature",
      "geometry": {
        "type": "Point",
        "coordinates": [
          -77.036569,
          38.889801
        ]
      },
      "properties": {
        "LOC": "J",
        "LAT_Orig": 38.889801,
        "LON_Orig": -77.03656908,
        "ALT_M": 6.82,
        "ALT_FT": 22.39
      }
    }
  ]
}