<?xml version="1.0" encoding="UTF-8"?>
<kml xmlns="http://www.opengis.net/kml/2.2" xmlns:gx="http://www.google.com/kml/ext/2.2" xmlns:kml="http://www.opengis.net/kml/2.2" xmlns:atom="http://www.w3.org/2005/Atom">
<Document>
	<name>RidgePnts.kml</name>
	<StyleMap id="msn_campfire">
		<Pair>
			<key>normal</key>
			<styleUrl>#sn_campfire0</styleUrl>
		</Pair>
		<Pair>
			<key>highlight</key>
			<styleUrl>#sh_campfire</styleUrl>
		</Pair>
	</StyleMap>
	<StyleMap id="msn_campfire0">
		<Pair>
			<key>normal</key>
			<styleUrl>#sn_campfire3</styleUrl>
		</Pair>
		<Pair>
			<key>highlight</key>
			<styleUrl>#sh_campfire1</styleUrl>
		</Pair>
	</StyleMap>
	<StyleMap id="msn_campfire1">
		<Pair>
			<key>normal</key>
			<styleUrl>#sn_campfire2</styleUrl>
		</Pair>
		<Pair>
			<key>highlight</key>
			<styleUrl>#sh_campfire7</styleUrl>
		</Pair>
	</StyleMap>
	<StyleMap id="msn_campfire2">
		<Pair>
			<key>normal</key>
			<styleUrl>#sn_campfire7</styleUrl>
		</Pair>
		<Pair>
			<key>highlight</key>
			<styleUrl>#sh_campfire3</styleUrl>
		</Pair>
	</StyleMap>
	<StyleMap id="msn_campfire3">
		<Pair>
			<key>normal</key>
			<styleUrl>#sn_campfire1</styleUrl>
		</Pair>
		<Pair>
			<key>highlight</key>
			<styleUrl>#sh_campfire5</styleUrl>
		</Pair>
	</StyleMap>
	<StyleMap id="msn_campfire4">
		<Pair>
			<key>normal</key>
			<styleUrl>#sn_campfire6</styleUrl>
		</Pair>
		<Pair>
			<key>highlight</key>
			<styleUrl>#sh_campfire4</styleUrl>
		</Pair>
	</StyleMap>
	<StyleMap id="msn_campfire5">
		<Pair>
			<key>normal</key>
			<styleUrl>#sn_campfire4</styleUrl>
		</Pair>
		<Pair>
			<key>highlight</key>
			<styleUrl>#sh_campfire6</styleUrl>
		</Pair>
	</StyleMap>
	<StyleMap id="msn_campfire6">
		<Pair>
			<key>normal</key>
			<styleUrl>#sn_campfire</styleUrl>
		</Pair>
		<Pair>
			<key>highlight</key>
			<styleUrl>#sh_campfire2</styleUrl>
		</Pair>
	</StyleMap>
	<StyleMap id="msn_campfire7">
		<Pair>
			<key>normal</key>
			<styleUrl>#sn_campfire5</styleUrl>
		</Pair>
		<Pair>
			<key>highlight</key>
			<styleUrl>#sh_campfire0</styleUrl>
		</Pair>
	</StyleMap>
	<StyleMap id="msn_firedept">
		<Pair>
			<key>normal</key>
			<styleUrl>#sn_firedept6</styleUrl>
		</Pair>
		<Pair>
			<key>highlight</key>
			<styleUrl>#sh_firedept10</styleUrl>
		</Pair>
	</StyleMap>
	<StyleMap id="msn_firedept00">
		<Pair>
			<key>normal</key>
			<styleUrl>#sn_firedept000</styleUrl>
		</Pair>
		<Pair>
			<key>highlight</key>
			<styleUrl>#sh_firedept100</styleUrl>
		</Pair>
	</StyleMap>
	<StyleMap id="msn_firedept000">
		<Pair>
			<key>normal</key>
			<styleUrl>#sn_firedept00</styleUrl>
		</Pair>
		<Pair>
			<key>highlight</key>
			<styleUrl>#sh_firedept1</styleUrl>
		</Pair>
	</StyleMap>
	<StyleMap id="msn_firedept01">
		<Pair>
			<key>normal</key>
			<styleUrl>#sn_firedept4</styleUrl>
		</Pair>
		<Pair>
			<key>highlight</key>
			<styleUrl>#sh_firedept7</styleUrl>
		</Pair>
	</StyleMap>
	<StyleMap id="msn_firedept1">
		<Pair>
			<key>normal</key>
			<styleUrl>#sn_firedept1</styleUrl>
		</Pair>
		<Pair>
			<key>highlight</key>
			<styleUrl>#sh_firedept3</styleUrl>
		</Pair>
	</StyleMap>
	<StyleMap id="msn_firedept2">
		<Pair>
			<key>normal</key>
			<styleUrl>#sn_firedept2</styleUrl>
		</Pair>
		<Pair>
			<key>highlight</key>
			<styleUrl>#sh_firedept8</styleUrl>
		</Pair>
	</StyleMap>
	<StyleMap id="msn_firedept3">
		<Pair>
			<key>normal</key>
			<styleUrl>#sn_firedept9</styleUrl>
		</Pair>
		<Pair>
			<key>highlight</key>
			<styleUrl>#sh_firedept0</styleUrl>
		</Pair>
	</StyleMap>
	<StyleMap id="msn_firedept4">
		<Pair>
			<key>normal</key>
			<styleUrl>#sn_firedept8</styleUrl>
		</Pair>
		<Pair>
			<key>highlight</key>
			<styleUrl>#sh_firedept6</styleUrl>
		</Pair>
	</StyleMap>
	<StyleMap id="msn_firedept5">
		<Pair>
			<key>normal</key>
			<styleUrl>#sn_firedept0</styleUrl>
		</Pair>
		<Pair>
			<key>highlight</key>
			<styleUrl>#sh_firedept9</styleUrl>
		</Pair>
	</StyleMap>
	<StyleMap id="msn_firedept6">
		<Pair>
			<key>normal</key>
			<styleUrl>#sn_firedept3</styleUrl>
		</Pair>
		<Pair>
			<key>highlight</key>
			<styleUrl>#sh_firedept2</styleUrl>
		</Pair>
	</StyleMap>
	<StyleMap id="msn_firedept7">
		<Pair>
			<key>normal</key>
			<styleUrl>#sn_firedept5</styleUrl>
		</Pair>
		<Pair>
			<key>highlight</key>
			<styleUrl>#sh_firedept5</styleUrl>
		</Pair>
	</StyleMap>
	<StyleMap id="msn_firedept8">
		<Pair>
			<key>normal</key>
			<styleUrl>#sn_firedept7</styleUrl>
		</Pair>
		<Pair>
			<key>highlight</key>
			<styleUrl>#sh_firedept4</styleUrl>
		</Pair>
	</StyleMap>
	<StyleMap id="msn_shaded_dot">
		<Pair>
			<key>normal</key>
			<styleUrl>#sn_shaded_dot20</styleUrl>
		</Pair>
		<Pair>
			<key>highlight</key>
			<styleUrl>#sh_shaded_dot1</styleUrl>
		</Pair>
	</StyleMap>
	<StyleMap id="msn_shaded_dot01">
		<Pair>
			<key>normal</key>
			<styleUrl>#sn_shaded_dot25</styleUrl>
		</Pair>
		<Pair>
			<key>highlight</key>
			<styleUrl>#sh_shaded_dot01</styleUrl>
		</Pair>
	</StyleMap>
	<StyleMap id="msn_shaded_dot10">
		<Pair>
			<key>normal</key>
			<styleUrl>#sn_shaded_dot13</styleUrl>
		</Pair>
		<Pair>
			<key>highlight</key>
			<styleUrl>#sh_shaded_dot16</styleUrl>
		</Pair>
	</StyleMap>
	<StyleMap id="msn_shaded_dot12">
		<Pair>
			<key>normal</key>
			<styleUrl>#sn_shaded_dot8</styleUrl>
		</Pair>
		<Pair>
			<key>highlight</key>
			<styleUrl>#sh_shaded_dot120</styleUrl>
		</Pair>
	</StyleMap>
	<StyleMap id="msn_shaded_dot13">
		<Pair>
			<key>normal</key>
			<styleUrl>#sn_shaded_dot1</styleUrl>
		</Pair>
		<Pair>
			<key>highlight</key>
			<styleUrl>#sh_shaded_dot6</styleUrl>
		</Pair>
	</StyleMap>
	<StyleMap id="msn_shaded_dot170">
		<Pair>
			<key>normal</key>
			<styleUrl>#sn_shaded_dot0200</styleUrl>
		</Pair>
		<Pair>
			<key>highlight</key>
			<styleUrl>#sh_shaded_dot1000</styleUrl>
		</Pair>
	</StyleMap>
	<StyleMap id="msn_shaded_dot29">
		<Pair>
			<key>normal</key>
			<styleUrl>#sn_shaded_dot4</styleUrl>
		</Pair>
		<Pair>
			<key>highlight</key>
			<styleUrl>#sh_shaded_dot7</styleUrl>
		</Pair>
	</StyleMap>
	<StyleMap id="msn_shaded_dot3">
		<Pair>
			<key>normal</key>
			<styleUrl>#sn_shaded_dot27</styleUrl>
		</Pair>
		<Pair>
			<key>highlight</key>
			<styleUrl>#sh_shaded_dot0</styleUrl>
		</Pair>
	</StyleMap>
	<StyleMap id="msn_shaded_dot4">
		<Pair>
			<key>normal</key>
			<styleUrl>#sn_shaded_dot</styleUrl>
		</Pair>
		<Pair>
			<key>highlight</key>
			<styleUrl>#sh_shaded_dot</styleUrl>
		</Pair>
	</StyleMap>
	<StyleMap id="msn_shaded_dot50">
		<Pair>
			<key>normal</key>
			<styleUrl>#sn_shaded_dot240</styleUrl>
		</Pair>
		<Pair>
			<key>highlight</key>
			<styleUrl>#sh_shaded_dot00</styleUrl>
		</Pair>
	</StyleMap>
	<StyleMap id="msn_shaded_dot8">
		<Pair>
			<key>normal</key>
			<styleUrl>#sn_shaded_dot12</styleUrl>
		</Pair>
		<Pair>
			<key>highlight</key>
			<styleUrl>#sh_shaded_dot4</styleUrl>
		</Pair>
	</StyleMap>
	<Style id="sh_campfire">
		<IconStyle>
			<color>ff00e500</color>
			<scale>0.827275</scale>
			<Icon>
				<href>http://maps.google.com/mapfiles/kml/shapes/campfire.png</href>
			</Icon>
			<hotSpot x="0.5" y="0" xunits="fraction" yunits="fraction"/>
		</IconStyle>
		<LabelStyle>
			<color>b3ffffff</color>
			<scale>0.4</scale>
		</LabelStyle>
		<LineStyle>
			<color>ff00e500</color>
			<width>3</width>
		</LineStyle>
	</Style>
	<Style id="sh_campfire0">
		<IconStyle>
			<color>ff00e500</color>
			<scale>0.827275</scale>
			<Icon>
				<href>http://maps.google.com/mapfiles/kml/shapes/campfire.png</href>
			</Icon>
			<hotSpot x="0.5" y="0" xunits="fraction" yunits="fraction"/>
		</IconStyle>
		<LabelStyle>
			<color>b3ffffff</color>
			<scale>0.4</scale>
		</LabelStyle>
		<LineStyle>
			<color>ff00e500</color>
			<width>3</width>
		</LineStyle>
	</Style>
	<Style id="sh_campfire1">
		<IconStyle>
			<color>ff00e500</color>
			<scale>0.827275</scale>
			<Icon>
				<href>http://maps.google.com/mapfiles/kml/shapes/campfire.png</href>
			</Icon>
			<hotSpot x="0.5" y="0" xunits="fraction" yunits="fraction"/>
		</IconStyle>
		<LabelStyle>
			<color>b3ffffff</color>
			<scale>0.4</scale>
		</LabelStyle>
		<LineStyle>
			<color>ff00e500</color>
			<width>3</width>
		</LineStyle>
	</Style>
	<Style id="sh_campfire2">
		<IconStyle>
			<color>ff00e500</color>
			<scale>0.827275</scale>
			<Icon>
				<href>http://maps.google.com/mapfiles/kml/shapes/campfire.png</href>
			</Icon>
			<hotSpot x="0.5" y="0" xunits="fraction" yunits="fraction"/>
		</IconStyle>
		<LabelStyle>
			<color>b3ffffff</color>
			<scale>0.4</scale>
		</LabelStyle>
		<LineStyle>
			<color>ff00e500</color>
			<width>3</width>
		</LineStyle>
	</Style>
	<Style id="sh_campfire3">
		<IconStyle>
			<color>ff00e500</color>
			<scale>0.827275</scale>
			<Icon>
				<href>http://maps.google.com/mapfiles/kml/shapes/campfire.png</href>
			</Icon>
			<hotSpot x="0.5" y="0" xunits="fraction" yunits="fraction"/>
		</IconStyle>
		<LabelStyle>
			<color>b3ffffff</color>
			<scale>0.4</scale>
		</LabelStyle>
		<LineStyle>
			<color>ff00e500</color>
			<width>3</width>
		</LineStyle>
	</Style>
	<Style id="sh_campfire4">
		<IconStyle>
			<color>ff00e500</color>
			<scale>0.827275</scale>
			<Icon>
				<href>http://maps.google.com/mapfiles/kml/shapes/campfire.png</href>
			</Icon>
			<hotSpot x="0.5" y="0" xunits="fraction" yunits="fraction"/>
		</IconStyle>
		<LabelStyle>
			<color>b3ffffff</color>
			<scale>0.4</scale>
		</LabelStyle>
		<LineStyle>
			<color>ff00e500</color>
			<width>3</width>
		</LineStyle>
	</Style>
	<Style id="sh_campfire5">
		<IconStyle>
			<color>ff00e500</color>
			<scale>0.827275</scale>
			<Icon>
				<href>http://maps.google.com/mapfiles/kml/shapes/campfire.png</href>
			</Icon>
			<hotSpot x="0.5" y="0" xunits="fraction" yunits="fraction"/>
		</IconStyle>
		<LabelStyle>
			<color>b3ffffff</color>
			<scale>0.4</scale>
		</LabelStyle>
		<LineStyle>
			<color>ff00e500</color>
			<width>3</width>
		</LineStyle>
	</Style>
	<Style id="sh_campfire6">
		<IconStyle>
			<color>ff00e500</color>
			<scale>0.827275</scale>
			<Icon>
				<href>http://maps.google.com/mapfiles/kml/shapes/campfire.png</href>
			</Icon>
			<hotSpot x="0.5" y="0" xunits="fraction" yunits="fraction"/>
		</IconStyle>
		<LabelStyle>
			<color>b3ffffff</color>
			<scale>0.4</scale>
		</LabelStyle>
		<LineStyle>
			<color>ff00e500</color>
			<width>3</width>
		</LineStyle>
	</Style>
	<Style id="sh_campfire7">
		<IconStyle>
			<color>ff00e500</color>
			<scale>0.827275</scale>
			<Icon>
				<href>http://maps.google.com/mapfiles/kml/shapes/campfire.png</href>
			</Icon>
			<hotSpot x="0.5" y="0" xunits="fraction" yunits="fraction"/>
		</IconStyle>
		<LabelStyle>
			<color>b3ffffff</color>
			<scale>0.4</scale>
		</LabelStyle>
		<LineStyle>
			<color>ff00e500</color>
			<width>3</width>
		</LineStyle>
	</Style>
	<Style id="sh_firedept0">
		<IconStyle>
			<color>ff00ffff</color>
			<scale>0.945457</scale>
			<Icon>
				<href>http://maps.google.com/mapfiles/kml/shapes/firedept.png</href>
			</Icon>
			<hotSpot x="0.5" y="0" xunits="fraction" yunits="fraction"/>
		</IconStyle>
		<LabelStyle>
			<color>b3ffffff</color>
			<scale>0.4</scale>
		</LabelStyle>
		<LineStyle>
			<color>ff0000ff</color>
			<width>3</width>
		</LineStyle>
	</Style>
	<Style id="sh_firedept1">
		<IconStyle>
			<color>ff00ffff</color>
			<scale>0.945457</scale>
			<Icon>
				<href>http://maps.google.com/mapfiles/kml/shapes/firedept.png</href>
			</Icon>
			<hotSpot x="0.5" y="0" xunits="fraction" yunits="fraction"/>
		</IconStyle>
		<LabelStyle>
			<color>b3ffffff</color>
			<scale>0.4</scale>
		</LabelStyle>
		<LineStyle>
			<color>ff0000ff</color>
			<width>3</width>
		</LineStyle>
	</Style>
	<Style id="sh_firedept10">
		<IconStyle>
			<color>ff00ffff</color>
			<scale>0.945457</scale>
			<Icon>
				<href>http://maps.google.com/mapfiles/kml/shapes/firedept.png</href>
			</Icon>
			<hotSpot x="0.5" y="0" xunits="fraction" yunits="fraction"/>
		</IconStyle>
		<LabelStyle>
			<color>b3ffffff</color>
			<scale>0.4</scale>
		</LabelStyle>
		<LineStyle>
			<color>ff0000ff</color>
			<width>3</width>
		</LineStyle>
	</Style>
	<Style id="sh_firedept100">
		<IconStyle>
			<color>ff00ffff</color>
			<scale>0.945457</scale>
			<Icon>
				<href>http://maps.google.com/mapfiles/kml/shapes/firedept.png</href>
			</Icon>
			<hotSpot x="0.5" y="0" xunits="fraction" yunits="fraction"/>
		</IconStyle>
		<LabelStyle>
			<color>b3ffffff</color>
			<scale>0.4</scale>
		</LabelStyle>
		<LineStyle>
			<color>ff0000ff</color>
			<width>3</width>
		</LineStyle>
	</Style>
	<Style id="sh_firedept2">
		<IconStyle>
			<color>ff00ffff</color>
			<scale>0.945457</scale>
			<Icon>
				<href>http://maps.google.com/mapfiles/kml/shapes/firedept.png</href>
			</Icon>
			<hotSpot x="0.5" y="0" xunits="fraction" yunits="fraction"/>
		</IconStyle>
		<LabelStyle>
			<color>b3ffffff</color>
			<scale>0.4</scale>
		</LabelStyle>
		<LineStyle>
			<color>ff0000ff</color>
			<width>3</width>
		</LineStyle>
	</Style>
	<Style id="sh_firedept3">
		<IconStyle>
			<scale>1.18182</scale>
			<Icon>
				<href>http://maps.google.com/mapfiles/kml/shapes/firedept.png</href>
			</Icon>
			<hotSpot x="0.5" y="0" xunits="fraction" yunits="fraction"/>
		</IconStyle>
		<LabelStyle>
			<color>b3ffffff</color>
			<scale>0.4</scale>
		</LabelStyle>
		<LineStyle>
			<color>ff0000ff</color>
			<width>2.5</width>
		</LineStyle>
	</Style>
	<Style id="sh_firedept4">
		<IconStyle>
			<scale>1.18182</scale>
			<Icon>
				<href>http://maps.google.com/mapfiles/kml/shapes/firedept.png</href>
			</Icon>
			<hotSpot x="0.5" y="0" xunits="fraction" yunits="fraction"/>
		</IconStyle>
		<LabelStyle>
			<color>b3ffffff</color>
			<scale>0.4</scale>
		</LabelStyle>
		<LineStyle>
			<color>ff0000ff</color>
			<width>2.5</width>
		</LineStyle>
	</Style>
	<Style id="sh_firedept5">
		<IconStyle>
			<scale>1.18182</scale>
			<Icon>
				<href>http://maps.google.com/mapfiles/kml/shapes/firedept.png</href>
			</Icon>
			<hotSpot x="0.5" y="0" xunits="fraction" yunits="fraction"/>
		</IconStyle>
		<LabelStyle>
			<color>b3ffffff</color>
			<scale>0.4</scale>
		</LabelStyle>
		<LineStyle>
			<color>ff0000ff</color>
			<width>2.5</width>
		</LineStyle>
	</Style>
	<Style id="sh_firedept6">
		<IconStyle>
			<color>ff00ffff</color>
			<scale>0.945457</scale>
			<Icon>
				<href>http://maps.google.com/mapfiles/kml/shapes/firedept.png</href>
			</Icon>
			<hotSpot x="0.5" y="0" xunits="fraction" yunits="fraction"/>
		</IconStyle>
		<LabelStyle>
			<color>b3ffffff</color>
			<scale>0.4</scale>
		</LabelStyle>
		<LineStyle>
			<color>ff0000ff</color>
			<width>3</width>
		</LineStyle>
	</Style>
	<Style id="sh_firedept7">
		<IconStyle>
			<color>ff00ffff</color>
			<scale>0.945457</scale>
			<Icon>
				<href>http://maps.google.com/mapfiles/kml/shapes/firedept.png</href>
			</Icon>
			<hotSpot x="0.5" y="0" xunits="fraction" yunits="fraction"/>
		</IconStyle>
		<LabelStyle>
			<color>b3ffffff</color>
			<scale>0.4</scale>
		</LabelStyle>
		<LineStyle>
			<color>ff0000ff</color>
			<width>3</width>
		</LineStyle>
	</Style>
	<Style id="sh_firedept8">
		<IconStyle>
			<color>ff00ffff</color>
			<scale>0.945457</scale>
			<Icon>
				<href>http://maps.google.com/mapfiles/kml/shapes/firedept.png</href>
			</Icon>
			<hotSpot x="0.5" y="0" xunits="fraction" yunits="fraction"/>
		</IconStyle>
		<LabelStyle>
			<color>b3ffffff</color>
			<scale>0.4</scale>
		</LabelStyle>
		<LineStyle>
			<color>ff0000ff</color>
			<width>3</width>
		</LineStyle>
	</Style>
	<Style id="sh_firedept9">
		<IconStyle>
			<scale>1.18182</scale>
			<Icon>
				<href>http://maps.google.com/mapfiles/kml/shapes/firedept.png</href>
			</Icon>
			<hotSpot x="0.5" y="0" xunits="fraction" yunits="fraction"/>
		</IconStyle>
		<LabelStyle>
			<color>b3ffffff</color>
			<scale>0.4</scale>
		</LabelStyle>
		<LineStyle>
			<color>ff0000ff</color>
			<width>2.5</width>
		</LineStyle>
	</Style>
	<Style id="sh_shaded_dot">
		<IconStyle>
			<color>f2ffff00</color>
			<scale>0.709093</scale>
			<Icon>
				<href>http://maps.google.com/mapfiles/kml/shapes/shaded_dot.png</href>
			</Icon>
		</IconStyle>
		<LabelStyle>
			<color>b3ffffff</color>
			<scale>0.4</scale>
		</LabelStyle>
		<LineStyle>
			<color>ffffb205</color>
			<width>1.2</width>
		</LineStyle>
	</Style>
	<Style id="sh_shaded_dot0">
		<IconStyle>
			<color>f2ffff00</color>
			<scale>0.709093</scale>
			<Icon>
				<href>http://maps.google.com/mapfiles/kml/shapes/shaded_dot.png</href>
			</Icon>
		</IconStyle>
		<LabelStyle>
			<color>b3ffffff</color>
			<scale>0.4</scale>
		</LabelStyle>
		<LineStyle>
			<color>ffffb205</color>
			<width>1.2</width>
		</LineStyle>
	</Style>
	<Style id="sh_shaded_dot00">
		<IconStyle>
			<color>f2ffff00</color>
			<scale>0.709093</scale>
			<Icon>
				<href>http://maps.google.com/mapfiles/kml/shapes/shaded_dot.png</href>
			</Icon>
		</IconStyle>
		<LabelStyle>
			<color>b3ffffff</color>
			<scale>0.4</scale>
		</LabelStyle>
		<LineStyle>
			<color>ffffb205</color>
			<width>1.2</width>
		</LineStyle>
	</Style>
	<Style id="sh_shaded_dot01">
		<IconStyle>
			<color>f2ffff00</color>
			<scale>0.709093</scale>
			<Icon>
				<href>http://maps.google.com/mapfiles/kml/shapes/shaded_dot.png</href>
			</Icon>
		</IconStyle>
		<LabelStyle>
			<color>b3ffffff</color>
			<scale>0.4</scale>
		</LabelStyle>
		<LineStyle>
			<color>ffffb205</color>
			<width>1.2</width>
		</LineStyle>
	</Style>
	<Style id="sh_shaded_dot1">
		<IconStyle>
			<color>f2ffff00</color>
			<scale>0.709093</scale>
			<Icon>
				<href>http://maps.google.com/mapfiles/kml/shapes/shaded_dot.png</href>
			</Icon>
		</IconStyle>
		<LabelStyle>
			<color>b3ffffff</color>
			<scale>0.4</scale>
		</LabelStyle>
		<LineStyle>
			<color>ffffb205</color>
			<width>1.2</width>
		</LineStyle>
	</Style>
	<Style id="sh_shaded_dot1000">
		<IconStyle>
			<color>f2ffff00</color>
			<scale>0.709093</scale>
			<Icon>
				<href>http://maps.google.com/mapfiles/kml/shapes/shaded_dot.png</href>
			</Icon>
		</IconStyle>
		<LabelStyle>
			<color>b3ffffff</color>
			<scale>0.4</scale>
		</LabelStyle>
		<LineStyle>
			<color>ffffb205</color>
			<width>1.2</width>
		</LineStyle>
	</Style>
	<Style id="sh_shaded_dot120">
		<IconStyle>
			<color>f2ffff00</color>
			<scale>0.709093</scale>
			<Icon>
				<href>http://maps.google.com/mapfiles/kml/shapes/shaded_dot.png</href>
			</Icon>
		</IconStyle>
		<LabelStyle>
			<color>b3ffffff</color>
			<scale>0.4</scale>
		</LabelStyle>
		<LineStyle>
			<color>ffffb205</color>
			<width>1.2</width>
		</LineStyle>
	</Style>
	<Style id="sh_shaded_dot16">
		<IconStyle>
			<color>f2ffff00</color>
			<scale>0.709093</scale>
			<Icon>
				<href>http://maps.google.com/mapfiles/kml/shapes/shaded_dot.png</href>
			</Icon>
		</IconStyle>
		<LabelStyle>
			<color>b3ffffff</color>
			<scale>0.4</scale>
		</LabelStyle>
		<LineStyle>
			<color>ffffb205</color>
			<width>1.2</width>
		</LineStyle>
	</Style>
	<Style id="sh_shaded_dot4">
		<IconStyle>
			<color>f2ffff00</color>
			<scale>0.709093</scale>
			<Icon>
				<href>http://maps.google.com/mapfiles/kml/shapes/shaded_dot.png</href>
			</Icon>
		</IconStyle>
		<LabelStyle>
			<color>b3ffffff</color>
			<scale>0.4</scale>
		</LabelStyle>
		<LineStyle>
			<color>ffffb205</color>
			<width>1.2</width>
		</LineStyle>
	</Style>
	<Style id="sh_shaded_dot6">
		<IconStyle>
			<color>f2ffff00</color>
			<scale>0.709093</scale>
			<Icon>
				<href>http://maps.google.com/mapfiles/kml/shapes/shaded_dot.png</href>
			</Icon>
		</IconStyle>
		<LabelStyle>
			<color>b3ffffff</color>
			<scale>0.4</scale>
		</LabelStyle>
		<LineStyle>
			<color>ffffb205</color>
			<width>1.2</width>
		</LineStyle>
	</Style>
	<Style id="sh_shaded_dot7">
		<IconStyle>
			<color>f2ffff00</color>
			<scale>0.709093</scale>
			<Icon>
				<href>http://maps.google.com/mapfiles/kml/shapes/shaded_dot.png</href>
			</Icon>
		</IconStyle>
		<LabelStyle>
			<color>b3ffffff</color>
			<scale>0.4</scale>
		</LabelStyle>
		<LineStyle>
			<color>ffffb205</color>
			<width>1.2</width>
		</LineStyle>
	</Style>
	<Style id="sn_campfire">
		<IconStyle>
			<color>ff00e500</color>
			<scale>0.7</scale>
			<Icon>
				<href>http://maps.google.com/mapfiles/kml/shapes/campfire.png</href>
			</Icon>
			<hotSpot x="0.5" y="0" xunits="fraction" yunits="fraction"/>
		</IconStyle>
		<LabelStyle>
			<color>b3ffffff</color>
			<scale>0.4</scale>
		</LabelStyle>
		<LineStyle>
			<color>ff00e500</color>
			<width>3</width>
		</LineStyle>
	</Style>
	<Style id="sn_campfire0">
		<IconStyle>
			<color>ff00e500</color>
			<scale>0.7</scale>
			<Icon>
				<href>http://maps.google.com/mapfiles/kml/shapes/campfire.png</href>
			</Icon>
			<hotSpot x="0.5" y="0" xunits="fraction" yunits="fraction"/>
		</IconStyle>
		<LabelStyle>
			<color>b3ffffff</color>
			<scale>0.4</scale>
		</LabelStyle>
		<LineStyle>
			<color>ff00e500</color>
			<width>3</width>
		</LineStyle>
	</Style>
	<Style id="sn_campfire1">
		<IconStyle>
			<color>ff00e500</color>
			<scale>0.7</scale>
			<Icon>
				<href>http://maps.google.com/mapfiles/kml/shapes/campfire.png</href>
			</Icon>
			<hotSpot x="0.5" y="0" xunits="fraction" yunits="fraction"/>
		</IconStyle>
		<LabelStyle>
			<color>b3ffffff</color>
			<scale>0.4</scale>
		</LabelStyle>
		<LineStyle>
			<color>ff00e500</color>
			<width>3</width>
		</LineStyle>
	</Style>
	<Style id="sn_campfire2">
		<IconStyle>
			<color>ff00e500</color>
			<scale>0.7</scale>
			<Icon>
				<href>http://maps.google.com/mapfiles/kml/shapes/campfire.png</href>
			</Icon>
			<hotSpot x="0.5" y="0" xunits="fraction" yunits="fraction"/>
		</IconStyle>
		<LabelStyle>
			<color>b3ffffff</color>
			<scale>0.4</scale>
		</LabelStyle>
		<LineStyle>
			<color>ff00e500</color>
			<width>3</width>
		</LineStyle>
	</Style>
	<Style id="sn_campfire3">
		<IconStyle>
			<color>ff00e500</color>
			<scale>0.7</scale>
			<Icon>
				<href>http://maps.google.com/mapfiles/kml/shapes/campfire.png</href>
			</Icon>
			<hotSpot x="0.5" y="0" xunits="fraction" yunits="fraction"/>
		</IconStyle>
		<LabelStyle>
			<color>b3ffffff</color>
			<scale>0.4</scale>
		</LabelStyle>
		<LineStyle>
			<color>ff00e500</color>
			<width>3</width>
		</LineStyle>
	</Style>
	<Style id="sn_campfire4">
		<IconStyle>
			<color>ff00e500</color>
			<scale>0.7</scale>
			<Icon>
				<href>http://maps.google.com/mapfiles/kml/shapes/campfire.png</href>
			</Icon>
			<hotSpot x="0.5" y="0" xunits="fraction" yunits="fraction"/>
		</IconStyle>
		<LabelStyle>
			<color>b3ffffff</color>
			<scale>0.4</scale>
		</LabelStyle>
		<LineStyle>
			<color>ff00e500</color>
			<width>3</width>
		</LineStyle>
	</Style>
	<Style id="sn_campfire5">
		<IconStyle>
			<color>ff00e500</color>
			<scale>0.7</scale>
			<Icon>
				<href>http://maps.google.com/mapfiles/kml/shapes/campfire.png</href>
			</Icon>
			<hotSpot x="0.5" y="0" xunits="fraction" yunits="fraction"/>
		</IconStyle>
		<LabelStyle>
			<color>b3ffffff</color>
			<scale>0.4</scale>
		</LabelStyle>
		<LineStyle>
			<color>ff00e500</color>
			<width>3</width>
		</LineStyle>
	</Style>
	<Style id="sn_campfire6">
		<IconStyle>
			<color>ff00e500</color>
			<scale>0.7</scale>
			<Icon>
				<href>http://maps.google.com/mapfiles/kml/shapes/campfire.png</href>
			</Icon>
			<hotSpot x="0.5" y="0" xunits="fraction" yunits="fraction"/>
		</IconStyle>
		<LabelStyle>
			<color>b3ffffff</color>
			<scale>0.4</scale>
		</LabelStyle>
		<LineStyle>
			<color>ff00e500</color>
			<width>3</width>
		</LineStyle>
	</Style>
	<Style id="sn_campfire7">
		<IconStyle>
			<color>ff00e500</color>
			<scale>0.7</scale>
			<Icon>
				<href>http://maps.google.com/mapfiles/kml/shapes/campfire.png</href>
			</Icon>
			<hotSpot x="0.5" y="0" xunits="fraction" yunits="fraction"/>
		</IconStyle>
		<LabelStyle>
			<color>b3ffffff</color>
			<scale>0.4</scale>
		</LabelStyle>
		<LineStyle>
			<color>ff00e500</color>
			<width>3</width>
		</LineStyle>
	</Style>
	<Style id="sn_firedept0">
		<IconStyle>
			<Icon>
				<href>http://maps.google.com/mapfiles/kml/shapes/firedept.png</href>
			</Icon>
			<hotSpot x="0.5" y="0" xunits="fraction" yunits="fraction"/>
		</IconStyle>
		<LabelStyle>
			<color>b3ffffff</color>
			<scale>0.4</scale>
		</LabelStyle>
		<LineStyle>
			<color>ff0000ff</color>
			<width>2.5</width>
		</LineStyle>
	</Style>
	<Style id="sn_firedept00">
		<IconStyle>
			<color>ff00ffff</color>
			<scale>0.8</scale>
			<Icon>
				<href>http://maps.google.com/mapfiles/kml/shapes/firedept.png</href>
			</Icon>
			<hotSpot x="0.5" y="0" xunits="fraction" yunits="fraction"/>
		</IconStyle>
		<LabelStyle>
			<color>b3ffffff</color>
			<scale>0.4</scale>
		</LabelStyle>
		<LineStyle>
			<color>ff0000ff</color>
			<width>3</width>
		</LineStyle>
	</Style>
	<Style id="sn_firedept000">
		<IconStyle>
			<color>ff00ffff</color>
			<scale>0.8</scale>
			<Icon>
				<href>http://maps.google.com/mapfiles/kml/shapes/firedept.png</href>
			</Icon>
			<hotSpot x="0.5" y="0" xunits="fraction" yunits="fraction"/>
		</IconStyle>
		<LabelStyle>
			<color>b3ffffff</color>
			<scale>0.4</scale>
		</LabelStyle>
		<LineStyle>
			<color>ff0000ff</color>
			<width>3</width>
		</LineStyle>
	</Style>
	<Style id="sn_firedept1">
		<IconStyle>
			<Icon>
				<href>http://maps.google.com/mapfiles/kml/shapes/firedept.png</href>
			</Icon>
			<hotSpot x="0.5" y="0" xunits="fraction" yunits="fraction"/>
		</IconStyle>
		<LabelStyle>
			<color>b3ffffff</color>
			<scale>0.4</scale>
		</LabelStyle>
		<LineStyle>
			<color>ff0000ff</color>
			<width>2.5</width>
		</LineStyle>
	</Style>
	<Style id="sn_firedept2">
		<IconStyle>
			<color>ff00ffff</color>
			<scale>0.8</scale>
			<Icon>
				<href>http://maps.google.com/mapfiles/kml/shapes/firedept.png</href>
			</Icon>
			<hotSpot x="0.5" y="0" xunits="fraction" yunits="fraction"/>
		</IconStyle>
		<LabelStyle>
			<color>b3ffffff</color>
			<scale>0.4</scale>
		</LabelStyle>
		<LineStyle>
			<color>ff0000ff</color>
			<width>3</width>
		</LineStyle>
	</Style>
	<Style id="sn_firedept3">
		<IconStyle>
			<color>ff00ffff</color>
			<scale>0.8</scale>
			<Icon>
				<href>http://maps.google.com/mapfiles/kml/shapes/firedept.png</href>
			</Icon>
			<hotSpot x="0.5" y="0" xunits="fraction" yunits="fraction"/>
		</IconStyle>
		<LabelStyle>
			<color>b3ffffff</color>
			<scale>0.4</scale>
		</LabelStyle>
		<LineStyle>
			<color>ff0000ff</color>
			<width>3</width>
		</LineStyle>
	</Style>
	<Style id="sn_firedept4">
		<IconStyle>
			<color>ff00ffff</color>
			<scale>0.8</scale>
			<Icon>
				<href>http://maps.google.com/mapfiles/kml/shapes/firedept.png</href>
			</Icon>
			<hotSpot x="0.5" y="0" xunits="fraction" yunits="fraction"/>
		</IconStyle>
		<LabelStyle>
			<color>b3ffffff</color>
			<scale>0.4</scale>
		</LabelStyle>
		<LineStyle>
			<color>ff0000ff</color>
			<width>3</width>
		</LineStyle>
	</Style>
	<Style id="sn_firedept5">
		<IconStyle>
			<Icon>
				<href>http://maps.google.com/mapfiles/kml/shapes/firedept.png</href>
			</Icon>
			<hotSpot x="0.5" y="0" xunits="fraction" yunits="fraction"/>
		</IconStyle>
		<LabelStyle>
			<color>b3ffffff</color>
			<scale>0.4</scale>
		</LabelStyle>
		<LineStyle>
			<color>ff0000ff</color>
			<width>2.5</width>
		</LineStyle>
	</Style>
	<Style id="sn_firedept6">
		<IconStyle>
			<color>ff00ffff</color>
			<scale>0.8</scale>
			<Icon>
				<href>http://maps.google.com/mapfiles/kml/shapes/firedept.png</href>
			</Icon>
			<hotSpot x="0.5" y="0" xunits="fraction" yunits="fraction"/>
		</IconStyle>
		<LabelStyle>
			<color>b3ffffff</color>
			<scale>0.4</scale>
		</LabelStyle>
		<LineStyle>
			<color>ff0000ff</color>
			<width>3</width>
		</LineStyle>
	</Style>
	<Style id="sn_firedept7">
		<IconStyle>
			<Icon>
				<href>http://maps.google.com/mapfiles/kml/shapes/firedept.png</href>
			</Icon>
			<hotSpot x="0.5" y="0" xunits="fraction" yunits="fraction"/>
		</IconStyle>
		<LabelStyle>
			<color>b3ffffff</color>
			<scale>0.4</scale>
		</LabelStyle>
		<LineStyle>
			<color>ff0000ff</color>
			<width>2.5</width>
		</LineStyle>
	</Style>
	<Style id="sn_firedept8">
		<IconStyle>
			<color>ff00ffff</color>
			<scale>0.8</scale>
			<Icon>
				<href>http://maps.google.com/mapfiles/kml/shapes/firedept.png</href>
			</Icon>
			<hotSpot x="0.5" y="0" xunits="fraction" yunits="fraction"/>
		</IconStyle>
		<LabelStyle>
			<color>b3ffffff</color>
			<scale>0.4</scale>
		</LabelStyle>
		<LineStyle>
			<color>ff0000ff</color>
			<width>3</width>
		</LineStyle>
	</Style>
	<Style id="sn_firedept9">
		<IconStyle>
			<color>ff00ffff</color>
			<scale>0.8</scale>
			<Icon>
				<href>http://maps.google.com/mapfiles/kml/shapes/firedept.png</href>
			</Icon>
			<hotSpot x="0.5" y="0" xunits="fraction" yunits="fraction"/>
		</IconStyle>
		<LabelStyle>
			<color>b3ffffff</color>
			<scale>0.4</scale>
		</LabelStyle>
		<LineStyle>
			<color>ff0000ff</color>
			<width>3</width>
		</LineStyle>
	</Style>
	<Style id="sn_shaded_dot">
		<IconStyle>
			<color>f2ffff00</color>
			<scale>0.6</scale>
			<Icon>
				<href>http://maps.google.com/mapfiles/kml/shapes/shaded_dot.png</href>
			</Icon>
		</IconStyle>
		<LabelStyle>
			<color>b3ffffff</color>
			<scale>0.4</scale>
		</LabelStyle>
		<LineStyle>
			<color>ffffb205</color>
			<width>1.2</width>
		</LineStyle>
	</Style>
	<Style id="sn_shaded_dot0200">
		<IconStyle>
			<color>f2ffff00</color>
			<scale>0.6</scale>
			<Icon>
				<href>http://maps.google.com/mapfiles/kml/shapes/shaded_dot.png</href>
			</Icon>
		</IconStyle>
		<LabelStyle>
			<color>b3ffffff</color>
			<scale>0.4</scale>
		</LabelStyle>
		<LineStyle>
			<color>ffffb205</color>
			<width>1.2</width>
		</LineStyle>
	</Style>
	<Style id="sn_shaded_dot1">
		<IconStyle>
			<color>f2ffff00</color>
			<scale>0.6</scale>
			<Icon>
				<href>http://maps.google.com/mapfiles/kml/shapes/shaded_dot.png</href>
			</Icon>
		</IconStyle>
		<LabelStyle>
			<color>b3ffffff</color>
			<scale>0.4</scale>
		</LabelStyle>
		<LineStyle>
			<color>ffffb205</color>
			<width>1.2</width>
		</LineStyle>
	</Style>
	<Style id="sn_shaded_dot12">
		<IconStyle>
			<color>f2ffff00</color>
			<scale>0.6</scale>
			<Icon>
				<href>http://maps.google.com/mapfiles/kml/shapes/shaded_dot.png</href>
			</Icon>
		</IconStyle>
		<LabelStyle>
			<color>b3ffffff</color>
			<scale>0.4</scale>
		</LabelStyle>
		<LineStyle>
			<color>ffffb205</color>
			<width>1.2</width>
		</LineStyle>
	</Style>
	<Style id="sn_shaded_dot13">
		<IconStyle>
			<color>f2ffff00</color>
			<scale>0.6</scale>
			<Icon>
				<href>http://maps.google.com/mapfiles/kml/shapes/shaded_dot.png</href>
			</Icon>
		</IconStyle>
		<LabelStyle>
			<color>b3ffffff</color>
			<scale>0.4</scale>
		</LabelStyle>
		<LineStyle>
			<color>ffffb205</color>
			<width>1.2</width>
		</LineStyle>
	</Style>
	<Style id="sn_shaded_dot20">
		<IconStyle>
			<color>f2ffff00</color>
			<scale>0.6</scale>
			<Icon>
				<href>http://maps.google.com/mapfiles/kml/shapes/shaded_dot.png</href>
			</Icon>
		</IconStyle>
		<LabelStyle>
			<color>b3ffffff</color>
			<scale>0.4</scale>
		</LabelStyle>
		<LineStyle>
			<color>ffffb205</color>
			<width>1.2</width>
		</LineStyle>
	</Style>
	<Style id="sn_shaded_dot240">
		<IconStyle>
			<color>f2ffff00</color>
			<scale>0.6</scale>
			<Icon>
				<href>http://maps.google.com/mapfiles/kml/shapes/shaded_dot.png</href>
			</Icon>
		</IconStyle>
		<LabelStyle>
			<color>b3ffffff</color>
			<scale>0.4</scale>
		</LabelStyle>
		<LineStyle>
			<color>ffffb205</color>
			<width>1.2</width>
		</LineStyle>
	</Style>
	<Style id="sn_shaded_dot25">
		<IconStyle>
			<color>f2ffff00</color>
			<scale>0.6</scale>
			<Icon>
				<href>http://maps.google.com/mapfiles/kml/shapes/shaded_dot.png</href>
			</Icon>
		</IconStyle>
		<LabelStyle>
			<color>b3ffffff</color>
			<scale>0.4</scale>
		</LabelStyle>
		<LineStyle>
			<color>ffffb205</color>
			<width>1.2</width>
		</LineStyle>
	</Style>
	<Style id="sn_shaded_dot27">
		<IconStyle>
			<color>f2ffff00</color>
			<scale>0.6</scale>
			<Icon>
				<href>http://maps.google.com/mapfiles/kml/shapes/shaded_dot.png</href>
			</Icon>
		</IconStyle>
		<LabelStyle>
			<color>b3ffffff</color>
			<scale>0.4</scale>
		</LabelStyle>
		<LineStyle>
			<color>ffffb205</color>
			<width>1.2</width>
		</LineStyle>
	</Style>
	<Style id="sn_shaded_dot4">
		<IconStyle>
			<color>f2ffff00</color>
			<scale>0.6</scale>
			<Icon>
				<href>http://maps.google.com/mapfiles/kml/shapes/shaded_dot.png</href>
			</Icon>
		</IconStyle>
		<LabelStyle>
			<color>b3ffffff</color>
			<scale>0.4</scale>
		</LabelStyle>
		<LineStyle>
			<color>ffffb205</color>
			<width>1.2</width>
		</LineStyle>
	</Style>
	<Style id="sn_shaded_dot8">
		<IconStyle>
			<color>f2ffff00</color>
			<scale>0.6</scale>
			<Icon>
				<href>http://maps.google.com/mapfiles/kml/shapes/shaded_dot.png</href>
			</Icon>
		</IconStyle>
		<LabelStyle>
			<color>b3ffffff</color>
			<scale>0.4</scale>
		</LabelStyle>
		<LineStyle>
			<color>ffffb205</color>
			<width>1.2</width>
		</LineStyle>
	</Style>
	<Folder>
		<name>RidgePnts</name>
		<visibility>0</visibility>
		<description>All points in the Ridge group have:
Jiggle factor: 0 (free to jiggle)
Altitude jiggle: True</description>
		<Folder>
			<name>HillPnts</name>
			<visibility>0</visibility>
			<Placemark>
				<name>H11</name>
				<visibility>0</visibility>
				<Camera>
					<longitude>-77.00443838855342</longitude>
					<latitude>38.91469988398221</latitude>
					<altitude>123.8564216886435</altitude>
					<heading>13.94856800079511</heading>
					<tilt>0.02636046685251909</tilt>
					<roll>132.9336482843617</roll>
					<gx:altitudeMode>relativeToSeaFloor</gx:altitudeMode>
				</Camera>
				<styleUrl>#msn_shaded_dot170</styleUrl>
				<Point>
					<extrude>1</extrude>
					<altitudeMode>relativeToGround</altitudeMode>
					<gx:drawOrder>1</gx:drawOrder>
					<coordinates>-77.00464832626309,38.9146495509119,66</coordinates>
				</Point>
			</Placemark>
			<Placemark>
				<name>H22</name>
				<visibility>0</visibility>
				<Camera>
					<longitude>-77.06002158725704</longitude>
					<latitude>38.92836988001681</latitude>
					<altitude>60.57604973535838</altitude>
					<heading>-114.2439514287543</heading>
					<tilt>2.382640894714281</tilt>
					<roll>-93.7002860962241</roll>
					<gx:altitudeMode>relativeToSeaFloor</gx:altitudeMode>
				</Camera>
				<styleUrl>#msn_shaded_dot170</styleUrl>
				<Point>
					<extrude>1</extrude>
					<altitudeMode>relativeToGround</altitudeMode>
					<gx:drawOrder>1</gx:drawOrder>
					<coordinates>-77.06004232078331,38.92823446130691,66</coordinates>
				</Point>
			</Placemark>
			<Placemark>
				<name>H33</name>
				<visibility>0</visibility>
				<LookAt>
					<longitude>-77.11303539008838</longitude>
					<latitude>38.92065428536915</latitude>
					<altitude>0</altitude>
					<heading>-115.3601333630921</heading>
					<tilt>42.75973504314011</tilt>
					<range>111.06781327734</range>
					<gx:altitudeMode>relativeToSeaFloor</gx:altitudeMode>
				</LookAt>
				<styleUrl>#msn_shaded_dot01</styleUrl>
				<Point>
					<extrude>1</extrude>
					<altitudeMode>relativeToGround</altitudeMode>
					<gx:drawOrder>1</gx:drawOrder>
					<coordinates>-77.11324805943606,38.92053966660955,66</coordinates>
				</Point>
			</Placemark>
			<Placemark>
				<name>H44</name>
				<visibility>0</visibility>
				<LookAt>
					<longitude>-77.11163528397542</longitude>
					<latitude>38.90261493395718</latitude>
					<altitude>0</altitude>
					<heading>-64.40520102686101</heading>
					<tilt>9.734116671518553</tilt>
					<range>730.1470728372173</range>
					<gx:altitudeMode>relativeToSeaFloor</gx:altitudeMode>
				</LookAt>
				<styleUrl>#msn_shaded_dot4</styleUrl>
				<Point>
					<extrude>1</extrude>
					<altitudeMode>relativeToGround</altitudeMode>
					<gx:drawOrder>1</gx:drawOrder>
					<coordinates>-77.11259304457337,38.90361498656535,66</coordinates>
				</Point>
			</Placemark>
			<Placemark>
				<name>H66</name>
				<visibility>0</visibility>
				<LookAt>
					<longitude>-77.10101368579197</longitude>
					<latitude>38.90516878875509</latitude>
					<altitude>0</altitude>
					<heading>-126.351515072801</heading>
					<tilt>30.46196418763722</tilt>
					<range>810.2730251905255</range>
					<gx:altitudeMode>relativeToSeaFloor</gx:altitudeMode>
				</LookAt>
				<styleUrl>#msn_shaded_dot170</styleUrl>
				<Point>
					<extrude>1</extrude>
					<altitudeMode>relativeToGround</altitudeMode>
					<gx:drawOrder>1</gx:drawOrder>
					<coordinates>-77.10094955658019,38.90533124793031,66</coordinates>
				</Point>
			</Placemark>
			<Placemark>
				<name>H77</name>
				<visibility>0</visibility>
				<LookAt>
					<longitude>-77.03776173775044</longitude>
					<latitude>38.89772181369853</latitude>
					<altitude>0</altitude>
					<heading>17.81885883866191</heading>
					<tilt>12.64523340536161</tilt>
					<range>1082.99189473325</range>
					<gx:altitudeMode>relativeToSeaFloor</gx:altitudeMode>
				</LookAt>
				<styleUrl>#msn_shaded_dot170</styleUrl>
				<Point>
					<extrude>1</extrude>
					<altitudeMode>relativeToGround</altitudeMode>
					<gx:drawOrder>1</gx:drawOrder>
					<coordinates>-77.03762786655247,38.89703882730361,66</coordinates>
				</Point>
			</Placemark>
			<Placemark>
				<name>H88</name>
				<visibility>0</visibility>
				<LookAt>
					<longitude>-77.00536040864864</longitude>
					<latitude>38.84961112265357</latitude>
					<altitude>0</altitude>
					<heading>75.95914105760626</heading>
					<tilt>52.46432866086699</tilt>
					<range>296.8313510262874</range>
					<gx:altitudeMode>relativeToSeaFloor</gx:altitudeMode>
				</LookAt>
				<styleUrl>#msn_shaded_dot50</styleUrl>
				<Point>
					<extrude>1</extrude>
					<altitudeMode>relativeToGround</altitudeMode>
					<gx:drawOrder>1</gx:drawOrder>
					<coordinates>-77.00492179089107,38.84950002068123,66</coordinates>
				</Point>
			</Placemark>
			<Placemark>
				<name>H99</name>
				<visibility>0</visibility>
				<Camera>
					<longitude>-77.00132655753045</longitude>
					<latitude>38.88900516216471</latitude>
					<altitude>219.4864445602935</altitude>
					<heading>93.39772698551931</heading>
					<tilt>17.06905478008283</tilt>
					<roll>1.337059732558499</roll>
					<gx:altitudeMode>relativeToSeaFloor</gx:altitudeMode>
				</Camera>
				<styleUrl>#msn_shaded_dot</styleUrl>
				<Point>
					<gx:drawOrder>1</gx:drawOrder>
					<coordinates>-77.00096480083693,38.8889443857454,0</coordinates>
				</Point>
			</Placemark>
			<Placemark>
				<name>H67</name>
				<visibility>0</visibility>
				<Camera>
					<longitude>-77.08922930421467</longitude>
					<latitude>38.91550877252504</latitude>
					<altitude>414.5532778303631</altitude>
					<heading>-27.41606729688327</heading>
					<tilt>0.1845676707331085</tilt>
					<roll>89.51782983133583</roll>
					<gx:altitudeMode>relativeToSeaFloor</gx:altitudeMode>
				</Camera>
				<styleUrl>#msn_shaded_dot170</styleUrl>
				<Point>
					<extrude>1</extrude>
					<altitudeMode>relativeToGround</altitudeMode>
					<gx:drawOrder>1</gx:drawOrder>
					<coordinates>-77.08923640277803,38.91551942120227,66</coordinates>
				</Point>
			</Placemark>
			<Placemark>
				<name>H69</name>
				<visibility>0</visibility>
				<LookAt>
					<longitude>-77.0722267041271</longitude>
					<latitude>38.87685920939965</latitude>
					<altitude>0</altitude>
					<heading>-103.6846164297869</heading>
					<tilt>73.8474604213405</tilt>
					<range>459.1379958081993</range>
					<gx:altitudeMode>relativeToSeaFloor</gx:altitudeMode>
				</LookAt>
				<styleUrl>#msn_shaded_dot170</styleUrl>
				<Point>
					<extrude>1</extrude>
					<altitudeMode>relativeToGround</altitudeMode>
					<gx:drawOrder>1</gx:drawOrder>
					<coordinates>-77.07234178427055,38.87633745296441,66</coordinates>
				</Point>
			</Placemark>
			<Placemark>
				<name>H70</name>
				<visibility>0</visibility>
				<LookAt>
					<longitude>-77.0715408469804</longitude>
					<latitude>38.87440682362214</latitude>
					<altitude>0</altitude>
					<heading>-103.6841859425101</heading>
					<tilt>73.84841746927709</tilt>
					<range>570.056810115854</range>
					<gx:altitudeMode>relativeToSeaFloor</gx:altitudeMode>
				</LookAt>
				<styleUrl>#msn_shaded_dot170</styleUrl>
				<Point>
					<extrude>1</extrude>
					<altitudeMode>relativeToGround</altitudeMode>
					<gx:drawOrder>1</gx:drawOrder>
					<coordinates>-77.07038741369139,38.8737311478417,66</coordinates>
				</Point>
			</Placemark>
			<Placemark>
				<name>H70a</name>
				<visibility>0</visibility>
				<LookAt>
					<longitude>-77.06760781756806</longitude>
					<latitude>38.87134974999706</latitude>
					<altitude>0</altitude>
					<heading>51.78858805656709</heading>
					<tilt>0</tilt>
					<range>407.6548018771097</range>
					<gx:altitudeMode>relativeToSeaFloor</gx:altitudeMode>
				</LookAt>
				<styleUrl>#msn_shaded_dot29</styleUrl>
				<Point>
					<extrude>1</extrude>
					<altitudeMode>relativeToGround</altitudeMode>
					<gx:drawOrder>1</gx:drawOrder>
					<coordinates>-77.06775220195667,38.87147694689254,66</coordinates>
				</Point>
			</Placemark>
			<Placemark>
				<name>H70b</name>
				<visibility>0</visibility>
				<LookAt>
					<longitude>-76.97879868284055</longitude>
					<latitude>38.91011916480099</latitude>
					<altitude>0</altitude>
					<heading>-61.32961350653542</heading>
					<tilt>4.667829629910329</tilt>
					<range>115.7351797845899</range>
					<gx:altitudeMode>relativeToSeaFloor</gx:altitudeMode>
				</LookAt>
				<styleUrl>#msn_shaded_dot29</styleUrl>
				<Point>
					<gx:drawOrder>1</gx:drawOrder>
					<coordinates>-76.97878782846644,38.91008217241069,0</coordinates>
				</Point>
			</Placemark>
			<Placemark>
				<name>H81</name>
				<visibility>0</visibility>
				<LookAt>
					<longitude>-76.93117767937731</longitude>
					<latitude>38.88611940091499</latitude>
					<altitude>0</altitude>
					<heading>104.6507586987116</heading>
					<tilt>78.1528637219108</tilt>
					<range>548.8141150141993</range>
					<gx:altitudeMode>relativeToSeaFloor</gx:altitudeMode>
				</LookAt>
				<styleUrl>#msn_shaded_dot170</styleUrl>
				<Point>
					<extrude>1</extrude>
					<altitudeMode>relativeToGround</altitudeMode>
					<gx:drawOrder>1</gx:drawOrder>
					<coordinates>-76.9299762903957,38.88687029383775,66</coordinates>
				</Point>
			</Placemark>
			<Placemark>
				<name>H86</name>
				<visibility>0</visibility>
				<LookAt>
					<longitude>-76.99537065299157</longitude>
					<latitude>38.81048044830791</latitude>
					<altitude>0</altitude>
					<heading>-39.67281022252553</heading>
					<tilt>41.49695704104667</tilt>
					<range>415.3176081074374</range>
					<gx:altitudeMode>relativeToSeaFloor</gx:altitudeMode>
				</LookAt>
				<styleUrl>#msn_shaded_dot170</styleUrl>
				<Point>
					<extrude>1</extrude>
					<altitudeMode>relativeToGround</altitudeMode>
					<gx:drawOrder>1</gx:drawOrder>
					<coordinates>-76.99664817839795,38.810462075372,66</coordinates>
				</Point>
			</Placemark>
			<Placemark>
				<name>H98</name>
				<visibility>0</visibility>
				<LookAt>
					<longitude>-77.03895402833915</longitude>
					<latitude>38.94510346047178</latitude>
					<altitude>0</altitude>
					<heading>167.0671588506509</heading>
					<tilt>0</tilt>
					<range>357.0917016045441</range>
					<gx:altitudeMode>relativeToSeaFloor</gx:altitudeMode>
				</LookAt>
				<styleUrl>#msn_shaded_dot29</styleUrl>
				<Point>
					<gx:drawOrder>1</gx:drawOrder>
					<coordinates>-77.0388345966892,38.9450714821746,0</coordinates>
				</Point>
			</Placemark>
			<Placemark>
				<name>H12</name>
				<visibility>0</visibility>
				<LookAt>
					<longitude>-76.94901527183805</longitude>
					<latitude>38.91974253235791</latitude>
					<altitude>0</altitude>
					<heading>-120.3042069286735</heading>
					<tilt>23.6577431060805</tilt>
					<range>197.9874286716565</range>
					<gx:altitudeMode>relativeToSeaFloor</gx:altitudeMode>
				</LookAt>
				<styleUrl>#msn_shaded_dot170</styleUrl>
				<Point>
					<extrude>1</extrude>
					<altitudeMode>relativeToGround</altitudeMode>
					<gx:drawOrder>1</gx:drawOrder>
					<coordinates>-76.94844865915428,38.92005589287478,66</coordinates>
				</Point>
			</Placemark>
			<Placemark>
				<name>H13</name>
				<visibility>0</visibility>
				<LookAt>
					<longitude>-77.0138444551025</longitude>
					<latitude>38.94580609608838</latitude>
					<altitude>0</altitude>
					<heading>176.3836732982185</heading>
					<tilt>27.4350946508673</tilt>
					<range>173.8139136122697</range>
					<gx:altitudeMode>relativeToSeaFloor</gx:altitudeMode>
				</LookAt>
				<styleUrl>#msn_shaded_dot170</styleUrl>
				<Point>
					<extrude>1</extrude>
					<altitudeMode>relativeToGround</altitudeMode>
					<gx:drawOrder>1</gx:drawOrder>
					<coordinates>-77.01391219662139,38.94626278806017,66</coordinates>
				</Point>
			</Placemark>
			<Placemark>
				<name>H17</name>
				<visibility>0</visibility>
				<Camera>
					<longitude>-77.07264043592437</longitude>
					<latitude>38.88128186846717</latitude>
					<altitude>92.74500888233003</altitude>
					<heading>116.6689774141473</heading>
					<tilt>1.733567651347953</tilt>
					<roll>0.6740245189522618</roll>
					<gx:altitudeMode>relativeToSeaFloor</gx:altitudeMode>
				</Camera>
				<styleUrl>#msn_shaded_dot8</styleUrl>
				<Point>
					<extrude>1</extrude>
					<altitudeMode>relativeToGround</altitudeMode>
					<gx:drawOrder>1</gx:drawOrder>
					<coordinates>-77.07263105649967,38.88120136333437,66</coordinates>
				</Point>
			</Placemark>
			<Placemark>
				<name>H19</name>
				<visibility>0</visibility>
				<Camera>
					<longitude>-77.07783443540235</longitude>
					<latitude>38.91542369389239</latitude>
					<altitude>371.2988777407521</altitude>
					<heading>-132.7053762303146</heading>
					<tilt>2.380413986255782</tilt>
					<roll>-86.94585192756915</roll>
					<gx:altitudeMode>relativeToSeaFloor</gx:altitudeMode>
				</Camera>
				<styleUrl>#msn_shaded_dot170</styleUrl>
				<Point>
					<extrude>1</extrude>
					<altitudeMode>relativeToGround</altitudeMode>
					<gx:drawOrder>1</gx:drawOrder>
					<coordinates>-77.07888357211404,38.91560586754403,66</coordinates>
				</Point>
			</Placemark>
			<Placemark>
				<name>H20</name>
				<visibility>0</visibility>
				<Camera>
					<longitude>-77.07785118538045</longitude>
					<latitude>38.92276840510066</latitude>
					<altitude>225.4151342568034</altitude>
					<heading>-44.65768706167297</heading>
					<tilt>3.187133798176322</tilt>
					<roll>-48.26297365354998</roll>
					<gx:altitudeMode>relativeToSeaFloor</gx:altitudeMode>
				</Camera>
				<styleUrl>#msn_shaded_dot170</styleUrl>
				<Point>
					<extrude>1</extrude>
					<altitudeMode>relativeToGround</altitudeMode>
					<gx:drawOrder>1</gx:drawOrder>
					<coordinates>-77.07763287849671,38.9230873705844,66</coordinates>
				</Point>
			</Placemark>
			<Placemark>
				<name>H23</name>
				<visibility>0</visibility>
				<LookAt>
					<longitude>-77.08920120856462</longitude>
					<latitude>38.93857654104651</latitude>
					<altitude>0</altitude>
					<heading>-144.8503059292551</heading>
					<tilt>12.67269074914752</tilt>
					<range>952.7936957040301</range>
					<gx:altitudeMode>relativeToSeaFloor</gx:altitudeMode>
				</LookAt>
				<styleUrl>#msn_shaded_dot10</styleUrl>
				<Point>
					<extrude>1</extrude>
					<altitudeMode>relativeToGround</altitudeMode>
					<gx:drawOrder>1</gx:drawOrder>
					<coordinates>-77.08834070412745,38.93923731423045,66</coordinates>
				</Point>
			</Placemark>
			<Placemark>
				<name>H24</name>
				<visibility>0</visibility>
				<LookAt>
					<longitude>-77.07048860486185</longitude>
					<latitude>38.91778244638378</latitude>
					<altitude>0</altitude>
					<heading>-42.54736157013217</heading>
					<tilt>37.43347432730573</tilt>
					<range>200.9752431454169</range>
					<gx:altitudeMode>relativeToSeaFloor</gx:altitudeMode>
				</LookAt>
				<styleUrl>#msn_shaded_dot170</styleUrl>
				<Point>
					<extrude>1</extrude>
					<altitudeMode>relativeToGround</altitudeMode>
					<gx:drawOrder>1</gx:drawOrder>
					<coordinates>-77.0704105785321,38.91738246946505,66</coordinates>
				</Point>
			</Placemark>
			<Placemark>
				<name>H27</name>
				<visibility>0</visibility>
				<LookAt>
					<longitude>-77.17340349949269</longitude>
					<latitude>38.83108604250701</latitude>
					<altitude>0</altitude>
					<heading>138.2991277432082</heading>
					<tilt>72.82987091623038</tilt>
					<range>584.1008574216595</range>
					<gx:altitudeMode>relativeToSeaFloor</gx:altitudeMode>
				</LookAt>
				<styleUrl>#msn_shaded_dot170</styleUrl>
				<Point>
					<extrude>1</extrude>
					<altitudeMode>relativeToGround</altitudeMode>
					<gx:drawOrder>1</gx:drawOrder>
					<coordinates>-77.17620182600818,38.83334538875507,66</coordinates>
				</Point>
			</Placemark>
			<Placemark>
				<name>H28</name>
				<visibility>0</visibility>
				<LookAt>
					<longitude>-77.12841022382926</longitude>
					<latitude>38.90524629315901</latitude>
					<altitude>0</altitude>
					<heading>34.27721944584017</heading>
					<tilt>9.07722376734818</tilt>
					<range>222.8997995456734</range>
					<gx:altitudeMode>relativeToSeaFloor</gx:altitudeMode>
				</LookAt>
				<styleUrl>#msn_shaded_dot3</styleUrl>
				<Point>
					<extrude>1</extrude>
					<altitudeMode>relativeToGround</altitudeMode>
					<gx:drawOrder>1</gx:drawOrder>
					<coordinates>-77.12853595395019,38.90499081362246,66</coordinates>
				</Point>
			</Placemark>
			<Placemark>
				<name>H29</name>
				<visibility>0</visibility>
				<LookAt>
					<longitude>-77.11981024498378</longitude>
					<latitude>38.90993704714922</latitude>
					<altitude>0</altitude>
					<heading>121.1191490946634</heading>
					<tilt>75.07565877151825</tilt>
					<range>682.8397494784626</range>
					<gx:altitudeMode>relativeToSeaFloor</gx:altitudeMode>
				</LookAt>
				<styleUrl>#msn_shaded_dot170</styleUrl>
				<Point>
					<extrude>1</extrude>
					<altitudeMode>relativeToGround</altitudeMode>
					<gx:drawOrder>1</gx:drawOrder>
					<coordinates>-77.12474875900264,38.91226863882422,66</coordinates>
				</Point>
			</Placemark>
			<Placemark>
				<name>H31</name>
				<visibility>0</visibility>
				<LookAt>
					<longitude>-77.09334074885723</longitude>
					<latitude>38.93230216205691</latitude>
					<altitude>0</altitude>
					<heading>160.8354294696876</heading>
					<tilt>0</tilt>
					<range>176.3341324464111</range>
					<gx:altitudeMode>relativeToSeaFloor</gx:altitudeMode>
				</LookAt>
				<styleUrl>#msn_shaded_dot10</styleUrl>
				<Point>
					<extrude>1</extrude>
					<altitudeMode>relativeToGround</altitudeMode>
					<gx:drawOrder>1</gx:drawOrder>
					<coordinates>-77.09367738494352,38.93203756982007,66</coordinates>
				</Point>
			</Placemark>
			<Placemark>
				<name>H32</name>
				<visibility>0</visibility>
				<LookAt>
					<longitude>-77.08979428833879</longitude>
					<latitude>38.92421103162577</latitude>
					<altitude>0</altitude>
					<heading>126.6395290809902</heading>
					<tilt>12.83358899332811</tilt>
					<range>314.6420502142405</range>
					<gx:altitudeMode>relativeToSeaFloor</gx:altitudeMode>
				</LookAt>
				<styleUrl>#msn_shaded_dot170</styleUrl>
				<Point>
					<extrude>1</extrude>
					<altitudeMode>relativeToGround</altitudeMode>
					<gx:drawOrder>1</gx:drawOrder>
					<coordinates>-77.09063005508365,38.9243596243616,66</coordinates>
				</Point>
			</Placemark>
			<Placemark>
				<name>H35</name>
				<visibility>0</visibility>
				<LookAt>
					<longitude>-77.07951017096735</longitude>
					<latitude>38.91989831461733</latitude>
					<altitude>0</altitude>
					<heading>69.84510547560427</heading>
					<tilt>28.07911688001556</tilt>
					<range>325.9004216742021</range>
					<gx:altitudeMode>relativeToSeaFloor</gx:altitudeMode>
				</LookAt>
				<styleUrl>#msn_shaded_dot170</styleUrl>
				<Point>
					<extrude>1</extrude>
					<altitudeMode>relativeToGround</altitudeMode>
					<gx:drawOrder>1</gx:drawOrder>
					<coordinates>-77.07975099520537,38.92066077312896,66</coordinates>
				</Point>
			</Placemark>
			<Placemark>
				<name>H37</name>
				<visibility>0</visibility>
				<LookAt>
					<longitude>-77.11243758461468</longitude>
					<latitude>38.89646419747441</latitude>
					<altitude>0</altitude>
					<heading>-97.51737415403096</heading>
					<tilt>18.75019982594528</tilt>
					<range>113.762214148648</range>
					<gx:altitudeMode>relativeToSeaFloor</gx:altitudeMode>
				</LookAt>
				<styleUrl>#msn_shaded_dot170</styleUrl>
				<Point>
					<extrude>1</extrude>
					<altitudeMode>relativeToGround</altitudeMode>
					<gx:drawOrder>1</gx:drawOrder>
					<coordinates>-77.11248589188622,38.89634739382956,66</coordinates>
				</Point>
			</Placemark>
			<Placemark>
				<name>H38</name>
				<visibility>0</visibility>
				<LookAt>
					<longitude>-77.30487532716441</longitude>
					<latitude>38.91970451839327</latitude>
					<altitude>0</altitude>
					<heading>136.4373923210667</heading>
					<tilt>57.44373894792788</tilt>
					<range>293.1844943897252</range>
					<gx:altitudeMode>relativeToSeaFloor</gx:altitudeMode>
				</LookAt>
				<styleUrl>#msn_shaded_dot170</styleUrl>
				<Point>
					<extrude>1</extrude>
					<altitudeMode>relativeToGround</altitudeMode>
					<gx:drawOrder>1</gx:drawOrder>
					<coordinates>-77.30556025520397,38.92033648688445,66</coordinates>
				</Point>
			</Placemark>
			<Placemark>
				<name>H39</name>
				<visibility>0</visibility>
				<LookAt>
					<longitude>-77.24216870540344</longitude>
					<latitude>38.91902494314627</latitude>
					<altitude>0</altitude>
					<heading>112.4456439126973</heading>
					<tilt>23.28772914312074</tilt>
					<range>169.3985132739054</range>
					<gx:altitudeMode>relativeToSeaFloor</gx:altitudeMode>
				</LookAt>
				<styleUrl>#msn_shaded_dot170</styleUrl>
				<Point>
					<extrude>1</extrude>
					<altitudeMode>relativeToGround</altitudeMode>
					<gx:drawOrder>1</gx:drawOrder>
					<coordinates>-77.24236058241425,38.9189665077175,66</coordinates>
				</Point>
			</Placemark>
			<Placemark>
				<name>H40</name>
				<visibility>0</visibility>
				<LookAt>
					<longitude>-77.15884238905845</longitude>
					<latitude>38.90123631127758</latitude>
					<altitude>0</altitude>
					<heading>-66.41721885163483</heading>
					<tilt>13.56143217630257</tilt>
					<range>219.4442648833101</range>
					<gx:altitudeMode>relativeToSeaFloor</gx:altitudeMode>
				</LookAt>
				<styleUrl>#msn_shaded_dot170</styleUrl>
				<Point>
					<extrude>1</extrude>
					<altitudeMode>relativeToGround</altitudeMode>
					<gx:drawOrder>1</gx:drawOrder>
					<coordinates>-77.15854915633481,38.90128237275844,66</coordinates>
				</Point>
			</Placemark>
			<Placemark>
				<name>H42</name>
				<visibility>0</visibility>
				<LookAt>
					<longitude>-77.01402221381707</longitude>
					<latitude>38.82698403658401</latitude>
					<altitude>0</altitude>
					<heading>17.52558460865048</heading>
					<tilt>32.52028635966566</tilt>
					<range>462.3293360154279</range>
					<gx:altitudeMode>relativeToSeaFloor</gx:altitudeMode>
				</LookAt>
				<styleUrl>#msn_shaded_dot170</styleUrl>
				<Point>
					<extrude>1</extrude>
					<altitudeMode>relativeToGround</altitudeMode>
					<gx:drawOrder>1</gx:drawOrder>
					<coordinates>-77.01466103512618,38.82554707680318,66</coordinates>
				</Point>
			</Placemark>
			<Placemark>
				<name>H43</name>
				<visibility>0</visibility>
				<LookAt>
					<longitude>-77.14665108452705</longitude>
					<latitude>38.87385327472731</latitude>
					<altitude>0</altitude>
					<heading>-155.6404825098813</heading>
					<tilt>50.6146794051955</tilt>
					<range>339.1451797320888</range>
					<gx:altitudeMode>relativeToSeaFloor</gx:altitudeMode>
				</LookAt>
				<styleUrl>#msn_shaded_dot170</styleUrl>
				<Point>
					<extrude>1</extrude>
					<altitudeMode>relativeToGround</altitudeMode>
					<gx:drawOrder>1</gx:drawOrder>
					<coordinates>-77.146392815978,38.87451597139456,66</coordinates>
				</Point>
			</Placemark>
			<Placemark>
				<name>H47</name>
				<visibility>0</visibility>
				<LookAt>
					<longitude>-77.01003553293992</longitude>
					<latitude>38.93977523498958</latitude>
					<altitude>0</altitude>
					<heading>-7.416350103959583</heading>
					<tilt>53.43606491848958</tilt>
					<range>587.1677133672948</range>
					<gx:altitudeMode>relativeToSeaFloor</gx:altitudeMode>
				</LookAt>
				<styleUrl>#msn_shaded_dot170</styleUrl>
				<Point>
					<extrude>1</extrude>
					<altitudeMode>relativeToGround</altitudeMode>
					<gx:drawOrder>1</gx:drawOrder>
					<coordinates>-77.01018660152103,38.93841562644008,66</coordinates>
				</Point>
			</Placemark>
			<Placemark>
				<name>H50</name>
				<visibility>0</visibility>
				<LookAt>
					<longitude>-77.05315826257365</longitude>
					<latitude>38.96188173273116</latitude>
					<altitude>0</altitude>
					<heading>-121.5829377936892</heading>
					<tilt>57.34904789797071</tilt>
					<range>801.7285399491095</range>
					<gx:altitudeMode>relativeToSeaFloor</gx:altitudeMode>
				</LookAt>
				<styleUrl>#msn_shaded_dot170</styleUrl>
				<Point>
					<extrude>1</extrude>
					<altitudeMode>relativeToGround</altitudeMode>
					<gx:drawOrder>1</gx:drawOrder>
					<coordinates>-77.05095505059923,38.96327236063456,66</coordinates>
				</Point>
			</Placemark>
			<Placemark>
				<name>H51</name>
				<visibility>0</visibility>
				<LookAt>
					<longitude>-77.0496506342492</longitude>
					<latitude>38.91416305416067</latitude>
					<altitude>0</altitude>
					<heading>7.61131271410601</heading>
					<tilt>19.51722513628263</tilt>
					<range>205.496718997087</range>
					<gx:altitudeMode>relativeToSeaFloor</gx:altitudeMode>
				</LookAt>
				<styleUrl>#msn_shaded_dot170</styleUrl>
				<Point>
					<extrude>1</extrude>
					<altitudeMode>relativeToGround</altitudeMode>
					<gx:drawOrder>1</gx:drawOrder>
					<coordinates>-77.04953191350309,38.91448986470866,66</coordinates>
				</Point>
			</Placemark>
			<Placemark>
				<name>H52</name>
				<visibility>0</visibility>
				<LookAt>
					<longitude>-77.07434758853383</longitude>
					<latitude>38.92344188012275</latitude>
					<altitude>0</altitude>
					<heading>-10.34564307335064</heading>
					<tilt>0</tilt>
					<range>181.5606822878582</range>
					<gx:altitudeMode>relativeToSeaFloor</gx:altitudeMode>
				</LookAt>
				<styleUrl>#msn_shaded_dot13</styleUrl>
				<Point>
					<extrude>1</extrude>
					<altitudeMode>relativeToGround</altitudeMode>
					<gx:drawOrder>1</gx:drawOrder>
					<coordinates>-77.0746835467705,38.92312150962155,66</coordinates>
				</Point>
			</Placemark>
			<Placemark>
				<name>H56</name>
				<visibility>0</visibility>
				<LookAt>
					<longitude>-77.06101334404653</longitude>
					<latitude>38.91725085307708</latitude>
					<altitude>0</altitude>
					<heading>-33.4963841284662</heading>
					<tilt>8.509730910483515</tilt>
					<range>246.201285339104</range>
					<gx:altitudeMode>relativeToSeaFloor</gx:altitudeMode>
				</LookAt>
				<styleUrl>#msn_shaded_dot170</styleUrl>
				<Point>
					<extrude>1</extrude>
					<altitudeMode>relativeToGround</altitudeMode>
					<gx:drawOrder>1</gx:drawOrder>
					<coordinates>-77.06120140091524,38.91681538320637,66</coordinates>
				</Point>
			</Placemark>
			<Placemark>
				<name>H60</name>
				<visibility>0</visibility>
				<LookAt>
					<longitude>-76.91721517859401</longitude>
					<latitude>38.93151974977108</latitude>
					<altitude>0</altitude>
					<heading>-93.09216210246834</heading>
					<tilt>10.21329771043238</tilt>
					<range>222.6604357283222</range>
					<gx:altitudeMode>relativeToSeaFloor</gx:altitudeMode>
				</LookAt>
				<styleUrl>#msn_shaded_dot170</styleUrl>
				<Point>
					<extrude>1</extrude>
					<altitudeMode>relativeToGround</altitudeMode>
					<gx:drawOrder>1</gx:drawOrder>
					<coordinates>-76.91720945574568,38.93132296535497,66</coordinates>
				</Point>
			</Placemark>
			<Placemark>
				<name>H65</name>
				<visibility>0</visibility>
				<Camera>
					<longitude>-77.00743646351081</longitude>
					<latitude>38.9193344128334</latitude>
					<altitude>457.8366601027411</altitude>
					<heading>61.45735887962919</heading>
					<tilt>0.01069102459098561</tilt>
					<roll>-78.37394075537516</roll>
					<gx:altitudeMode>relativeToSeaFloor</gx:altitudeMode>
				</Camera>
				<styleUrl>#msn_shaded_dot12</styleUrl>
				<Point>
					<extrude>1</extrude>
					<altitudeMode>relativeToGround</altitudeMode>
					<gx:drawOrder>1</gx:drawOrder>
					<coordinates>-77.00739402065348,38.91883509061264,66</coordinates>
				</Point>
			</Placemark>
		</Folder>
		<Folder>
			<name>PeakPnts</name>
			<visibility>0</visibility>
			<Placemark>
				<name>Pk01</name>
				<visibility>0</visibility>
				<open>1</open>
				<LookAt>
					<longitude>-77.39333503948106</longitude>
					<latitude>39.26207623289473</latitude>
					<altitude>0</altitude>
					<heading>-178.3329957161163</heading>
					<tilt>39.53556677715411</tilt>
					<range>321.8197438295868</range>
					<gx:altitudeMode>relativeToSeaFloor</gx:altitudeMode>
				</LookAt>
				<styleUrl>#msn_firedept00</styleUrl>
				<Point>
					<extrude>1</extrude>
					<altitudeMode>relativeToGround</altitudeMode>
					<gx:drawOrder>1</gx:drawOrder>
					<coordinates>-77.39330127153266,39.26242301794514,111</coordinates>
				</Point>
			</Placemark>
			<Placemark>
				<name>Pk02</name>
				<visibility>0</visibility>
				<Camera>
					<longitude>-77.63086221763153</longitude>
					<latitude>39.45007822153502</latitude>
					<altitude>845.7204294598856</altitude>
					<heading>86.37283408137408</heading>
					<tilt>22.56931390035568</tilt>
					<roll>-1.534653472869422</roll>
					<gx:altitudeMode>relativeToSeaFloor</gx:altitudeMode>
				</Camera>
				<styleUrl>#msn_firedept4</styleUrl>
				<Point>
					<extrude>1</extrude>
					<altitudeMode>relativeToGround</altitudeMode>
					<gx:drawOrder>1</gx:drawOrder>
					<coordinates>-77.62761759235757,39.4488874481048,111</coordinates>
				</Point>
			</Placemark>
			<Placemark>
				<name>Pk03</name>
				<visibility>0</visibility>
				<Camera>
					<longitude>-77.69885822895013</longitude>
					<latitude>38.89970053134407</latitude>
					<altitude>224.002111011686</altitude>
					<heading>-99.82997156937819</heading>
					<tilt>3.413536196053194</tilt>
					<roll>0.6011594489086522</roll>
					<gx:altitudeMode>relativeToSeaFloor</gx:altitudeMode>
				</Camera>
				<styleUrl>#msn_firedept000</styleUrl>
				<Point>
					<extrude>1</extrude>
					<altitudeMode>relativeToGround</altitudeMode>
					<gx:drawOrder>1</gx:drawOrder>
					<coordinates>-77.69880902311093,38.89966475036238,111</coordinates>
				</Point>
			</Placemark>
			<Placemark>
				<name>Pk04</name>
				<visibility>0</visibility>
				<LookAt>
					<longitude>-78.203473804109</longitude>
					<latitude>38.77428935806212</latitude>
					<altitude>0</altitude>
					<heading>-84.48557779857485</heading>
					<tilt>28.96712198448544</tilt>
					<range>1722.785724880087</range>
					<gx:altitudeMode>relativeToSeaFloor</gx:altitudeMode>
				</LookAt>
				<styleUrl>#msn_firedept00</styleUrl>
				<Point>
					<extrude>1</extrude>
					<altitudeMode>relativeToGround</altitudeMode>
					<gx:drawOrder>1</gx:drawOrder>
					<coordinates>-78.20406185227269,38.77550687860945,111</coordinates>
				</Point>
			</Placemark>
			<Placemark>
				<name>Pk05</name>
				<visibility>0</visibility>
				<Camera>
					<longitude>-78.31007086938355</longitude>
					<latitude>38.92576009623964</latitude>
					<altitude>808.1691417460628</altitude>
					<heading>-169.8339642185121</heading>
					<tilt>0.0991524245836391</tilt>
					<roll>89.60700310144152</roll>
					<gx:altitudeMode>relativeToSeaFloor</gx:altitudeMode>
				</Camera>
				<styleUrl>#msn_firedept1</styleUrl>
				<Point>
					<extrude>1</extrude>
					<altitudeMode>relativeToGround</altitudeMode>
					<gx:drawOrder>1</gx:drawOrder>
					<coordinates>-78.31007370765774,38.92574773485303,111</coordinates>
				</Point>
			</Placemark>
			<Placemark>
				<name>Pk06</name>
				<visibility>0</visibility>
				<Camera>
					<longitude>-78.11227209616088</longitude>
					<latitude>38.88712758738679</latitude>
					<altitude>946.6298974688586</altitude>
					<heading>67.33409927910586</heading>
					<tilt>2.4247525568598</tilt>
					<roll>-7.642924913467597</roll>
					<gx:altitudeMode>relativeToSeaFloor</gx:altitudeMode>
				</Camera>
				<styleUrl>#msn_firedept</styleUrl>
				<Point>
					<extrude>1</extrude>
					<altitudeMode>relativeToGround</altitudeMode>
					<gx:drawOrder>1</gx:drawOrder>
					<coordinates>-78.11249760678315,38.8865022267994,111</coordinates>
				</Point>
			</Placemark>
			<Placemark>
				<name>Pk07</name>
				<visibility>0</visibility>
				<LookAt>
					<longitude>-77.70309690842852</longitude>
					<latitude>38.88148250833049</latitude>
					<altitude>0</altitude>
					<heading>-80.33713765761097</heading>
					<tilt>11.28645833642703</tilt>
					<range>242.1444109320518</range>
					<gx:altitudeMode>relativeToSeaFloor</gx:altitudeMode>
				</LookAt>
				<styleUrl>#msn_firedept01</styleUrl>
				<Point>
					<extrude>1</extrude>
					<altitudeMode>relativeToGround</altitudeMode>
					<gx:drawOrder>1</gx:drawOrder>
					<coordinates>-77.70308796981655,38.88144216544661,111</coordinates>
				</Point>
			</Placemark>
			<Placemark>
				<name>Pk08</name>
				<visibility>0</visibility>
				<open>1</open>
				<LookAt>
					<longitude>-77.7138117865354</longitude>
					<latitude>38.85197518061475</latitude>
					<altitude>0</altitude>
					<heading>-106.393394039759</heading>
					<tilt>2.137963534563565</tilt>
					<range>693.973439819705</range>
					<gx:altitudeMode>relativeToSeaFloor</gx:altitudeMode>
				</LookAt>
				<styleUrl>#msn_firedept2</styleUrl>
				<Point>
					<extrude>1</extrude>
					<altitudeMode>relativeToGround</altitudeMode>
					<gx:drawOrder>1</gx:drawOrder>
					<coordinates>-77.71518040631845,38.85191350646099,111</coordinates>
				</Point>
			</Placemark>
			<Placemark>
				<name>Pk09</name>
				<visibility>0</visibility>
				<Camera>
					<longitude>-78.1749649875681</longitude>
					<latitude>38.76242368092676</latitude>
					<altitude>602.8353029576992</altitude>
					<heading>130.6082520710237</heading>
					<tilt>52.1157954931357</tilt>
					<roll>-1.549930890471483</roll>
					<gx:altitudeMode>relativeToSeaFloor</gx:altitudeMode>
				</Camera>
				<styleUrl>#msn_firedept4</styleUrl>
				<Point>
					<extrude>1</extrude>
					<altitudeMode>relativeToGround</altitudeMode>
					<gx:drawOrder>1</gx:drawOrder>
					<coordinates>-78.1719227506333,38.76037023367213,100</coordinates>
				</Point>
			</Placemark>
			<Placemark>
				<name>Pk10</name>
				<visibility>0</visibility>
				<Camera>
					<longitude>-78.17770840165529</longitude>
					<latitude>38.81901544493186</latitude>
					<altitude>967.0436945437687</altitude>
					<heading>-25.71067137182809</heading>
					<tilt>0.3934365360750151</tilt>
					<roll>-93.4149566295646</roll>
					<gx:altitudeMode>relativeToSeaFloor</gx:altitudeMode>
				</Camera>
				<styleUrl>#msn_firedept</styleUrl>
				<Point>
					<extrude>1</extrude>
					<altitudeMode>relativeToGround</altitudeMode>
					<gx:drawOrder>1</gx:drawOrder>
					<coordinates>-78.1753249772038,38.8189243167845,111</coordinates>
				</Point>
			</Placemark>
			<Placemark>
				<name>Pk11</name>
				<visibility>0</visibility>
				<Camera>
					<longitude>-77.66140964607195</longitude>
					<latitude>38.92529822082313</latitude>
					<altitude>870.4044213863293</altitude>
					<heading>-91.40290603312957</heading>
					<tilt>3.527115321189735</tilt>
					<roll>-4.96224807057889</roll>
					<gx:altitudeMode>relativeToSeaFloor</gx:altitudeMode>
				</Camera>
				<styleUrl>#msn_firedept</styleUrl>
				<Point>
					<extrude>1</extrude>
					<altitudeMode>relativeToGround</altitudeMode>
					<gx:drawOrder>1</gx:drawOrder>
					<coordinates>-77.66249632695867,38.92516430790087,100</coordinates>
				</Point>
			</Placemark>
			<Placemark>
				<name>Pk12</name>
				<visibility>0</visibility>
				<LookAt>
					<longitude>-77.66797775825466</longitude>
					<latitude>38.9113515024812</latitude>
					<altitude>0</altitude>
					<heading>-117.8999631255068</heading>
					<tilt>37.07367757502443</tilt>
					<range>650.2910647452434</range>
					<gx:altitudeMode>relativeToSeaFloor</gx:altitudeMode>
				</LookAt>
				<styleUrl>#msn_firedept</styleUrl>
				<Point>
					<extrude>1</extrude>
					<altitudeMode>relativeToGround</altitudeMode>
					<gx:drawOrder>1</gx:drawOrder>
					<coordinates>-77.66863834808146,38.91205273341118,100</coordinates>
				</Point>
			</Placemark>
			<Placemark>
				<name>Pk13</name>
				<visibility>0</visibility>
				<LookAt>
					<longitude>-77.6574884928594</longitude>
					<latitude>38.93457577890779</latitude>
					<altitude>0</altitude>
					<heading>-83.34972086500022</heading>
					<tilt>0</tilt>
					<range>273.5700032031987</range>
					<gx:altitudeMode>relativeToSeaFloor</gx:altitudeMode>
				</LookAt>
				<styleUrl>#msn_firedept</styleUrl>
				<Point>
					<extrude>1</extrude>
					<altitudeMode>relativeToGround</altitudeMode>
					<gx:drawOrder>1</gx:drawOrder>
					<coordinates>-77.65789179043091,38.93468498615081,100</coordinates>
				</Point>
			</Placemark>
			<Placemark>
				<name>Pk14</name>
				<visibility>0</visibility>
				<open>1</open>
				<LookAt>
					<longitude>-78.27461712242622</longitude>
					<latitude>38.76276309707062</latitude>
					<altitude>0</altitude>
					<heading>83.23680480571716</heading>
					<tilt>27.75521210496109</tilt>
					<range>377.5005467096921</range>
					<gx:altitudeMode>relativeToSeaFloor</gx:altitudeMode>
				</LookAt>
				<styleUrl>#msn_firedept</styleUrl>
				<Point>
					<extrude>1</extrude>
					<altitudeMode>relativeToGround</altitudeMode>
					<gx:drawOrder>1</gx:drawOrder>
					<coordinates>-78.27454836065959,38.7622351463289,100</coordinates>
				</Point>
			</Placemark>
			<Placemark>
				<name>Pk15</name>
				<visibility>0</visibility>
				<Camera>
					<longitude>-78.20553211979511</longitude>
					<latitude>38.85398254317796</latitude>
					<altitude>541.5411612791678</altitude>
					<heading>-26.64517828804501</heading>
					<tilt>0.3910520974072636</tilt>
					<roll>-90.3749769533342</roll>
					<gx:altitudeMode>relativeToSeaFloor</gx:altitudeMode>
				</Camera>
				<styleUrl>#msn_firedept</styleUrl>
				<Point>
					<extrude>1</extrude>
					<altitudeMode>relativeToGround</altitudeMode>
					<gx:drawOrder>1</gx:drawOrder>
					<coordinates>-78.20559174405544,38.85437749470906,100</coordinates>
				</Point>
			</Placemark>
			<Placemark>
				<name>Pk16</name>
				<visibility>0</visibility>
				<Camera>
					<longitude>-78.33918640602691</longitude>
					<latitude>38.88872613698208</latitude>
					<altitude>339.7932178665551</altitude>
					<heading>-12.5460576170563</heading>
					<tilt>0.3154580094825963</tilt>
					<roll>-89.6776151704133</roll>
					<gx:altitudeMode>relativeToSeaFloor</gx:altitudeMode>
				</Camera>
				<styleUrl>#msn_firedept7</styleUrl>
				<Point>
					<extrude>1</extrude>
					<altitudeMode>relativeToGround</altitudeMode>
					<gx:drawOrder>1</gx:drawOrder>
					<coordinates>-78.33880431051581,38.88863524391053,111</coordinates>
				</Point>
			</Placemark>
			<Placemark>
				<name>Pk17</name>
				<visibility>0</visibility>
				<Camera>
					<longitude>-78.03903449208576</longitude>
					<latitude>38.92582864913731</latitude>
					<altitude>1562.30666764086</altitude>
					<heading>161.8102766451529</heading>
					<tilt>0.1046266371027745</tilt>
					<roll>81.19018804348553</roll>
					<gx:altitudeMode>relativeToSeaFloor</gx:altitudeMode>
				</Camera>
				<styleUrl>#msn_firedept5</styleUrl>
				<Point>
					<extrude>1</extrude>
					<altitudeMode>relativeToGround</altitudeMode>
					<gx:drawOrder>1</gx:drawOrder>
					<coordinates>-78.03700927557986,38.92551436983279,111</coordinates>
				</Point>
			</Placemark>
			<Placemark>
				<name>Pk18</name>
				<visibility>0</visibility>
				<open>1</open>
				<LookAt>
					<longitude>-77.42131724106221</longitude>
					<latitude>38.63777420278826</latitude>
					<altitude>0</altitude>
					<heading>-5.487377763688274</heading>
					<tilt>0</tilt>
					<range>357.6921190460703</range>
					<gx:altitudeMode>relativeToSeaFloor</gx:altitudeMode>
				</LookAt>
				<styleUrl>#msn_firedept8</styleUrl>
				<Point>
					<extrude>1</extrude>
					<altitudeMode>relativeToGround</altitudeMode>
					<gx:drawOrder>1</gx:drawOrder>
					<coordinates>-77.42131262960216,38.63787430159655,111</coordinates>
				</Point>
			</Placemark>
			<Placemark>
				<name>Pk19</name>
				<visibility>0</visibility>
				<LookAt>
					<longitude>-78.3175547585473</longitude>
					<latitude>38.64840765939663</latitude>
					<altitude>0</altitude>
					<heading>37.96914941011175</heading>
					<tilt>11.32362283605529</tilt>
					<range>1098.593489575962</range>
					<gx:altitudeMode>relativeToSeaFloor</gx:altitudeMode>
				</LookAt>
				<styleUrl>#msn_firedept3</styleUrl>
				<Point>
					<extrude>1</extrude>
					<altitudeMode>relativeToGround</altitudeMode>
					<gx:drawOrder>1</gx:drawOrder>
					<coordinates>-78.31759997125511,38.64998073175019,100</coordinates>
				</Point>
			</Placemark>
			<Placemark>
				<name>Pk20</name>
				<visibility>0</visibility>
				<open>1</open>
				<LookAt>
					<longitude>-78.3738313173839</longitude>
					<latitude>38.59740992474084</latitude>
					<altitude>0</altitude>
					<heading>73.07157918611013</heading>
					<tilt>12.29748508579522</tilt>
					<range>599.6084948185821</range>
					<gx:altitudeMode>relativeToSeaFloor</gx:altitudeMode>
				</LookAt>
				<styleUrl>#msn_firedept3</styleUrl>
				<Point>
					<extrude>1</extrude>
					<altitudeMode>relativeToGround</altitudeMode>
					<gx:drawOrder>1</gx:drawOrder>
					<coordinates>-78.37249520127962,38.59784168858758,100</coordinates>
				</Point>
			</Placemark>
			<Placemark>
				<name>Pk21</name>
				<visibility>0</visibility>
				<Camera>
					<longitude>-77.38805712448858</longitude>
					<latitude>39.28590863905652</latitude>
					<altitude>359.664189063253</altitude>
					<heading>-162.1866164124354</heading>
					<tilt>0.2222090920743954</tilt>
					<roll>52.7108782947335</roll>
					<gx:altitudeMode>relativeToSeaFloor</gx:altitudeMode>
				</Camera>
				<styleUrl>#msn_firedept4</styleUrl>
				<Point>
					<extrude>1</extrude>
					<altitudeMode>relativeToGround</altitudeMode>
					<gx:drawOrder>1</gx:drawOrder>
					<coordinates>-77.38804849277329,39.28531517425642,111</coordinates>
				</Point>
			</Placemark>
			<Placemark>
				<name>Pk22</name>
				<visibility>0</visibility>
				<Camera>
					<longitude>-78.39534167240257</longitude>
					<latitude>38.55391431361811</latitude>
					<altitude>743.7937932283544</altitude>
					<heading>-139.8528656528846</heading>
					<tilt>1.115710014532193</tilt>
					<roll>-89.75571236612939</roll>
					<gx:altitudeMode>relativeToSeaFloor</gx:altitudeMode>
				</Camera>
				<styleUrl>#msn_firedept4</styleUrl>
				<Point>
					<extrude>1</extrude>
					<altitudeMode>relativeToGround</altitudeMode>
					<gx:drawOrder>1</gx:drawOrder>
					<coordinates>-78.3965518549421,38.5541110930654,100</coordinates>
				</Point>
			</Placemark>
			<Placemark>
				<name>Pk23</name>
				<visibility>0</visibility>
				<LookAt>
					<longitude>-77.38804268584296</longitude>
					<latitude>39.26952845193858</latitude>
					<altitude>0</altitude>
					<heading>-64.38542242950665</heading>
					<tilt>18.93586566397781</tilt>
					<range>1012.689700975796</range>
					<gx:altitudeMode>relativeToSeaFloor</gx:altitudeMode>
				</LookAt>
				<styleUrl>#msn_firedept6</styleUrl>
				<Point>
					<extrude>1</extrude>
					<altitudeMode>relativeToGround</altitudeMode>
					<gx:drawOrder>1</gx:drawOrder>
					<coordinates>-77.38844016758253,39.27033535183344,111</coordinates>
				</Point>
			</Placemark>
			<Placemark>
				<name>Pk24</name>
				<visibility>0</visibility>
				<Camera>
					<longitude>-77.36560375337919</longitude>
					<latitude>38.86939082608621</latitude>
					<altitude>193.6772192454383</altitude>
					<heading>159.0863331357657</heading>
					<tilt>0.06658382493486072</tilt>
					<roll>89.4667523662424</roll>
					<gx:altitudeMode>relativeToSeaFloor</gx:altitudeMode>
				</Camera>
				<styleUrl>#msn_firedept6</styleUrl>
				<Point>
					<extrude>1</extrude>
					<altitudeMode>relativeToGround</altitudeMode>
					<gx:drawOrder>1</gx:drawOrder>
					<coordinates>-77.36583422657584,38.86964704127914,55</coordinates>
				</Point>
			</Placemark>
		</Folder>
		<Folder>
			<name>NotchPnts</name>
			<visibility>0</visibility>
			<Placemark>
				<name>Nch01</name>
				<visibility>0</visibility>
				<Camera>
					<longitude>-77.68022299335993</longitude>
					<latitude>38.88886071034389</latitude>
					<altitude>692.1127686057546</altitude>
					<heading>-85.47347190813095</heading>
					<tilt>12.35690881013204</tilt>
					<roll>-1.924847543367223</roll>
					<gx:altitudeMode>relativeToSeaFloor</gx:altitudeMode>
				</Camera>
				<styleUrl>#msn_campfire2</styleUrl>
				<Point>
					<extrude>1</extrude>
					<altitudeMode>relativeToGround</altitudeMode>
					<gx:drawOrder>1</gx:drawOrder>
					<coordinates>-77.68147718987677,38.88862422661818,100</coordinates>
				</Point>
			</Placemark>
			<Placemark>
				<name>Nch02</name>
				<visibility>0</visibility>
				<LookAt>
					<longitude>-77.70356287364227</longitude>
					<latitude>38.88273692024222</latitude>
					<altitude>0</altitude>
					<heading>-92.86237001863473</heading>
					<tilt>19.68447468925016</tilt>
					<range>208.5084084586058</range>
					<gx:altitudeMode>relativeToSeaFloor</gx:altitudeMode>
				</LookAt>
				<styleUrl>#msn_campfire3</styleUrl>
				<Point>
					<extrude>1</extrude>
					<altitudeMode>relativeToGround</altitudeMode>
					<gx:drawOrder>1</gx:drawOrder>
					<coordinates>-77.70301501022141,38.88257606756327,100</coordinates>
				</Point>
			</Placemark>
			<Placemark>
				<name>Nch03</name>
				<visibility>0</visibility>
				<LookAt>
					<longitude>-77.6704796902175</longitude>
					<latitude>38.90810141473956</latitude>
					<altitude>0</altitude>
					<heading>-73.22402227865005</heading>
					<tilt>15.08342028240146</tilt>
					<range>1104.22721968108</range>
					<gx:altitudeMode>relativeToSeaFloor</gx:altitudeMode>
				</LookAt>
				<styleUrl>#msn_campfire7</styleUrl>
				<Point>
					<extrude>1</extrude>
					<altitudeMode>relativeToGround</altitudeMode>
					<gx:drawOrder>1</gx:drawOrder>
					<coordinates>-77.67029138903406,38.90890910524952,100</coordinates>
				</Point>
			</Placemark>
			<Placemark>
				<name>Nch04</name>
				<visibility>0</visibility>
				<LookAt>
					<longitude>-77.66412844081073</longitude>
					<latitude>38.92769708825093</latitude>
					<altitude>0</altitude>
					<heading>133.1721989000452</heading>
					<tilt>62.00477882037326</tilt>
					<range>501.5795703501608</range>
					<gx:altitudeMode>relativeToSeaFloor</gx:altitudeMode>
				</LookAt>
				<styleUrl>#msn_campfire3</styleUrl>
				<Point>
					<gx:drawOrder>1</gx:drawOrder>
					<coordinates>-77.66320432405479,38.92840061330843,0</coordinates>
				</Point>
			</Placemark>
			<Placemark>
				<name>Nch05</name>
				<visibility>0</visibility>
				<LookAt>
					<longitude>-77.66508106961034</longitude>
					<latitude>38.92010718677938</latitude>
					<altitude>0</altitude>
					<heading>103.3385016277694</heading>
					<tilt>61.73625602072604</tilt>
					<range>359.6184740365709</range>
					<gx:altitudeMode>relativeToSeaFloor</gx:altitudeMode>
				</LookAt>
				<styleUrl>#msn_campfire3</styleUrl>
				<Point>
					<gx:drawOrder>1</gx:drawOrder>
					<coordinates>-77.6647580797385,38.92009673025468,0</coordinates>
				</Point>
			</Placemark>
			<Placemark>
				<name>Nch06</name>
				<visibility>0</visibility>
				<LookAt>
					<longitude>-77.67723196957691</longitude>
					<latitude>38.89886226699365</latitude>
					<altitude>0</altitude>
					<heading>-67.70850313963766</heading>
					<tilt>1.617783052325267</tilt>
					<range>329.1497645565786</range>
					<gx:altitudeMode>relativeToSeaFloor</gx:altitudeMode>
				</LookAt>
				<styleUrl>#msn_campfire7</styleUrl>
				<Point>
					<extrude>1</extrude>
					<altitudeMode>relativeToGround</altitudeMode>
					<gx:drawOrder>1</gx:drawOrder>
					<coordinates>-77.67780772965095,38.89876954197631,100</coordinates>
				</Point>
			</Placemark>
			<Placemark>
				<name>Nch07</name>
				<visibility>0</visibility>
				<open>1</open>
				<Camera>
					<longitude>-78.15707995280958</longitude>
					<latitude>38.91987578117658</latitude>
					<altitude>2908.371070909267</altitude>
					<heading>90.26913534042941</heading>
					<tilt>23.65317221737672</tilt>
					<roll>-1.509864284637219</roll>
					<gx:altitudeMode>relativeToSeaFloor</gx:altitudeMode>
				</Camera>
				<styleUrl>#msn_campfire7</styleUrl>
				<Point>
					<extrude>1</extrude>
					<altitudeMode>relativeToGround</altitudeMode>
					<gx:drawOrder>1</gx:drawOrder>
					<coordinates>-78.14152350556928,38.92019844031488,100</coordinates>
				</Point>
			</Placemark>
			<Placemark>
				<name>Nch08</name>
				<visibility>0</visibility>
				<open>1</open>
				<LookAt>
					<longitude>-78.0338846962601</longitude>
					<latitude>38.92991833636347</latitude>
					<altitude>0</altitude>
					<heading>84.60875791373897</heading>
					<tilt>46.91026939706484</tilt>
					<range>1222.072045321259</range>
					<gx:altitudeMode>relativeToSeaFloor</gx:altitudeMode>
				</LookAt>
				<styleUrl>#msn_campfire5</styleUrl>
				<Point>
					<extrude>1</extrude>
					<altitudeMode>relativeToGround</altitudeMode>
					<gx:drawOrder>1</gx:drawOrder>
					<coordinates>-78.03565054158743,38.92976124598243,100</coordinates>
				</Point>
			</Placemark>
			<Placemark>
				<name>Nch09</name>
				<visibility>0</visibility>
				<open>1</open>
				<LookAt>
					<longitude>-77.71006396047974</longitude>
					<latitude>38.86510365384335</latitude>
					<altitude>0</altitude>
					<heading>114.1178998406285</heading>
					<tilt>3.336803312528906</tilt>
					<range>368.7168623326017</range>
					<gx:altitudeMode>relativeToSeaFloor</gx:altitudeMode>
				</LookAt>
				<styleUrl>#msn_campfire1</styleUrl>
				<Point>
					<extrude>1</extrude>
					<altitudeMode>relativeToGround</altitudeMode>
					<gx:drawOrder>1</gx:drawOrder>
					<coordinates>-77.70948307781575,38.86508708965545,100</coordinates>
				</Point>
			</Placemark>
			<Placemark>
				<name>Nch10</name>
				<visibility>0</visibility>
				<open>1</open>
				<LookAt>
					<longitude>-77.71581911448537</longitude>
					<latitude>38.82550709124355</latitude>
					<altitude>0</altitude>
					<heading>105.5546662680783</heading>
					<tilt>31.85908763071619</tilt>
					<range>1102.320973688896</range>
					<gx:altitudeMode>relativeToSeaFloor</gx:altitudeMode>
				</LookAt>
				<styleUrl>#msn_campfire6</styleUrl>
				<Point>
					<extrude>1</extrude>
					<altitudeMode>relativeToGround</altitudeMode>
					<gx:drawOrder>1</gx:drawOrder>
					<coordinates>-77.71736379490108,38.82502073269489,100</coordinates>
				</Point>
			</Placemark>
			<Placemark>
				<name>Nch11</name>
				<visibility>0</visibility>
				<LookAt>
					<longitude>-77.6987828429676</longitude>
					<latitude>38.86818303745599</latitude>
					<altitude>0</altitude>
					<heading>-99.82651623075324</heading>
					<tilt>26.14357915790674</tilt>
					<range>1091.558293416499</range>
					<gx:altitudeMode>relativeToSeaFloor</gx:altitudeMode>
				</LookAt>
				<styleUrl>#msn_campfire1</styleUrl>
				<Point>
					<gx:drawOrder>1</gx:drawOrder>
					<coordinates>-77.69913313790684,38.86665194154681,0</coordinates>
				</Point>
			</Placemark>
			<Placemark>
				<name>Nch12</name>
				<visibility>0</visibility>
				<LookAt>
					<longitude>-77.71687441714433</longitude>
					<latitude>38.80508036106794</latitude>
					<altitude>0</altitude>
					<heading>-86.51301570868897</heading>
					<tilt>32.79593188992978</tilt>
					<range>1325.627465076942</range>
					<gx:altitudeMode>relativeToSeaFloor</gx:altitudeMode>
				</LookAt>
				<styleUrl>#msn_campfire</styleUrl>
				<Point>
					<gx:drawOrder>1</gx:drawOrder>
					<coordinates>-77.7180870149655,38.80616139255636,0</coordinates>
				</Point>
			</Placemark>
			<Placemark>
				<name>Nch13</name>
				<visibility>0</visibility>
				<Camera>
					<longitude>-77.68207888948717</longitude>
					<latitude>38.79013827164366</latitude>
					<altitude>1434.202711905697</altitude>
					<heading>-91.38252404757409</heading>
					<tilt>69.26421657291557</tilt>
					<roll>-1.566260289825828</roll>
					<gx:altitudeMode>relativeToSeaFloor</gx:altitudeMode>
				</Camera>
				<styleUrl>#msn_campfire4</styleUrl>
				<Point>
					<extrude>1</extrude>
					<altitudeMode>relativeToGround</altitudeMode>
					<gx:drawOrder>1</gx:drawOrder>
					<coordinates>-77.72085034941566,38.79260888399374,100</coordinates>
				</Point>
			</Placemark>
			<Placemark>
				<name>Nch14</name>
				<visibility>0</visibility>
				<open>1</open>
				<Camera>
					<longitude>-77.38322980796647</longitude>
					<latitude>39.27136000790741</latitude>
					<altitude>1047.995139804162</altitude>
					<heading>-43.46881883740281</heading>
					<tilt>26.30487303245942</tilt>
					<roll>1.576704029036216</roll>
					<gx:altitudeMode>relativeToSeaFloor</gx:altitudeMode>
				</Camera>
				<styleUrl>#msn_campfire0</styleUrl>
				<Point>
					<extrude>1</extrude>
					<altitudeMode>relativeToGround</altitudeMode>
					<gx:drawOrder>1</gx:drawOrder>
					<coordinates>-77.38719733952084,39.27419555491868,100</coordinates>
				</Point>
			</Placemark>
		</Folder>
		<atom:link rel="app" href="https://www.google.com/earth/about/versions/#earth-pro" title="Google Earth Pro 7.3.6.10201"></atom:link>
	</Folder>
</Document>
</kml>
