<?xml version="1.0" encoding="UTF-8"?>
<kml xmlns="http://www.opengis.net/kml/2.2" xmlns:gx="http://www.google.com/kml/ext/2.2">
    <Document id="1">
        <name>Special Triangles</name>
        <Folder id="2">
            <Style id="9">
                <LineStyle id="11">
                    <color>FFFF00FF</color>
                    <colorMode>normal</colorMode>
                    <width>2</width>
                </LineStyle>
                <PolyStyle id="10">
                    <color>64FF00FF</color>
                    <colorMode>normal</colorMode>
                    <fill>1</fill>
                    <outline>1</outline>
                </PolyStyle>
            </Style>
            <Style id="19">
                <LineStyle id="21">
                    <color>FFFF00FF</color>
                    <colorMode>normal</colorMode>
                    <width>2</width>
                </LineStyle>
                <PolyStyle id="20">
                    <color>64FF00FF</color>
                    <colorMode>normal</colorMode>
                    <fill>1</fill>
                    <outline>1</outline>
                </PolyStyle>
            </Style>
            <name>1-2-sqrt(5) Right Triangles</name>
            <Placemark id="4">
                <name>PenF-H66-H20</name>
                <description><![CDATA[<b>Match Type:</b> 1-2-r5 (by side_ratios)<br><b>Proportionality Factor:</b> 1.7550<br><hr><b>Vertices:</b> PenF, H66, H20<br><b>Angles:</b> 63.38°, 26.55°, 90.07°<br><b>Side Lengths (miles):</b> 3.5091, 1.7548, 3.9253]]></description>
                <styleUrl>#9</styleUrl>
                <Polygon id="3">
                    <outerBoundaryIs>
                        <LinearRing id="7">
                            <coordinates>-77.0555808299749,38.86885510940446,0.0 -77.10094955658019,38.90533124793031,0.0 -77.07763287849671,38.9230873705844,0.0 -77.0555808299749,38.86885510940446,0.0</coordinates>
                        </LinearRing>
                    </outerBoundaryIs>
                </Polygon>
            </Placemark>
            <Placemark id="14">
                <name>Chk61-POOthr2a-H70a</name>
                <description><![CDATA[<b>Match Type:</b> 1-2-r5 (by side_ratios)<br><b>Proportionality Factor:</b> 1.4479<br><hr><b>Vertices:</b> Chk61, POOthr2a, H70a<br><b>Angles:</b> 63.38°, 26.56°, 90.06°<br><b>Side Lengths (miles):</b> 2.8951, 1.4480, 3.2383]]></description>
                <styleUrl>#19</styleUrl>
                <Polygon id="13">
                    <outerBoundaryIs>
                        <LinearRing id="17">
                            <coordinates>-77.02294473847918,38.9027413920959,0.0 -77.04279029496989,38.86374289004072,0.0 -77.06775220195667,38.87147694689254,0.0 -77.02294473847918,38.9027413920959,0.0</coordinates>
                        </LinearRing>
                    </outerBoundaryIs>
                </Polygon>
            </Placemark>
        </Folder>
        <Folder id="12">
            <name>1-2-sqrt(5) Right Triangles</name>
        </Folder>
        <Folder id="22">
            <Style id="29">
                <LineStyle id="31">
                    <color>FF0077FF</color>
                    <colorMode>normal</colorMode>
                    <width>2</width>
                </LineStyle>
                <PolyStyle id="30">
                    <color>640077FF</color>
                    <colorMode>normal</colorMode>
                    <fill>1</fill>
                    <outline>1</outline>
                </PolyStyle>
            </Style>
            <Style id="39">
                <LineStyle id="41">
                    <color>FF0077FF</color>
                    <colorMode>normal</colorMode>
                    <width>2</width>
                </LineStyle>
                <PolyStyle id="40">
                    <color>640077FF</color>
                    <colorMode>normal</colorMode>
                    <fill>1</fill>
                    <outline>1</outline>
                </PolyStyle>
            </Style>
            <Style id="49">
                <LineStyle id="51">
                    <color>FF0077FF</color>
                    <colorMode>normal</colorMode>
                    <width>2</width>
                </LineStyle>
                <PolyStyle id="50">
                    <color>640077FF</color>
                    <colorMode>normal</colorMode>
                    <fill>1</fill>
                    <outline>1</outline>
                </PolyStyle>
            </Style>
            <name>3-4-5 Right Triangles</name>
            <Placemark id="24">
                <name>P-RC-SF06</name>
                <description><![CDATA[<b>Match Type:</b> 3-4-5 (by side_ratios)<br><b>Proportionality Factor:</b> 1.9967<br><hr><b>Vertices:</b> P, RC, SF06<br><b>Angles:</b> 53.21°, 36.88°, 89.91°<br><b>Side Lengths (miles):</b> 7.9917, 5.9897, 9.9794]]></description>
                <styleUrl>#29</styleUrl>
                <Polygon id="23">
                    <outerBoundaryIs>
                        <LinearRing id="27">
                            <coordinates>-77.05596854698287,38.87100323118176,0.0 -77.05231894611552,38.98682226543504,0.0 -77.16354886186852,38.98876568157223,0.0 -77.05596854698287,38.87100323118176,0.0</coordinates>
                        </LinearRing>
                    </outerBoundaryIs>
                </Polygon>
            </Placemark>
            <Placemark id="34">
                <name>PenC-Chk06-SF03</name>
                <description><![CDATA[<b>Match Type:</b> 3-4-5 (by angles)<br><b>Proportionality Factor:</b> 2.1079<br><hr><b>Vertices:</b> PenC, Chk06, SF03<br><b>Angles:</b> 36.86°, 90.00°, 53.14°<br><b>Side Lengths (miles):</b> 6.3225, 10.5397, 8.4324]]></description>
                <styleUrl>#39</styleUrl>
                <Polygon id="33">
                    <outerBoundaryIs>
                        <LinearRing id="37">
                            <coordinates>-77.05702684244545,38.87632204707956,0.0 -76.95853332476764,38.92609741015503,0.0 -76.97215841432278,38.77367519361357,0.0 -77.05702684244545,38.87632204707956,0.0</coordinates>
                        </LinearRing>
                    </outerBoundaryIs>
                </Polygon>
            </Placemark>
            <Placemark id="44">
                <name>HighWa-Chk47-H33</name>
                <description><![CDATA[<b>Match Type:</b> 3-4-5 (by side_ratios)<br><b>Proportionality Factor:</b> 2.0481<br><hr><b>Vertices:</b> HighWa, Chk47, H33<br><b>Angles:</b> 89.98°, 36.86°, 53.16°<br><b>Side Lengths (miles):</b> 10.2396, 6.1426, 8.1951]]></description>
                <styleUrl>#49</styleUrl>
                <Polygon id="43">
                    <outerBoundaryIs>
                        <LinearRing id="47">
                            <coordinates>-77.0660665577638,38.80760759772259,0.0 -77.00484480332231,38.94812410619182,0.0 -77.11324805943606,38.92053966660955,0.0 -77.0660665577638,38.80760759772259,0.0</coordinates>
                        </LinearRing>
                    </outerBoundaryIs>
                </Polygon>
            </Placemark>
        </Folder>
        <Folder id="32">
            <name>3-4-5 Right Triangles</name>
        </Folder>
        <Folder id="42">
            <name>3-4-5 Right Triangles</name>
        </Folder>
        <Folder id="52">
            <Style id="59">
                <LineStyle id="61">
                    <color>FFFF10C1</color>
                    <colorMode>normal</colorMode>
                    <width>2</width>
                </LineStyle>
                <PolyStyle id="60">
                    <color>64FF10C1</color>
                    <colorMode>normal</colorMode>
                    <fill>1</fill>
                    <outline>1</outline>
                </PolyStyle>
            </Style>
            <Style id="69">
                <LineStyle id="71">
                    <color>FFFF10C1</color>
                    <colorMode>normal</colorMode>
                    <width>2</width>
                </LineStyle>
                <PolyStyle id="70">
                    <color>64FF10C1</color>
                    <colorMode>normal</colorMode>
                    <fill>1</fill>
                    <outline>1</outline>
                </PolyStyle>
            </Style>
            <Style id="79">
                <LineStyle id="81">
                    <color>FFFF10C1</color>
                    <colorMode>normal</colorMode>
                    <width>2</width>
                </LineStyle>
                <PolyStyle id="80">
                    <color>64FF10C1</color>
                    <colorMode>normal</colorMode>
                    <fill>1</fill>
                    <outline>1</outline>
                </PolyStyle>
            </Style>
            <Style id="89">
                <LineStyle id="91">
                    <color>FFFF10C1</color>
                    <colorMode>normal</colorMode>
                    <width>2</width>
                </LineStyle>
                <PolyStyle id="90">
                    <color>64FF10C1</color>
                    <colorMode>normal</colorMode>
                    <fill>1</fill>
                    <outline>1</outline>
                </PolyStyle>
            </Style>
            <name>36-54-90 Right Triangles</name>
            <Placemark id="54">
                <name>Hk-Chk13-H28</name>
                <description><![CDATA[<b>Match Type:</b> 36-54-90 (by side_ratios)<br><b>Proportionality Factor:</b> 7.1609<br><hr><b>Vertices:</b> Hk, Chk13, H28<br><b>Angles:</b> 54.00°, 89.98°, 36.02°<br><b>Side Lengths (miles):</b> 5.7926, 7.1600, 4.2107]]></description>
                <styleUrl>#59</styleUrl>
                <Polygon id="53">
                    <outerBoundaryIs>
                        <LinearRing id="57">
                            <coordinates>-77.051444,38.8951366,0.0 -77.0340714747954,38.97800673083694,0.0 -77.12853595395019,38.90499081362246,0.0 -77.051444,38.8951366,0.0</coordinates>
                        </LinearRing>
                    </outerBoundaryIs>
                </Polygon>
            </Placemark>
            <Placemark id="64">
                <name>PenG-Chk28-Chk39</name>
                <description><![CDATA[<b>Match Type:</b> 36-54-90 (by side_ratios)<br><b>Proportionality Factor:</b> 9.7467<br><hr><b>Vertices:</b> PenG, Chk28, Chk39<br><b>Angles:</b> 35.98°, 90.05°, 53.97°<br><b>Side Lengths (miles):</b> 5.7271, 9.7492, 7.8847]]></description>
                <styleUrl>#69</styleUrl>
                <Polygon id="63">
                    <outerBoundaryIs>
                        <LinearRing id="67">
                            <coordinates>-77.05467449297677,38.87292974342279,0.0 -77.0776296316338,38.95399489057218,0.0 -76.91182568346446,38.8974237158863,0.0 -77.05467449297677,38.87292974342279,0.0</coordinates>
                        </LinearRing>
                    </outerBoundaryIs>
                </Polygon>
            </Placemark>
            <Placemark id="74">
                <name>Nb-Gs1-OtrC</name>
                <description><![CDATA[<b>Match Type:</b> 36-54-90 (by side_ratios)<br><b>Proportionality Factor:</b> 7.3107<br><hr><b>Vertices:</b> Nb, Gs1, OtrC<br><b>Angles:</b> 54.05°, 89.94°, 36.01°<br><b>Side Lengths (miles):</b> 5.9163, 7.3087, 4.2972]]></description>
                <styleUrl>#79</styleUrl>
                <Polygon id="73">
                    <outerBoundaryIs>
                        <LinearRing id="77">
                            <coordinates>-77.04098558,38.99595650999999,0.0 -77.11877083238855,38.93539090046842,0.0 -76.98472940704961,38.95177142459147,0.0 -77.04098558,38.99595650999999,0.0</coordinates>
                        </LinearRing>
                    </outerBoundaryIs>
                </Polygon>
            </Placemark>
            <Placemark id="84">
                <name>H44-H99-H42</name>
                <description><![CDATA[<b>Match Type:</b> 36-54-90 (by side_ratios)<br><b>Proportionality Factor:</b> 7.5433<br><hr><b>Vertices:</b> H44, H99, H42<br><b>Angles:</b> 54.00°, 36.01°, 89.99°<br><b>Side Lengths (miles):</b> 6.1019, 4.4351, 7.5428]]></description>
                <styleUrl>#89</styleUrl>
                <Polygon id="83">
                    <outerBoundaryIs>
                        <LinearRing id="87">
                            <coordinates>-77.11259304457337,38.90361498656535,0.0 -77.00096480083693,38.8889443857454,0.0 -77.01466103512618,38.82554707680318,0.0 -77.11259304457337,38.90361498656535,0.0</coordinates>
                        </LinearRing>
                    </outerBoundaryIs>
                </Polygon>
            </Placemark>
        </Folder>
        <Folder id="62">
            <name>36-54-90 Right Triangles</name>
        </Folder>
        <Folder id="72">
            <name>36-54-90 Right Triangles</name>
        </Folder>
        <Folder id="82">
            <name>36-54-90 Right Triangles</name>
        </Folder>
        <Folder id="92">
            <Style id="99">
                <LineStyle id="101">
                    <color>FFFF0000</color>
                    <colorMode>normal</colorMode>
                    <width>2</width>
                </LineStyle>
                <PolyStyle id="100">
                    <color>64FF0000</color>
                    <colorMode>normal</colorMode>
                    <fill>1</fill>
                    <outline>1</outline>
                </PolyStyle>
            </Style>
            <Style id="109">
                <LineStyle id="111">
                    <color>FFFF0000</color>
                    <colorMode>normal</colorMode>
                    <width>2</width>
                </LineStyle>
                <PolyStyle id="110">
                    <color>64FF0000</color>
                    <colorMode>normal</colorMode>
                    <fill>1</fill>
                    <outline>1</outline>
                </PolyStyle>
            </Style>
            <Style id="119">
                <LineStyle id="121">
                    <color>FFFF0000</color>
                    <colorMode>normal</colorMode>
                    <width>2</width>
                </LineStyle>
                <PolyStyle id="120">
                    <color>64FF0000</color>
                    <colorMode>normal</colorMode>
                    <fill>1</fill>
                    <outline>1</outline>
                </PolyStyle>
            </Style>
            <name>45-45-90 Right Triangles</name>
            <Placemark id="94">
                <name>HighWa-Chk10-Chk11</name>
                <description><![CDATA[<b>Match Type:</b> 45-45-90 (by side_ratios)<br><b>Proportionality Factor:</b> 7.0611<br><hr><b>Vertices:</b> HighWa, Chk10, Chk11<br><b>Angles:</b> 44.96°, 90.08°, 44.96°<br><b>Side Lengths (miles):</b> 7.0593, 9.9898, 7.0591]]></description>
                <styleUrl>#99</styleUrl>
                <Polygon id="93">
                    <outerBoundaryIs>
                        <LinearRing id="97">
                            <coordinates>-77.0660665577638,38.80760759772259,0.0 -76.95502425801097,38.86173720173936,0.0 -77.13554467903445,38.89433083867851,0.0 -77.0660665577638,38.80760759772259,0.0</coordinates>
                        </LinearRing>
                    </outerBoundaryIs>
                </Polygon>
            </Placemark>
            <Placemark id="104">
                <name>Lz-Chk11-H32</name>
                <description><![CDATA[<b>Match Type:</b> 45-45-90 (by side_ratios)<br><b>Proportionality Factor:</b> 3.1869<br><hr><b>Vertices:</b> Lz, Chk11, H32<br><b>Angles:</b> 89.98°, 44.99°, 45.03°<br><b>Side Lengths (miles):</b> 4.5064, 3.1860, 3.1882]]></description>
                <styleUrl>#109</styleUrl>
                <Polygon id="103">
                    <outerBoundaryIs>
                        <LinearRing id="107">
                            <coordinates>-77.05220920463091,38.88921687259635,0.0 -77.13554467903445,38.89433083867851,0.0 -77.09063005508365,38.9243596243616,0.0 -77.05220920463091,38.88921687259635,0.0</coordinates>
                        </LinearRing>
                    </outerBoundaryIs>
                </Polygon>
            </Placemark>
            <Placemark id="114">
                <name>Gs6-Chk53-H13</name>
                <description><![CDATA[<b>Match Type:</b> 45-45-90 (by side_ratios)<br><b>Proportionality Factor:</b> 5.2204<br><hr><b>Vertices:</b> Gs6, Chk53, H13<br><b>Angles:</b> 90.07°, 44.97°, 44.96°<br><b>Side Lengths (miles):</b> 7.3853, 5.2197, 5.2185]]></description>
                <styleUrl>#119</styleUrl>
                <Polygon id="113">
                    <outerBoundaryIs>
                        <LinearRing id="117">
                            <coordinates>-77.11066858924072,38.94253116241286,0.0 -77.00907388669604,38.8706887702613,0.0 -77.01391219662139,38.94626278806017,0.0 -77.11066858924072,38.94253116241286,0.0</coordinates>
                        </LinearRing>
                    </outerBoundaryIs>
                </Polygon>
            </Placemark>
        </Folder>
        <Folder id="102">
            <name>45-45-90 Right Triangles</name>
        </Folder>
        <Folder id="112">
            <name>45-45-90 Right Triangles</name>
        </Folder>
        <Folder id="122">
            <Style id="129">
                <LineStyle id="131">
                    <color>FF33FF33</color>
                    <colorMode>normal</colorMode>
                    <width>2</width>
                </LineStyle>
                <PolyStyle id="130">
                    <color>6433FF33</color>
                    <colorMode>normal</colorMode>
                    <fill>1</fill>
                    <outline>1</outline>
                </PolyStyle>
            </Style>
            <name>Equilateral Triangles (60-60-60)</name>
            <Placemark id="124">
                <name>Chk46-H22-H29</name>
                <description><![CDATA[<b>Match Type:</b> Equilateral (by side_ratios)<br><b>Proportionality Factor:</b> 3.6552<br><hr><b>Vertices:</b> Chk46, H22, H29<br><b>Angles:</b> 59.99°, 60.04°, 59.97°<br><b>Side Lengths (miles):</b> 3.6549, 3.6567, 3.6541]]></description>
                <styleUrl>#129</styleUrl>
                <Polygon id="123">
                    <outerBoundaryIs>
                        <LinearRing id="127">
                            <coordinates>-77.07473802861425,38.87650889195688,0.0 -77.06004232078331,38.92823446130691,0.0 -77.12474875900264,38.91226863882422,0.0 -77.07473802861425,38.87650889195688,0.0</coordinates>
                        </LinearRing>
                    </outerBoundaryIs>
                </Polygon>
            </Placemark>
        </Folder>
        <Folder id="132">
            <Style id="139">
                <LineStyle id="141">
                    <color>FF00D7FF</color>
                    <colorMode>normal</colorMode>
                    <width>2</width>
                </LineStyle>
                <PolyStyle id="140">
                    <color>6400D7FF</color>
                    <colorMode>normal</colorMode>
                    <fill>1</fill>
                    <outline>1</outline>
                </PolyStyle>
            </Style>
            <name>Golden Triangles (72-72-36)</name>
            <Placemark id="134">
                <name>CFa-Chk26-SF03</name>
                <description><![CDATA[<b>Match Type:</b> Golden T (by side_ratios)<br><b>Proportionality Factor:</b> 5.1657<br><hr><b>Vertices:</b> CFa, Chk26, SF03<br><b>Angles:</b> 35.99°, 72.08°, 71.92°<br><b>Side Lengths (miles):</b> 5.1652, 8.3624, 8.3548]]></description>
                <styleUrl>#139</styleUrl>
                <Polygon id="133">
                    <outerBoundaryIs>
                        <LinearRing id="137">
                            <coordinates>-77.01235207597406,38.89064396166972,0.0 -76.91666542015503,38.88686719010732,0.0 -76.97215841432278,38.77367519361357,0.0 -77.01235207597406,38.89064396166972,0.0</coordinates>
                        </LinearRing>
                    </outerBoundaryIs>
                </Polygon>
            </Placemark>
        </Folder>
        <Folder id="142">
            <Style id="149">
                <LineStyle id="151">
                    <color>FFEE82EE</color>
                    <colorMode>normal</colorMode>
                    <width>2</width>
                </LineStyle>
                <PolyStyle id="150">
                    <color>64EE82EE</color>
                    <colorMode>normal</colorMode>
                    <fill>1</fill>
                    <outline>1</outline>
                </PolyStyle>
            </Style>
            <Style id="159">
                <LineStyle id="161">
                    <color>FFEE82EE</color>
                    <colorMode>normal</colorMode>
                    <width>2</width>
                </LineStyle>
                <PolyStyle id="160">
                    <color>64EE82EE</color>
                    <colorMode>normal</colorMode>
                    <fill>1</fill>
                    <outline>1</outline>
                </PolyStyle>
            </Style>
            <name>Kepler Right Triangles (1:sqrt(phi):phi)</name>
            <Placemark id="144">
                <name>CptA-H70b-H47</name>
                <description><![CDATA[<b>Match Type:</b> Kepler (by side_ratios)<br><b>Proportionality Factor:</b> 2.0326<br><hr><b>Vertices:</b> CptA, H70b, H47<br><b>Angles:</b> 38.15°, 51.79°, 90.06°<br><b>Side Lengths (miles):</b> 2.0321, 2.5851, 3.2897]]></description>
                <styleUrl>#149</styleUrl>
                <Polygon id="143">
                    <outerBoundaryIs>
                        <LinearRing id="147">
                            <coordinates>-77.0072678806584,38.89077979476803,0.0 -76.97878782846644,38.91008217241069,0.0 -77.01018660152103,38.93841562644008,0.0 -77.0072678806584,38.89077979476803,0.0</coordinates>
                        </LinearRing>
                    </outerBoundaryIs>
                </Polygon>
            </Placemark>
            <Placemark id="154">
                <name>SCb-OtrB-H44</name>
                <description><![CDATA[<b>Match Type:</b> Kepler (by side_ratios)<br><b>Proportionality Factor:</b> 4.6365<br><hr><b>Vertices:</b> SCb, OtrB, H44<br><b>Angles:</b> 38.17°, 89.97°, 51.86°<br><b>Side Lengths (miles):</b> 4.6360, 7.5009, 5.8995]]></description>
                <styleUrl>#159</styleUrl>
                <Polygon id="153">
                    <outerBoundaryIs>
                        <LinearRing id="157">
                            <coordinates>-77.00442188577618,38.890621,0.0 -76.99134485249716,38.95704643888089,0.0 -77.11259304457337,38.90361498656535,0.0 -77.00442188577618,38.890621,0.0</coordinates>
                        </LinearRing>
                    </outerBoundaryIs>
                </Polygon>
            </Placemark>
        </Folder>
        <Folder id="152">
            <name>Kepler Right Triangles (1:sqrt(phi):phi)</name>
        </Folder>
    </Document>
</kml>
