<?xml version="1.0" encoding="UTF-8"?>
<kml xmlns="http://www.opengis.net/kml/2.2" xmlns:gx="http://www.google.com/kml/ext/2.2" xmlns:kml="http://www.opengis.net/kml/2.2" xmlns:atom="http://www.w3.org/2005/Atom">
<Document>
	<name>hilltops.kml</name>
	<StyleMap id="msn_shaded_dot">
		<Pair>
			<key>normal</key>
			<styleUrl>#sn_shaded_dot</styleUrl>
		</Pair>
		<Pair>
			<key>highlight</key>
			<styleUrl>#sh_shaded_dot</styleUrl>
		</Pair>
	</StyleMap>
	<StyleMap id="msn_shaded_dot0">
		<Pair>
			<key>normal</key>
			<styleUrl>#sn_shaded_dot00</styleUrl>
		</Pair>
		<Pair>
			<key>highlight</key>
			<styleUrl>#sh_shaded_dot18</styleUrl>
		</Pair>
	</StyleMap>
	<StyleMap id="msn_shaded_dot1">
		<Pair>
			<key>normal</key>
			<styleUrl>#sn_shaded_dot13</styleUrl>
		</Pair>
		<Pair>
			<key>highlight</key>
			<styleUrl>#sh_shaded_dot16</styleUrl>
		</Pair>
	</StyleMap>
	<StyleMap id="msn_shaded_dot12">
		<Pair>
			<key>normal</key>
			<styleUrl>#sn_shaded_dot8</styleUrl>
		</Pair>
		<Pair>
			<key>highlight</key>
			<styleUrl>#sh_shaded_dot12</styleUrl>
		</Pair>
	</StyleMap>
	<StyleMap id="msn_shaded_dot14">
		<Pair>
			<key>normal</key>
			<styleUrl>#sn_shaded_dot14</styleUrl>
		</Pair>
		<Pair>
			<key>highlight</key>
			<styleUrl>#sh_shaded_dot3</styleUrl>
		</Pair>
	</StyleMap>
	<StyleMap id="msn_shaded_dot15">
		<Pair>
			<key>normal</key>
			<styleUrl>#sn_shaded_dot17</styleUrl>
		</Pair>
		<Pair>
			<key>highlight</key>
			<styleUrl>#sh_shaded_dot24</styleUrl>
		</Pair>
	</StyleMap>
	<StyleMap id="msn_shaded_dot16">
		<Pair>
			<key>normal</key>
			<styleUrl>#sn_shaded_dot23</styleUrl>
		</Pair>
		<Pair>
			<key>highlight</key>
			<styleUrl>#sh_shaded_dot26</styleUrl>
		</Pair>
	</StyleMap>
	<StyleMap id="msn_shaded_dot17">
		<Pair>
			<key>normal</key>
			<styleUrl>#sn_shaded_dot02</styleUrl>
		</Pair>
		<Pair>
			<key>highlight</key>
			<styleUrl>#sh_shaded_dot10</styleUrl>
		</Pair>
	</StyleMap>
	<StyleMap id="msn_shaded_dot19">
		<Pair>
			<key>normal</key>
			<styleUrl>#sn_shaded_dot20</styleUrl>
		</Pair>
		<Pair>
			<key>highlight</key>
			<styleUrl>#sh_shaded_dot22</styleUrl>
		</Pair>
	</StyleMap>
	<StyleMap id="msn_shaded_dot23">
		<Pair>
			<key>normal</key>
			<styleUrl>#sn_shaded_dot21</styleUrl>
		</Pair>
		<Pair>
			<key>highlight</key>
			<styleUrl>#sh_shaded_dot0</styleUrl>
		</Pair>
	</StyleMap>
	<StyleMap id="msn_shaded_dot26">
		<Pair>
			<key>normal</key>
			<styleUrl>#sn_shaded_dot22</styleUrl>
		</Pair>
		<Pair>
			<key>highlight</key>
			<styleUrl>#sh_shaded_dot11</styleUrl>
		</Pair>
	</StyleMap>
	<StyleMap id="msn_shaded_dot5">
		<Pair>
			<key>normal</key>
			<styleUrl>#sn_shaded_dot19</styleUrl>
		</Pair>
		<Pair>
			<key>highlight</key>
			<styleUrl>#sh_shaded_dot20</styleUrl>
		</Pair>
	</StyleMap>
	<StyleMap id="msn_shaded_dot6">
		<Pair>
			<key>normal</key>
			<styleUrl>#sn_shaded_dot12</styleUrl>
		</Pair>
		<Pair>
			<key>highlight</key>
			<styleUrl>#sh_shaded_dot1</styleUrl>
		</Pair>
	</StyleMap>
	<Style id="sh_shaded_dot">
		<IconStyle>
			<color>f2ffff00</color>
			<scale>0.709093</scale>
			<Icon>
				<href>http://maps.google.com/mapfiles/kml/shapes/shaded_dot.png</href>
			</Icon>
		</IconStyle>
		<LabelStyle>
			<color>b3ffffff</color>
			<scale>0.4</scale>
		</LabelStyle>
		<BalloonStyle>
		</BalloonStyle>
		<ListStyle>
		</ListStyle>
		<LineStyle>
			<color>ffffb205</color>
			<width>1.2</width>
		</LineStyle>
	</Style>
	<Style id="sh_shaded_dot1">
		<IconStyle>
			<color>f2ffff00</color>
			<scale>0.709093</scale>
			<Icon>
				<href>http://maps.google.com/mapfiles/kml/shapes/shaded_dot.png</href>
			</Icon>
		</IconStyle>
		<LabelStyle>
			<color>b3ffffff</color>
			<scale>0.4</scale>
		</LabelStyle>
		<LineStyle>
			<color>ffffb205</color>
			<width>1.2</width>
		</LineStyle>
	</Style>
	<Style id="sh_shaded_dot0">
		<IconStyle>
			<color>f200ff00</color>
			<scale>0.709093</scale>
			<Icon>
				<href>http://maps.google.com/mapfiles/kml/shapes/shaded_dot.png</href>
			</Icon>
		</IconStyle>
		<LabelStyle>
			<color>b3ffffff</color>
			<scale>0.4</scale>
		</LabelStyle>
		<LineStyle>
			<color>ffffb205</color>
			<width>1.2</width>
		</LineStyle>
	</Style>
	<Style id="sh_shaded_dot10">
		<IconStyle>
			<color>f2ffff00</color>
			<scale>0.709093</scale>
			<Icon>
				<href>http://maps.google.com/mapfiles/kml/shapes/shaded_dot.png</href>
			</Icon>
		</IconStyle>
		<LabelStyle>
			<color>b3ffffff</color>
			<scale>0.4</scale>
		</LabelStyle>
		<LineStyle>
			<color>ffffb205</color>
			<width>1.2</width>
		</LineStyle>
	</Style>
	<Style id="sh_shaded_dot11">
		<IconStyle>
			<color>ffffff00</color>
			<scale>0.709093</scale>
			<Icon>
				<href>http://maps.google.com/mapfiles/kml/shapes/shaded_dot.png</href>
			</Icon>
		</IconStyle>
		<LabelStyle>
			<color>b3ffffff</color>
			<scale>0.4</scale>
		</LabelStyle>
		<LineStyle>
			<color>ffffb205</color>
			<width>1.2</width>
		</LineStyle>
	</Style>
	<Style id="sh_shaded_dot12">
		<IconStyle>
			<color>f2ffff00</color>
			<scale>0.709093</scale>
			<Icon>
				<href>http://maps.google.com/mapfiles/kml/shapes/shaded_dot.png</href>
			</Icon>
		</IconStyle>
		<LabelStyle>
			<color>b3ffffff</color>
			<scale>0.4</scale>
		</LabelStyle>
		<LineStyle>
			<color>ffffb205</color>
			<width>1.2</width>
		</LineStyle>
	</Style>
	<Style id="sh_shaded_dot16">
		<IconStyle>
			<color>f2ffff00</color>
			<scale>0.709093</scale>
			<Icon>
				<href>http://maps.google.com/mapfiles/kml/shapes/shaded_dot.png</href>
			</Icon>
		</IconStyle>
		<LabelStyle>
			<color>b3ffffff</color>
			<scale>0.4</scale>
		</LabelStyle>
		<LineStyle>
			<color>ffffb205</color>
			<width>1.2</width>
		</LineStyle>
	</Style>
	<Style id="sh_shaded_dot18">
		<IconStyle>
			<color>f2ffff00</color>
			<scale>0.709093</scale>
			<Icon>
				<href>http://maps.google.com/mapfiles/kml/shapes/shaded_dot.png</href>
			</Icon>
		</IconStyle>
		<LabelStyle>
			<color>b3ffffff</color>
			<scale>0.4</scale>
		</LabelStyle>
		<LineStyle>
			<color>ffffb205</color>
			<width>1.2</width>
		</LineStyle>
	</Style>
	<Style id="sh_shaded_dot20">
		<IconStyle>
			<color>f2ffaaaa</color>
			<scale>0.709093</scale>
			<Icon>
				<href>http://maps.google.com/mapfiles/kml/shapes/shaded_dot.png</href>
			</Icon>
		</IconStyle>
		<LabelStyle>
			<color>b3ffffff</color>
			<scale>0.4</scale>
		</LabelStyle>
		<LineStyle>
			<color>ffffb205</color>
			<width>1.2</width>
		</LineStyle>
	</Style>
	<Style id="sh_shaded_dot22">
		<IconStyle>
			<color>f2ffff00</color>
			<scale>0.709093</scale>
			<Icon>
				<href>http://maps.google.com/mapfiles/kml/shapes/shaded_dot.png</href>
			</Icon>
		</IconStyle>
		<LabelStyle>
			<color>b3ffffff</color>
			<scale>0.4</scale>
		</LabelStyle>
		<LineStyle>
			<color>ffffb205</color>
			<width>1.2</width>
		</LineStyle>
	</Style>
	<Style id="sh_shaded_dot24">
		<IconStyle>
			<color>f2ffff00</color>
			<scale>0.709093</scale>
			<Icon>
				<href>http://maps.google.com/mapfiles/kml/shapes/shaded_dot.png</href>
			</Icon>
		</IconStyle>
		<LabelStyle>
			<color>b3ffffff</color>
			<scale>0.4</scale>
		</LabelStyle>
		<LineStyle>
			<color>ffffb205</color>
			<width>1.2</width>
		</LineStyle>
	</Style>
	<Style id="sh_shaded_dot26">
		<IconStyle>
			<color>f2ffff00</color>
			<scale>0.709093</scale>
			<Icon>
				<href>http://maps.google.com/mapfiles/kml/shapes/shaded_dot.png</href>
			</Icon>
		</IconStyle>
		<LabelStyle>
			<color>b3ffffff</color>
			<scale>0.4</scale>
		</LabelStyle>
		<LineStyle>
			<color>ffffb205</color>
			<width>1.2</width>
		</LineStyle>
	</Style>
	<Style id="sh_shaded_dot3">
		<IconStyle>
			<color>f200ff00</color>
			<scale>0.709093</scale>
			<Icon>
				<href>http://maps.google.com/mapfiles/kml/shapes/shaded_dot.png</href>
			</Icon>
		</IconStyle>
		<LabelStyle>
			<color>b3ffffff</color>
			<scale>0.4</scale>
		</LabelStyle>
		<LineStyle>
			<color>ffffb205</color>
			<width>1.2</width>
		</LineStyle>
	</Style>
	<Style id="sn_shaded_dot">
		<IconStyle>
			<color>f2ffff00</color>
			<scale>0.6</scale>
			<Icon>
				<href>http://maps.google.com/mapfiles/kml/shapes/shaded_dot.png</href>
			</Icon>
		</IconStyle>
		<LabelStyle>
			<color>b3ffffff</color>
			<scale>0.4</scale>
		</LabelStyle>
		<BalloonStyle>
		</BalloonStyle>
		<ListStyle>
		</ListStyle>
		<LineStyle>
			<color>ffffb205</color>
			<width>1.2</width>
		</LineStyle>
	</Style>
	<Style id="sn_shaded_dot00">
		<IconStyle>
			<color>f2ffff00</color>
			<scale>0.6</scale>
			<Icon>
				<href>http://maps.google.com/mapfiles/kml/shapes/shaded_dot.png</href>
			</Icon>
		</IconStyle>
		<LabelStyle>
			<color>b3ffffff</color>
			<scale>0.4</scale>
		</LabelStyle>
		<LineStyle>
			<color>ffffb205</color>
			<width>1.2</width>
		</LineStyle>
	</Style>
	<Style id="sn_shaded_dot02">
		<IconStyle>
			<color>f2ffff00</color>
			<scale>0.6</scale>
			<Icon>
				<href>http://maps.google.com/mapfiles/kml/shapes/shaded_dot.png</href>
			</Icon>
		</IconStyle>
		<LabelStyle>
			<color>b3ffffff</color>
			<scale>0.4</scale>
		</LabelStyle>
		<LineStyle>
			<color>ffffb205</color>
			<width>1.2</width>
		</LineStyle>
	</Style>
	<Style id="sn_shaded_dot12">
		<IconStyle>
			<color>f2ffff00</color>
			<scale>0.6</scale>
			<Icon>
				<href>http://maps.google.com/mapfiles/kml/shapes/shaded_dot.png</href>
			</Icon>
		</IconStyle>
		<LabelStyle>
			<color>b3ffffff</color>
			<scale>0.4</scale>
		</LabelStyle>
		<LineStyle>
			<color>ffffb205</color>
			<width>1.2</width>
		</LineStyle>
	</Style>
	<Style id="sn_shaded_dot13">
		<IconStyle>
			<color>f2ffff00</color>
			<scale>0.6</scale>
			<Icon>
				<href>http://maps.google.com/mapfiles/kml/shapes/shaded_dot.png</href>
			</Icon>
		</IconStyle>
		<LabelStyle>
			<color>b3ffffff</color>
			<scale>0.4</scale>
		</LabelStyle>
		<LineStyle>
			<color>ffffb205</color>
			<width>1.2</width>
		</LineStyle>
	</Style>
	<Style id="sn_shaded_dot14">
		<IconStyle>
			<color>f200ff00</color>
			<scale>0.6</scale>
			<Icon>
				<href>http://maps.google.com/mapfiles/kml/shapes/shaded_dot.png</href>
			</Icon>
		</IconStyle>
		<LabelStyle>
			<color>b3ffffff</color>
			<scale>0.4</scale>
		</LabelStyle>
		<LineStyle>
			<color>ffffb205</color>
			<width>1.2</width>
		</LineStyle>
	</Style>
	<Style id="sn_shaded_dot17">
		<IconStyle>
			<color>f2ffff00</color>
			<scale>0.6</scale>
			<Icon>
				<href>http://maps.google.com/mapfiles/kml/shapes/shaded_dot.png</href>
			</Icon>
		</IconStyle>
		<LabelStyle>
			<color>b3ffffff</color>
			<scale>0.4</scale>
		</LabelStyle>
		<LineStyle>
			<color>ffffb205</color>
			<width>1.2</width>
		</LineStyle>
	</Style>
	<Style id="sn_shaded_dot19">
		<IconStyle>
			<color>f2ffaaaa</color>
			<scale>0.6</scale>
			<Icon>
				<href>http://maps.google.com/mapfiles/kml/shapes/shaded_dot.png</href>
			</Icon>
		</IconStyle>
		<LabelStyle>
			<color>b3ffffff</color>
			<scale>0.4</scale>
		</LabelStyle>
		<LineStyle>
			<color>ffffb205</color>
			<width>1.2</width>
		</LineStyle>
	</Style>
	<Style id="sn_shaded_dot20">
		<IconStyle>
			<color>f2ffff00</color>
			<scale>0.6</scale>
			<Icon>
				<href>http://maps.google.com/mapfiles/kml/shapes/shaded_dot.png</href>
			</Icon>
		</IconStyle>
		<LabelStyle>
			<color>b3ffffff</color>
			<scale>0.4</scale>
		</LabelStyle>
		<LineStyle>
			<color>ffffb205</color>
			<width>1.2</width>
		</LineStyle>
	</Style>
	<Style id="sn_shaded_dot21">
		<IconStyle>
			<color>f200ff00</color>
			<scale>0.6</scale>
			<Icon>
				<href>http://maps.google.com/mapfiles/kml/shapes/shaded_dot.png</href>
			</Icon>
		</IconStyle>
		<LabelStyle>
			<color>b3ffffff</color>
			<scale>0.4</scale>
		</LabelStyle>
		<LineStyle>
			<color>ffffb205</color>
			<width>1.2</width>
		</LineStyle>
	</Style>
	<Style id="sn_shaded_dot22">
		<IconStyle>
			<color>ffffff00</color>
			<scale>0.6</scale>
			<Icon>
				<href>http://maps.google.com/mapfiles/kml/shapes/shaded_dot.png</href>
			</Icon>
		</IconStyle>
		<LabelStyle>
			<color>b3ffffff</color>
			<scale>0.4</scale>
		</LabelStyle>
		<LineStyle>
			<color>ffffb205</color>
			<width>1.2</width>
		</LineStyle>
	</Style>
	<Style id="sn_shaded_dot23">
		<IconStyle>
			<color>f2ffff00</color>
			<scale>0.6</scale>
			<Icon>
				<href>http://maps.google.com/mapfiles/kml/shapes/shaded_dot.png</href>
			</Icon>
		</IconStyle>
		<LabelStyle>
			<color>b3ffffff</color>
			<scale>0.4</scale>
		</LabelStyle>
		<LineStyle>
			<color>ffffb205</color>
			<width>1.2</width>
		</LineStyle>
	</Style>
	<Style id="sn_shaded_dot8">
		<IconStyle>
			<color>f2ffff00</color>
			<scale>0.6</scale>
			<Icon>
				<href>http://maps.google.com/mapfiles/kml/shapes/shaded_dot.png</href>
			</Icon>
		</IconStyle>
		<LabelStyle>
			<color>b3ffffff</color>
			<scale>0.4</scale>
		</LabelStyle>
		<LineStyle>
			<color>ffffb205</color>
			<width>1.2</width>
		</LineStyle>
	</Style>
	<Folder>
		<name>Hilltops</name>
		<Placemark>
			<name>H79</name>
			<LookAt>
				<longitude>-77.09212195339286</longitude>
				<latitude>38.81897618187132</latitude>
				<altitude>0</altitude>
				<heading>-28.99615859091372</heading>
				<tilt>0</tilt>
				<range>632.9188321443942</range>
				<gx:altitudeMode>relativeToSeaFloor</gx:altitudeMode>
			</LookAt>
			<styleUrl>#msn_shaded_dot16</styleUrl>
			<Point>
				<extrude>1</extrude>
				<altitudeMode>relativeToGround</altitudeMode>
				<gx:drawOrder>1</gx:drawOrder>
				<coordinates>-77.09249520755921,38.81970378763515,66</coordinates>
			</Point>
		</Placemark>
		<Placemark>
			<name>NO</name>
			<LookAt>
				<longitude>-77.06717090886728</longitude>
				<latitude>38.92153325549694</latitude>
				<altitude>55.61254714781082</altitude>
				<heading>-0.006767035227698268</heading>
				<tilt>0</tilt>
				<range>71.28350507486542</range>
				<gx:altitudeMode>relativeToSeaFloor</gx:altitudeMode>
			</LookAt>
			<styleUrl>#msn_shaded_dot17</styleUrl>
			<Point>
				<extrude>1</extrude>
				<altitudeMode>relativeToGround</altitudeMode>
				<gx:drawOrder>1</gx:drawOrder>
				<coordinates>-77.06715108613983,38.92151552417594,111</coordinates>
			</Point>
		</Placemark>
		<Placemark>
			<name>H66</name>
			<LookAt>
				<longitude>-77.10101368579197</longitude>
				<latitude>38.90516878875509</latitude>
				<altitude>0</altitude>
				<heading>-126.351515072801</heading>
				<tilt>30.46196418763722</tilt>
				<range>810.2730251905255</range>
				<gx:altitudeMode>relativeToSeaFloor</gx:altitudeMode>
			</LookAt>
			<styleUrl>#msn_shaded_dot17</styleUrl>
			<Point>
				<extrude>1</extrude>
				<altitudeMode>relativeToGround</altitudeMode>
				<gx:drawOrder>1</gx:drawOrder>
				<coordinates>-77.10094955658019,38.90533124793031,66</coordinates>
			</Point>
		</Placemark>
		<Placemark>
			<name>H67</name>
			<Camera>
				<longitude>-77.08922930421467</longitude>
				<latitude>38.91550877252504</latitude>
				<altitude>414.5532778303631</altitude>
				<heading>-27.41606729688327</heading>
				<tilt>0.1845676707331085</tilt>
				<roll>89.51782983133583</roll>
				<gx:altitudeMode>relativeToSeaFloor</gx:altitudeMode>
			</Camera>
			<styleUrl>#msn_shaded_dot17</styleUrl>
			<Point>
				<extrude>1</extrude>
				<altitudeMode>relativeToGround</altitudeMode>
				<gx:drawOrder>1</gx:drawOrder>
				<coordinates>-77.08923640277803,38.91551942120227,66</coordinates>
			</Point>
		</Placemark>
		<Placemark>
			<name>H68</name>
			<Camera>
				<longitude>-77.05049499016789</longitude>
				<latitude>38.89255443832852</latitude>
				<altitude>76.73243954024369</altitude>
				<heading>-11.48760217402149</heading>
				<tilt>92.12032813761594</tilt>
				<roll>-0.0003962239936097531</roll>
				<gx:altitudeMode>relativeToSeaFloor</gx:altitudeMode>
			</Camera>
			<styleUrl>#msn_shaded_dot0</styleUrl>
			<Point>
				<extrude>1</extrude>
				<altitudeMode>relativeToGround</altitudeMode>
				<gx:drawOrder>1</gx:drawOrder>
				<coordinates>-77.05071924388986,38.89412312383742,66</coordinates>
			</Point>
		</Placemark>
		<Placemark>
			<name>H69</name>
			<LookAt>
				<longitude>-77.0722267041271</longitude>
				<latitude>38.87685920939965</latitude>
				<altitude>0</altitude>
				<heading>-103.6846164297869</heading>
				<tilt>73.8474604213405</tilt>
				<range>459.1379958081993</range>
				<gx:altitudeMode>relativeToSeaFloor</gx:altitudeMode>
			</LookAt>
			<styleUrl>#msn_shaded_dot17</styleUrl>
			<Point>
				<extrude>1</extrude>
				<altitudeMode>relativeToGround</altitudeMode>
				<gx:drawOrder>1</gx:drawOrder>
				<coordinates>-77.07234178427055,38.87633745296441,66</coordinates>
			</Point>
		</Placemark>
		<Placemark>
			<name>H70</name>
			<LookAt>
				<longitude>-77.0715408469804</longitude>
				<latitude>38.87440682362214</latitude>
				<altitude>0</altitude>
				<heading>-103.6841859425101</heading>
				<tilt>73.84841746927709</tilt>
				<range>570.056810115854</range>
				<gx:altitudeMode>relativeToSeaFloor</gx:altitudeMode>
			</LookAt>
			<styleUrl>#msn_shaded_dot17</styleUrl>
			<Point>
				<extrude>1</extrude>
				<altitudeMode>relativeToGround</altitudeMode>
				<gx:drawOrder>1</gx:drawOrder>
				<coordinates>-77.07038741369139,38.8737311478417,66</coordinates>
			</Point>
		</Placemark>
		<Placemark>
			<name>H71</name>
			<LookAt>
				<longitude>-77.00750341346131</longitude>
				<latitude>38.88900910286353</latitude>
				<altitude>0</altitude>
				<heading>-97.87543496775054</heading>
				<tilt>74.23962389608049</tilt>
				<range>670.0732789840221</range>
				<gx:altitudeMode>relativeToSeaFloor</gx:altitudeMode>
			</LookAt>
			<styleUrl>#msn_shaded_dot17</styleUrl>
			<Point>
				<extrude>1</extrude>
				<altitudeMode>relativeToGround</altitudeMode>
				<gx:drawOrder>1</gx:drawOrder>
				<coordinates>-77.00793310857824,38.88979671201595,66</coordinates>
			</Point>
		</Placemark>
		<Placemark>
			<name>H72</name>
			<LookAt>
				<longitude>-77.01222255861975</longitude>
				<latitude>38.88941586438295</latitude>
				<altitude>0</altitude>
				<heading>-97.87839777903203</heading>
				<tilt>74.24293392293241</tilt>
				<range>1052.94124411426</range>
				<gx:altitudeMode>relativeToSeaFloor</gx:altitudeMode>
			</LookAt>
			<styleUrl>#msn_shaded_dot17</styleUrl>
			<Point>
				<extrude>1</extrude>
				<altitudeMode>relativeToGround</altitudeMode>
				<gx:drawOrder>1</gx:drawOrder>
				<coordinates>-77.00509642471428,38.89062238734033,66</coordinates>
			</Point>
		</Placemark>
		<Placemark>
			<name>H73</name>
			<LookAt>
				<longitude>-77.0743218331759</longitude>
				<latitude>38.89749323586066</latitude>
				<altitude>0</altitude>
				<heading>-89.34316609776971</heading>
				<tilt>89.38314750527104</tilt>
				<range>3715.329198433071</range>
				<gx:altitudeMode>relativeToSeaFloor</gx:altitudeMode>
			</LookAt>
			<styleUrl>#msn_shaded_dot17</styleUrl>
			<Point>
				<extrude>1</extrude>
				<altitudeMode>relativeToGround</altitudeMode>
				<gx:drawOrder>1</gx:drawOrder>
				<coordinates>-77.036556,38.897786,66</coordinates>
			</Point>
		</Placemark>
		<Placemark>
			<name>H81</name>
			<LookAt>
				<longitude>-76.93117767937731</longitude>
				<latitude>38.88611940091499</latitude>
				<altitude>0</altitude>
				<heading>104.6507586987116</heading>
				<tilt>78.1528637219108</tilt>
				<range>548.8141150141993</range>
				<gx:altitudeMode>relativeToSeaFloor</gx:altitudeMode>
			</LookAt>
			<styleUrl>#msn_shaded_dot17</styleUrl>
			<Point>
				<extrude>1</extrude>
				<altitudeMode>relativeToGround</altitudeMode>
				<gx:drawOrder>1</gx:drawOrder>
				<coordinates>-76.9299762903957,38.88687029383775,66</coordinates>
			</Point>
		</Placemark>
		<Placemark>
			<name>H82</name>
			<LookAt>
				<longitude>-76.91435061673258</longitude>
				<latitude>38.89283117673259</latitude>
				<altitude>0</altitude>
				<heading>-87.05439099621223</heading>
				<tilt>79.86334565150557</tilt>
				<range>2041.545948169123</range>
				<gx:altitudeMode>relativeToSeaFloor</gx:altitudeMode>
			</LookAt>
			<styleUrl>#msn_shaded_dot17</styleUrl>
			<Point>
				<extrude>1</extrude>
				<altitudeMode>relativeToGround</altitudeMode>
				<gx:drawOrder>1</gx:drawOrder>
				<coordinates>-76.89913404143027,38.89171917644201,66</coordinates>
			</Point>
		</Placemark>
		<Placemark>
			<name>H83</name>
			<LookAt>
				<longitude>-76.91379590516017</longitude>
				<latitude>38.88460199554675</latitude>
				<altitude>0</altitude>
				<heading>124.2837609628749</heading>
				<tilt>70.44759814263685</tilt>
				<range>1135.636213314719</range>
				<gx:altitudeMode>relativeToSeaFloor</gx:altitudeMode>
			</LookAt>
			<styleUrl>#msn_shaded_dot17</styleUrl>
			<Point>
				<extrude>1</extrude>
				<altitudeMode>relativeToGround</altitudeMode>
				<gx:drawOrder>1</gx:drawOrder>
				<coordinates>-76.91666972637707,38.8868785411351,66</coordinates>
			</Point>
		</Placemark>
		<Placemark>
			<name>H84</name>
			<LookAt>
				<longitude>-77.04658351277105</longitude>
				<latitude>38.99120719771257</latitude>
				<altitude>0</altitude>
				<heading>-6.178115041448814</heading>
				<tilt>73.05774642247772</tilt>
				<range>560.5687686624379</range>
				<gx:altitudeMode>relativeToSeaFloor</gx:altitudeMode>
			</LookAt>
			<styleUrl>#msn_shaded_dot6</styleUrl>
			<Point>
				<extrude>1</extrude>
				<altitudeMode>relativeToGround</altitudeMode>
				<gx:drawOrder>1</gx:drawOrder>
				<coordinates>-77.04664850305308,38.9896929685426,66</coordinates>
			</Point>
		</Placemark>
		<Placemark>
			<name>H85</name>
			<LookAt>
				<longitude>-77.01240672870637</longitude>
				<latitude>38.84920114033948</latitude>
				<altitude>0</altitude>
				<heading>-172.7004258771502</heading>
				<tilt>71.4557263551239</tilt>
				<range>3013.803786559253</range>
				<gx:altitudeMode>relativeToSeaFloor</gx:altitudeMode>
			</LookAt>
			<styleUrl>#msn_shaded_dot17</styleUrl>
			<Point>
				<extrude>1</extrude>
				<altitudeMode>relativeToGround</altitudeMode>
				<gx:drawOrder>1</gx:drawOrder>
				<coordinates>-77.00230868175505,38.85496927623966,66</coordinates>
			</Point>
		</Placemark>
		<Placemark>
			<name>H88</name>
			<LookAt>
				<longitude>-77.00536040864864</longitude>
				<latitude>38.84961112265357</latitude>
				<altitude>0</altitude>
				<heading>75.95914105760626</heading>
				<tilt>52.46432866086699</tilt>
				<range>296.8313510262874</range>
				<gx:altitudeMode>relativeToSeaFloor</gx:altitudeMode>
			</LookAt>
			<styleUrl>#msn_shaded_dot</styleUrl>
			<Point>
				<extrude>1</extrude>
				<altitudeMode>relativeToGround</altitudeMode>
				<gx:drawOrder>1</gx:drawOrder>
				<coordinates>-77.00492179089107,38.84950002068123,66</coordinates>
			</Point>
		</Placemark>
		<Placemark>
			<name>H77</name>
			<LookAt>
				<longitude>-77.03776173775044</longitude>
				<latitude>38.89772181369853</latitude>
				<altitude>0</altitude>
				<heading>17.81885883866191</heading>
				<tilt>12.64523340536161</tilt>
				<range>1082.99189473325</range>
				<gx:altitudeMode>relativeToSeaFloor</gx:altitudeMode>
			</LookAt>
			<styleUrl>#msn_shaded_dot17</styleUrl>
			<Point>
				<extrude>1</extrude>
				<altitudeMode>relativeToGround</altitudeMode>
				<gx:drawOrder>1</gx:drawOrder>
				<coordinates>-77.03762786655247,38.89703882730361,66</coordinates>
			</Point>
		</Placemark>
		<Placemark>
			<name>H1</name>
			<LookAt>
				<longitude>-76.94283359967845</longitude>
				<latitude>38.88881083489753</latitude>
				<altitude>0</altitude>
				<heading>84.93968909729799</heading>
				<tilt>36.10940166679985</tilt>
				<range>33.85623053159224</range>
				<gx:altitudeMode>relativeToSeaFloor</gx:altitudeMode>
			</LookAt>
			<styleUrl>#msn_shaded_dot17</styleUrl>
			<Point>
				<extrude>1</extrude>
				<altitudeMode>relativeToGround</altitudeMode>
				<gx:drawOrder>1</gx:drawOrder>
				<coordinates>-76.94260833105993,38.8886977845543,66</coordinates>
			</Point>
		</Placemark>
		<Placemark>
			<name>H2</name>
			<LookAt>
				<longitude>-76.94429910811849</longitude>
				<latitude>38.89510964895052</latitude>
				<altitude>0</altitude>
				<heading>27.36120511897575</heading>
				<tilt>28.07026457909716</tilt>
				<range>80.44960737496243</range>
				<gx:altitudeMode>relativeToSeaFloor</gx:altitudeMode>
			</LookAt>
			<styleUrl>#msn_shaded_dot17</styleUrl>
			<Point>
				<extrude>1</extrude>
				<altitudeMode>relativeToGround</altitudeMode>
				<gx:drawOrder>1</gx:drawOrder>
				<coordinates>-76.94445209003267,38.89530260371541,66</coordinates>
			</Point>
		</Placemark>
		<Placemark>
			<name>H3</name>
			<Camera>
				<longitude>-76.95748368423828</longitude>
				<latitude>38.91253354267205</latitude>
				<altitude>75.81293318336539</altitude>
				<heading>-102.708850439031</heading>
				<tilt>0.05757036036829013</tilt>
				<roll>89.1698040813888</roll>
				<gx:altitudeMode>relativeToSeaFloor</gx:altitudeMode>
			</Camera>
			<styleUrl>#msn_shaded_dot17</styleUrl>
			<Point>
				<extrude>1</extrude>
				<altitudeMode>relativeToGround</altitudeMode>
				<gx:drawOrder>1</gx:drawOrder>
				<coordinates>-76.95753965779575,38.91261938767948,66</coordinates>
			</Point>
		</Placemark>
		<Placemark>
			<name>H4</name>
			<LookAt>
				<longitude>-76.9479421315405</longitude>
				<latitude>38.88480974350178</latitude>
				<altitude>0</altitude>
				<heading>138.326383272423</heading>
				<tilt>41.23788446847087</tilt>
				<range>39.64549889795649</range>
				<gx:altitudeMode>relativeToSeaFloor</gx:altitudeMode>
			</LookAt>
			<styleUrl>#msn_shaded_dot17</styleUrl>
			<Point>
				<extrude>1</extrude>
				<altitudeMode>relativeToGround</altitudeMode>
				<gx:drawOrder>1</gx:drawOrder>
				<coordinates>-76.94802356218872,38.88482072759572,66</coordinates>
			</Point>
		</Placemark>
		<Placemark>
			<name>H5</name>
			<open>1</open>
			<LookAt>
				<longitude>-76.9402513476077</longitude>
				<latitude>38.87276503844644</latitude>
				<altitude>0</altitude>
				<heading>-140.9982213753299</heading>
				<tilt>44.94811195165669</tilt>
				<range>102.0472944055531</range>
				<gx:altitudeMode>relativeToSeaFloor</gx:altitudeMode>
			</LookAt>
			<styleUrl>#msn_shaded_dot26</styleUrl>
			<Point>
				<extrude>1</extrude>
				<altitudeMode>relativeToGround</altitudeMode>
				<gx:drawOrder>1</gx:drawOrder>
				<coordinates>-76.94019736733574,38.87280409544193,66</coordinates>
			</Point>
		</Placemark>
		<Placemark>
			<name>H6</name>
			<Camera>
				<longitude>-76.99335689574919</longitude>
				<latitude>38.91160305207332</latitude>
				<altitude>138.9086582680746</altitude>
				<heading>-62.76077650098662</heading>
				<tilt>0.01651155371743496</tilt>
				<roll>90.0038523418457</roll>
				<gx:altitudeMode>relativeToSeaFloor</gx:altitudeMode>
			</Camera>
			<styleUrl>#msn_shaded_dot17</styleUrl>
			<Point>
				<extrude>1</extrude>
				<altitudeMode>relativeToGround</altitudeMode>
				<gx:drawOrder>1</gx:drawOrder>
				<coordinates>-76.99354999156952,38.91158285649807,66</coordinates>
			</Point>
		</Placemark>
		<Placemark>
			<name>H7</name>
			<LookAt>
				<longitude>-76.97625569500234</longitude>
				<latitude>38.91816163808006</latitude>
				<altitude>0</altitude>
				<heading>-5.075091240701057</heading>
				<tilt>81.22217874564748</tilt>
				<range>1215.885781203965</range>
				<gx:altitudeMode>relativeToSeaFloor</gx:altitudeMode>
			</LookAt>
			<styleUrl>#msn_shaded_dot0</styleUrl>
			<Point>
				<extrude>1</extrude>
				<altitudeMode>relativeToGround</altitudeMode>
				<gx:drawOrder>1</gx:drawOrder>
				<coordinates>-76.97540464909751,38.90856884148683,66</coordinates>
			</Point>
		</Placemark>
		<Placemark>
			<name>H8</name>
			<LookAt>
				<longitude>-76.95932634155616</longitude>
				<latitude>38.92596145503213</latitude>
				<altitude>0</altitude>
				<heading>-177.1272309642876</heading>
				<tilt>39.37832145199678</tilt>
				<range>254.8978639676916</range>
				<gx:altitudeMode>relativeToSeaFloor</gx:altitudeMode>
			</LookAt>
			<styleUrl>#msn_shaded_dot15</styleUrl>
			<Point>
				<extrude>1</extrude>
				<altitudeMode>relativeToGround</altitudeMode>
				<gx:drawOrder>1</gx:drawOrder>
				<coordinates>-76.95853332476764,38.92609741015503,66</coordinates>
			</Point>
		</Placemark>
		<Placemark>
			<name>H79</name>
			<LookAt>
				<longitude>-76.94410983865804</longitude>
				<latitude>38.82189235364486</latitude>
				<altitude>0</altitude>
				<heading>-175.9050322185516</heading>
				<tilt>53.54877519389029</tilt>
				<range>603.0268446915696</range>
				<gx:altitudeMode>relativeToSeaFloor</gx:altitudeMode>
			</LookAt>
			<styleUrl>#msn_shaded_dot15</styleUrl>
			<Point>
				<extrude>1</extrude>
				<altitudeMode>relativeToGround</altitudeMode>
				<gx:drawOrder>1</gx:drawOrder>
				<coordinates>-76.94346972840613,38.82109787567701,66</coordinates>
			</Point>
		</Placemark>
		<Placemark>
			<name>H10</name>
			<Camera>
				<longitude>-76.97060362189328</longitude>
				<latitude>38.85236001199961</latitude>
				<altitude>106.0166996488984</altitude>
				<heading>113.2154878363577</heading>
				<tilt>0.06529553197953229</tilt>
				<roll>12.17748274522294</roll>
				<gx:altitudeMode>relativeToSeaFloor</gx:altitudeMode>
			</Camera>
			<styleUrl>#msn_shaded_dot17</styleUrl>
			<Point>
				<extrude>1</extrude>
				<altitudeMode>relativeToGround</altitudeMode>
				<gx:drawOrder>1</gx:drawOrder>
				<coordinates>-76.97060234106708,38.8523595842144,66</coordinates>
			</Point>
		</Placemark>
		<Placemark>
			<name>H11</name>
			<Camera>
				<longitude>-77.00443838855342</longitude>
				<latitude>38.91469988398221</latitude>
				<altitude>123.8564216886435</altitude>
				<heading>13.94856800079511</heading>
				<tilt>0.02636046685251909</tilt>
				<roll>132.9336482843617</roll>
				<gx:altitudeMode>relativeToSeaFloor</gx:altitudeMode>
			</Camera>
			<styleUrl>#msn_shaded_dot17</styleUrl>
			<Point>
				<extrude>1</extrude>
				<altitudeMode>relativeToGround</altitudeMode>
				<gx:drawOrder>1</gx:drawOrder>
				<coordinates>-77.00464832626309,38.9146495509119,66</coordinates>
			</Point>
		</Placemark>
		<Placemark>
			<name>H12</name>
			<LookAt>
				<longitude>-76.94901527183805</longitude>
				<latitude>38.91974253235791</latitude>
				<altitude>0</altitude>
				<heading>-120.3042069286735</heading>
				<tilt>23.6577431060805</tilt>
				<range>197.9874286716565</range>
				<gx:altitudeMode>relativeToSeaFloor</gx:altitudeMode>
			</LookAt>
			<styleUrl>#msn_shaded_dot17</styleUrl>
			<Point>
				<extrude>1</extrude>
				<altitudeMode>relativeToGround</altitudeMode>
				<gx:drawOrder>1</gx:drawOrder>
				<coordinates>-76.94844865915428,38.92005589287478,66</coordinates>
			</Point>
		</Placemark>
		<Placemark>
			<name>H13</name>
			<LookAt>
				<longitude>-77.0138444551025</longitude>
				<latitude>38.94580609608838</latitude>
				<altitude>0</altitude>
				<heading>176.3836732982185</heading>
				<tilt>27.4350946508673</tilt>
				<range>173.8139136122697</range>
				<gx:altitudeMode>relativeToSeaFloor</gx:altitudeMode>
			</LookAt>
			<styleUrl>#msn_shaded_dot17</styleUrl>
			<Point>
				<extrude>1</extrude>
				<altitudeMode>relativeToGround</altitudeMode>
				<gx:drawOrder>1</gx:drawOrder>
				<coordinates>-77.01391219662139,38.94626278806017,66</coordinates>
			</Point>
		</Placemark>
		<Placemark>
			<name>H14</name>
			<LookAt>
				<longitude>-77.00436614741096</longitude>
				<latitude>38.94813352005457</latitude>
				<altitude>0</altitude>
				<heading>-88.16124410452376</heading>
				<tilt>20.99936429067575</tilt>
				<range>163.9304035560585</range>
				<gx:altitudeMode>relativeToSeaFloor</gx:altitudeMode>
			</LookAt>
			<styleUrl>#msn_shaded_dot17</styleUrl>
			<Point>
				<extrude>1</extrude>
				<altitudeMode>relativeToGround</altitudeMode>
				<gx:drawOrder>1</gx:drawOrder>
				<coordinates>-77.00488617449683,38.94810598312986,66</coordinates>
			</Point>
		</Placemark>
		<Placemark>
			<name>H15</name>
			<LookAt>
				<longitude>-77.01140976324753</longitude>
				<latitude>38.94206814618089</latitude>
				<altitude>0</altitude>
				<heading>-47.60931682611773</heading>
				<tilt>0</tilt>
				<range>145.6002424735044</range>
				<gx:altitudeMode>relativeToSeaFloor</gx:altitudeMode>
			</LookAt>
			<styleUrl>#msn_shaded_dot17</styleUrl>
			<Point>
				<extrude>1</extrude>
				<altitudeMode>relativeToGround</altitudeMode>
				<gx:drawOrder>1</gx:drawOrder>
				<coordinates>-77.0116503687828,38.94209655959001,66</coordinates>
			</Point>
		</Placemark>
		<Placemark>
			<name>H16</name>
			<Camera>
				<longitude>-77.07889484432434</longitude>
				<latitude>38.85709085923281</latitude>
				<altitude>349.1694666131211</altitude>
				<heading>156.8434548359836</heading>
				<tilt>0.804043670660621</tilt>
				<roll>-81.03838562385097</roll>
				<gx:altitudeMode>relativeToSeaFloor</gx:altitudeMode>
			</Camera>
			<styleUrl>#msn_shaded_dot17</styleUrl>
			<Point>
				<extrude>1</extrude>
				<altitudeMode>relativeToGround</altitudeMode>
				<gx:drawOrder>1</gx:drawOrder>
				<coordinates>-77.07878174827624,38.85714684343603,66</coordinates>
			</Point>
		</Placemark>
		<Placemark>
			<name>H17</name>
			<Camera>
				<longitude>-77.07244994074456</longitude>
				<latitude>38.88147992912072</latitude>
				<altitude>160.5300458158599</altitude>
				<heading>60.71981719880243</heading>
				<tilt>2.922679885477776</tilt>
				<roll>-15.83270592983976</roll>
				<gx:altitudeMode>relativeToSeaFloor</gx:altitudeMode>
			</Camera>
			<styleUrl>#msn_shaded_dot17</styleUrl>
			<Point>
				<extrude>1</extrude>
				<altitudeMode>relativeToGround</altitudeMode>
				<gx:drawOrder>1</gx:drawOrder>
				<coordinates>-77.07262942237935,38.88123302803294,66</coordinates>
			</Point>
		</Placemark>
		<Placemark>
			<name>H18</name>
			<Camera>
				<longitude>-77.05978921617221</longitude>
				<latitude>38.8472927371859</latitude>
				<altitude>136.3818878471188</altitude>
				<heading>162.8359045199476</heading>
				<tilt>2.432000556386513</tilt>
				<roll>-79.86935237903104</roll>
				<gx:altitudeMode>relativeToSeaFloor</gx:altitudeMode>
			</Camera>
			<styleUrl>#msn_shaded_dot17</styleUrl>
			<Point>
				<extrude>1</extrude>
				<altitudeMode>relativeToGround</altitudeMode>
				<gx:drawOrder>1</gx:drawOrder>
				<coordinates>-77.05980194453166,38.84731156871057,66</coordinates>
			</Point>
		</Placemark>
		<Placemark>
			<name>H19</name>
			<Camera>
				<longitude>-77.07783443540235</longitude>
				<latitude>38.91542369389239</latitude>
				<altitude>371.2988777407521</altitude>
				<heading>-132.7053762303146</heading>
				<tilt>2.380413986255782</tilt>
				<roll>-86.94585192756915</roll>
				<gx:altitudeMode>relativeToSeaFloor</gx:altitudeMode>
			</Camera>
			<styleUrl>#msn_shaded_dot17</styleUrl>
			<Point>
				<extrude>1</extrude>
				<altitudeMode>relativeToGround</altitudeMode>
				<gx:drawOrder>1</gx:drawOrder>
				<coordinates>-77.07888357211404,38.91560586754403,66</coordinates>
			</Point>
		</Placemark>
		<Placemark>
			<name>H20</name>
			<Camera>
				<longitude>-77.07785118538045</longitude>
				<latitude>38.92276840510066</latitude>
				<altitude>225.4151342568034</altitude>
				<heading>-44.65768706167297</heading>
				<tilt>3.187133798176322</tilt>
				<roll>-48.26297365354998</roll>
				<gx:altitudeMode>relativeToSeaFloor</gx:altitudeMode>
			</Camera>
			<styleUrl>#msn_shaded_dot17</styleUrl>
			<Point>
				<extrude>1</extrude>
				<altitudeMode>relativeToGround</altitudeMode>
				<gx:drawOrder>1</gx:drawOrder>
				<coordinates>-77.07763287849671,38.9230873705844,66</coordinates>
			</Point>
		</Placemark>
		<Placemark>
			<name>H21</name>
			<Camera>
				<longitude>-77.07132898569694</longitude>
				<latitude>38.92827174694192</latitude>
				<altitude>124.7721564789703</altitude>
				<heading>-30.29501161222851</heading>
				<tilt>87.46866183627903</tilt>
				<roll>-2.379014044419612</roll>
				<gx:altitudeMode>relativeToSeaFloor</gx:altitudeMode>
			</Camera>
			<styleUrl>#msn_shaded_dot17</styleUrl>
			<Point>
				<extrude>1</extrude>
				<altitudeMode>relativeToGround</altitudeMode>
				<gx:drawOrder>1</gx:drawOrder>
				<coordinates>-77.07229169000777,38.93015709599973,66</coordinates>
			</Point>
		</Placemark>
		<Placemark>
			<name>H22</name>
			<Camera>
				<longitude>-77.06002158725704</longitude>
				<latitude>38.92836988001681</latitude>
				<altitude>60.57604973535838</altitude>
				<heading>-114.2439514287543</heading>
				<tilt>2.382640894714281</tilt>
				<roll>-93.7002860962241</roll>
				<gx:altitudeMode>relativeToSeaFloor</gx:altitudeMode>
			</Camera>
			<styleUrl>#msn_shaded_dot17</styleUrl>
			<Point>
				<extrude>1</extrude>
				<altitudeMode>relativeToGround</altitudeMode>
				<gx:drawOrder>1</gx:drawOrder>
				<coordinates>-77.06004232078331,38.92823446130691,66</coordinates>
			</Point>
		</Placemark>
		<Placemark>
			<name>H23</name>
			<LookAt>
				<longitude>-77.08920120856462</longitude>
				<latitude>38.93857654104651</latitude>
				<altitude>0</altitude>
				<heading>-144.8503059292551</heading>
				<tilt>12.67269074914752</tilt>
				<range>952.7936957040301</range>
				<gx:altitudeMode>relativeToSeaFloor</gx:altitudeMode>
			</LookAt>
			<styleUrl>#msn_shaded_dot1</styleUrl>
			<Point>
				<extrude>1</extrude>
				<altitudeMode>relativeToGround</altitudeMode>
				<gx:drawOrder>1</gx:drawOrder>
				<coordinates>-77.08834070412745,38.93923731423045,66</coordinates>
			</Point>
		</Placemark>
		<Placemark>
			<name>H24</name>
			<LookAt>
				<longitude>-77.07048860486185</longitude>
				<latitude>38.91778244638378</latitude>
				<altitude>0</altitude>
				<heading>-42.54736157013217</heading>
				<tilt>37.43347432730573</tilt>
				<range>200.9752431454169</range>
				<gx:altitudeMode>relativeToSeaFloor</gx:altitudeMode>
			</LookAt>
			<styleUrl>#msn_shaded_dot17</styleUrl>
			<Point>
				<extrude>1</extrude>
				<altitudeMode>relativeToGround</altitudeMode>
				<gx:drawOrder>1</gx:drawOrder>
				<coordinates>-77.0704105785321,38.91738246946505,66</coordinates>
			</Point>
		</Placemark>
		<Placemark>
			<name>H25</name>
			<Camera>
				<longitude>-77.06688281960517</longitude>
				<latitude>38.92137558765498</latitude>
				<altitude>49.75724934228386</altitude>
				<heading>56.97574733727466</heading>
				<tilt>0.1107254200488138</tilt>
				<roll>-89.76972825762866</roll>
				<gx:altitudeMode>relativeToSeaFloor</gx:altitudeMode>
			</Camera>
			<styleUrl>#msn_shaded_dot17</styleUrl>
			<Point>
				<extrude>1</extrude>
				<altitudeMode>relativeToGround</altitudeMode>
				<gx:drawOrder>1</gx:drawOrder>
				<coordinates>-77.06700519797775,38.92142961031568,66</coordinates>
			</Point>
		</Placemark>
		<Placemark>
			<name>H26</name>
			<LookAt>
				<longitude>-77.06673519976685</longitude>
				<latitude>38.80846865542457</latitude>
				<altitude>0</altitude>
				<heading>-7.354365687262621</heading>
				<tilt>64.19473574906517</tilt>
				<range>245.095095828896</range>
				<gx:altitudeMode>relativeToSeaFloor</gx:altitudeMode>
			</LookAt>
			<styleUrl>#msn_shaded_dot19</styleUrl>
			<Point>
				<extrude>1</extrude>
				<altitudeMode>relativeToGround</altitudeMode>
				<gx:drawOrder>1</gx:drawOrder>
				<coordinates>-77.06759301831953,38.80909548784375,66</coordinates>
			</Point>
		</Placemark>
		<Placemark>
			<name>H27</name>
			<LookAt>
				<longitude>-77.17340349949269</longitude>
				<latitude>38.83108604250701</latitude>
				<altitude>0</altitude>
				<heading>138.2991277432082</heading>
				<tilt>72.82987091623038</tilt>
				<range>584.1008574216595</range>
				<gx:altitudeMode>relativeToSeaFloor</gx:altitudeMode>
			</LookAt>
			<styleUrl>#msn_shaded_dot17</styleUrl>
			<Point>
				<extrude>1</extrude>
				<altitudeMode>relativeToGround</altitudeMode>
				<gx:drawOrder>1</gx:drawOrder>
				<coordinates>-77.17620182600818,38.83334538875507,66</coordinates>
			</Point>
		</Placemark>
		<Placemark>
			<name>H28</name>
			<open>1</open>
			<LookAt>
				<longitude>-77.12838990132768</longitude>
				<latitude>38.90531770462196</latitude>
				<altitude>0</altitude>
				<heading>166.390048832093</heading>
				<tilt>0</tilt>
				<range>67.81903420284614</range>
				<gx:altitudeMode>relativeToSeaFloor</gx:altitudeMode>
			</LookAt>
			<styleUrl>#msn_shaded_dot17</styleUrl>
			<Point>
				<extrude>1</extrude>
				<altitudeMode>relativeToGround</altitudeMode>
				<gx:drawOrder>1</gx:drawOrder>
				<coordinates>-77.12834586367262,38.90517944850147,66</coordinates>
			</Point>
		</Placemark>
		<Placemark>
			<name>H29</name>
			<LookAt>
				<longitude>-77.11981024498378</longitude>
				<latitude>38.90993704714922</latitude>
				<altitude>0</altitude>
				<heading>121.1191490946634</heading>
				<tilt>75.07565877151825</tilt>
				<range>682.8397494784626</range>
				<gx:altitudeMode>relativeToSeaFloor</gx:altitudeMode>
			</LookAt>
			<styleUrl>#msn_shaded_dot17</styleUrl>
			<Point>
				<extrude>1</extrude>
				<altitudeMode>relativeToGround</altitudeMode>
				<gx:drawOrder>1</gx:drawOrder>
				<coordinates>-77.12474875900264,38.91226863882422,66</coordinates>
			</Point>
		</Placemark>
		<Placemark>
			<name>H30</name>
			<LookAt>
				<longitude>-77.090770014618</longitude>
				<latitude>38.93568786151554</latitude>
				<altitude>0</altitude>
				<heading>127.7252246808574</heading>
				<tilt>4.485772638682383</tilt>
				<range>319.9880889691029</range>
				<gx:altitudeMode>relativeToSeaFloor</gx:altitudeMode>
			</LookAt>
			<styleUrl>#msn_shaded_dot17</styleUrl>
			<Point>
				<extrude>1</extrude>
				<altitudeMode>relativeToGround</altitudeMode>
				<gx:drawOrder>1</gx:drawOrder>
				<coordinates>-77.09050054932675,38.93588801115719,66</coordinates>
			</Point>
		</Placemark>
		<Placemark>
			<name>H31</name>
			<LookAt>
				<longitude>-77.09334074885723</longitude>
				<latitude>38.93230216205691</latitude>
				<altitude>0</altitude>
				<heading>160.8354294696876</heading>
				<tilt>0</tilt>
				<range>176.3341324464111</range>
				<gx:altitudeMode>relativeToSeaFloor</gx:altitudeMode>
			</LookAt>
			<styleUrl>#msn_shaded_dot1</styleUrl>
			<Point>
				<extrude>1</extrude>
				<altitudeMode>relativeToGround</altitudeMode>
				<gx:drawOrder>1</gx:drawOrder>
				<coordinates>-77.09367738494352,38.93203756982007,66</coordinates>
			</Point>
		</Placemark>
		<Placemark>
			<name>H32</name>
			<LookAt>
				<longitude>-77.08979428833879</longitude>
				<latitude>38.92421103162577</latitude>
				<altitude>0</altitude>
				<heading>126.6395290809902</heading>
				<tilt>12.83358899332811</tilt>
				<range>314.6420502142405</range>
				<gx:altitudeMode>relativeToSeaFloor</gx:altitudeMode>
			</LookAt>
			<styleUrl>#msn_shaded_dot17</styleUrl>
			<Point>
				<extrude>1</extrude>
				<altitudeMode>relativeToGround</altitudeMode>
				<gx:drawOrder>1</gx:drawOrder>
				<coordinates>-77.09063005508365,38.9243596243616,66</coordinates>
			</Point>
		</Placemark>
		<Placemark>
			<name>H33</name>
			<LookAt>
				<longitude>-77.11303539008838</longitude>
				<latitude>38.92065428536915</latitude>
				<altitude>0</altitude>
				<heading>-115.3601333630921</heading>
				<tilt>42.75973504314011</tilt>
				<range>111.06781327734</range>
				<gx:altitudeMode>relativeToSeaFloor</gx:altitudeMode>
			</LookAt>
			<styleUrl>#msn_shaded_dot17</styleUrl>
			<Point>
				<extrude>1</extrude>
				<altitudeMode>relativeToGround</altitudeMode>
				<gx:drawOrder>1</gx:drawOrder>
				<coordinates>-77.11324805943606,38.92053966660955,66</coordinates>
			</Point>
		</Placemark>
		<Placemark>
			<name>H34</name>
			<LookAt>
				<longitude>-77.06564420430333</longitude>
				<latitude>38.91313743825327</latitude>
				<altitude>0</altitude>
				<heading>-8.714597466881253</heading>
				<tilt>40.03114816209858</tilt>
				<range>102.7938670237934</range>
				<gx:altitudeMode>relativeToSeaFloor</gx:altitudeMode>
			</LookAt>
			<styleUrl>#msn_shaded_dot17</styleUrl>
			<Point>
				<extrude>1</extrude>
				<altitudeMode>relativeToGround</altitudeMode>
				<gx:drawOrder>1</gx:drawOrder>
				<coordinates>-77.06558548894267,38.91340975463874,66</coordinates>
			</Point>
		</Placemark>
		<Placemark>
			<name>H35</name>
			<LookAt>
				<longitude>-77.07951017096735</longitude>
				<latitude>38.91989831461733</latitude>
				<altitude>0</altitude>
				<heading>69.84510547560427</heading>
				<tilt>28.07911688001556</tilt>
				<range>325.9004216742021</range>
				<gx:altitudeMode>relativeToSeaFloor</gx:altitudeMode>
			</LookAt>
			<styleUrl>#msn_shaded_dot17</styleUrl>
			<Point>
				<extrude>1</extrude>
				<altitudeMode>relativeToGround</altitudeMode>
				<gx:drawOrder>1</gx:drawOrder>
				<coordinates>-77.07975099520537,38.92066077312896,66</coordinates>
			</Point>
		</Placemark>
		<Placemark>
			<name>H36</name>
			<LookAt>
				<longitude>-77.10039299103573</longitude>
				<latitude>38.89741674302629</latitude>
				<altitude>0</altitude>
				<heading>-139.1148991847284</heading>
				<tilt>54.30193427089773</tilt>
				<range>444.3285607691826</range>
				<gx:altitudeMode>relativeToSeaFloor</gx:altitudeMode>
			</LookAt>
			<styleUrl>#msn_shaded_dot17</styleUrl>
			<Point>
				<extrude>1</extrude>
				<altitudeMode>relativeToGround</altitudeMode>
				<gx:drawOrder>1</gx:drawOrder>
				<coordinates>-77.09986538513644,38.89834140514115,66</coordinates>
			</Point>
		</Placemark>
		<Placemark>
			<name>H37</name>
			<LookAt>
				<longitude>-77.11243758461468</longitude>
				<latitude>38.89646419747441</latitude>
				<altitude>0</altitude>
				<heading>-97.51737415403096</heading>
				<tilt>18.75019982594528</tilt>
				<range>113.762214148648</range>
				<gx:altitudeMode>relativeToSeaFloor</gx:altitudeMode>
			</LookAt>
			<styleUrl>#msn_shaded_dot17</styleUrl>
			<Point>
				<extrude>1</extrude>
				<altitudeMode>relativeToGround</altitudeMode>
				<gx:drawOrder>1</gx:drawOrder>
				<coordinates>-77.11248589188622,38.89634739382956,66</coordinates>
			</Point>
		</Placemark>
		<Placemark>
			<name>H38</name>
			<LookAt>
				<longitude>-77.30487532716441</longitude>
				<latitude>38.91970451839327</latitude>
				<altitude>0</altitude>
				<heading>136.4373923210667</heading>
				<tilt>57.44373894792788</tilt>
				<range>293.1844943897252</range>
				<gx:altitudeMode>relativeToSeaFloor</gx:altitudeMode>
			</LookAt>
			<styleUrl>#msn_shaded_dot17</styleUrl>
			<Point>
				<extrude>1</extrude>
				<altitudeMode>relativeToGround</altitudeMode>
				<gx:drawOrder>1</gx:drawOrder>
				<coordinates>-77.30556025520397,38.92033648688445,66</coordinates>
			</Point>
		</Placemark>
		<Placemark>
			<name>H39</name>
			<LookAt>
				<longitude>-77.24216870540344</longitude>
				<latitude>38.91902494314627</latitude>
				<altitude>0</altitude>
				<heading>112.4456439126973</heading>
				<tilt>23.28772914312074</tilt>
				<range>169.3985132739054</range>
				<gx:altitudeMode>relativeToSeaFloor</gx:altitudeMode>
			</LookAt>
			<styleUrl>#msn_shaded_dot17</styleUrl>
			<Point>
				<extrude>1</extrude>
				<altitudeMode>relativeToGround</altitudeMode>
				<gx:drawOrder>1</gx:drawOrder>
				<coordinates>-77.24236058241425,38.9189665077175,66</coordinates>
			</Point>
		</Placemark>
		<Placemark>
			<name>H40</name>
			<LookAt>
				<longitude>-77.15884238905845</longitude>
				<latitude>38.90123631127758</latitude>
				<altitude>0</altitude>
				<heading>-66.41721885163483</heading>
				<tilt>13.56143217630257</tilt>
				<range>219.4442648833101</range>
				<gx:altitudeMode>relativeToSeaFloor</gx:altitudeMode>
			</LookAt>
			<styleUrl>#msn_shaded_dot17</styleUrl>
			<Point>
				<extrude>1</extrude>
				<altitudeMode>relativeToGround</altitudeMode>
				<gx:drawOrder>1</gx:drawOrder>
				<coordinates>-77.15854915633481,38.90128237275844,66</coordinates>
			</Point>
		</Placemark>
		<Placemark>
			<name>H41</name>
			<LookAt>
				<longitude>-77.23142628855091</longitude>
				<latitude>38.92737198417545</latitude>
				<altitude>0</altitude>
				<heading>111.3847419594343</heading>
				<tilt>44.67227199056988</tilt>
				<range>854.9565771466824</range>
				<gx:altitudeMode>relativeToSeaFloor</gx:altitudeMode>
			</LookAt>
			<styleUrl>#msn_shaded_dot17</styleUrl>
			<Point>
				<extrude>1</extrude>
				<altitudeMode>relativeToGround</altitudeMode>
				<gx:drawOrder>1</gx:drawOrder>
				<coordinates>-77.23155237459248,38.927171269134,66</coordinates>
			</Point>
		</Placemark>
		<Placemark>
			<name>H42</name>
			<LookAt>
				<longitude>-77.01402221381707</longitude>
				<latitude>38.82698403658401</latitude>
				<altitude>0</altitude>
				<heading>17.52558460865048</heading>
				<tilt>32.52028635966566</tilt>
				<range>462.3293360154279</range>
				<gx:altitudeMode>relativeToSeaFloor</gx:altitudeMode>
			</LookAt>
			<styleUrl>#msn_shaded_dot17</styleUrl>
			<Point>
				<extrude>1</extrude>
				<altitudeMode>relativeToGround</altitudeMode>
				<gx:drawOrder>1</gx:drawOrder>
				<coordinates>-77.01466103512618,38.82554707680318,66</coordinates>
			</Point>
		</Placemark>
		<Placemark>
			<name>H87</name>
			<Camera>
				<longitude>-77.01022585580269</longitude>
				<latitude>38.8188017682234</latitude>
				<altitude>292.1035475499879</altitude>
				<heading>102.1840861534299</heading>
				<tilt>0.01152436781689651</tilt>
				<roll>-78.5280859608432</roll>
				<gx:altitudeMode>relativeToSeaFloor</gx:altitudeMode>
			</Camera>
			<styleUrl>#msn_shaded_dot17</styleUrl>
			<Point>
				<extrude>1</extrude>
				<altitudeMode>relativeToGround</altitudeMode>
				<gx:drawOrder>1</gx:drawOrder>
				<coordinates>-77.01023576937003,38.81885625696454,66</coordinates>
			</Point>
		</Placemark>
		<Placemark>
			<name>H86</name>
			<LookAt>
				<longitude>-76.99537065299157</longitude>
				<latitude>38.81048044830791</latitude>
				<altitude>0</altitude>
				<heading>-39.67281022252553</heading>
				<tilt>41.49695704104667</tilt>
				<range>415.3176081074374</range>
				<gx:altitudeMode>relativeToSeaFloor</gx:altitudeMode>
			</LookAt>
			<styleUrl>#msn_shaded_dot17</styleUrl>
			<Point>
				<extrude>1</extrude>
				<altitudeMode>relativeToGround</altitudeMode>
				<gx:drawOrder>1</gx:drawOrder>
				<coordinates>-76.99664817839795,38.810462075372,66</coordinates>
			</Point>
		</Placemark>
		<Placemark>
			<name>H43</name>
			<LookAt>
				<longitude>-77.14665108452705</longitude>
				<latitude>38.87385327472731</latitude>
				<altitude>0</altitude>
				<heading>-155.6404825098813</heading>
				<tilt>50.6146794051955</tilt>
				<range>339.1451797320888</range>
				<gx:altitudeMode>relativeToSeaFloor</gx:altitudeMode>
			</LookAt>
			<styleUrl>#msn_shaded_dot17</styleUrl>
			<Point>
				<extrude>1</extrude>
				<altitudeMode>relativeToGround</altitudeMode>
				<gx:drawOrder>1</gx:drawOrder>
				<coordinates>-77.146392815978,38.87451597139456,66</coordinates>
			</Point>
		</Placemark>
		<Placemark>
			<name>H44</name>
			<LookAt>
				<longitude>-77.11431129672067</longitude>
				<latitude>38.90268351679772</latitude>
				<altitude>0</altitude>
				<heading>-76.90180974958542</heading>
				<tilt>50.91671061573109</tilt>
				<range>749.3049725608621</range>
				<gx:altitudeMode>relativeToSeaFloor</gx:altitudeMode>
			</LookAt>
			<styleUrl>#msn_shaded_dot17</styleUrl>
			<Point>
				<extrude>1</extrude>
				<altitudeMode>relativeToGround</altitudeMode>
				<gx:drawOrder>1</gx:drawOrder>
				<coordinates>-77.1123682030325,38.90301800526387,66</coordinates>
			</Point>
		</Placemark>
		<Placemark>
			<name>H46</name>
			<LookAt>
				<longitude>-77.03510940481986</longitude>
				<latitude>38.97579759484167</latitude>
				<altitude>0</altitude>
				<heading>-167.8403235084066</heading>
				<tilt>66.74149223898793</tilt>
				<range>449.2598953439957</range>
				<gx:altitudeMode>relativeToSeaFloor</gx:altitudeMode>
			</LookAt>
			<styleUrl>#msn_shaded_dot17</styleUrl>
			<Point>
				<extrude>1</extrude>
				<altitudeMode>relativeToGround</altitudeMode>
				<gx:drawOrder>1</gx:drawOrder>
				<coordinates>-77.03469086340723,38.97776756202748,66</coordinates>
			</Point>
		</Placemark>
		<Placemark>
			<name>H47</name>
			<LookAt>
				<longitude>-77.01003553293992</longitude>
				<latitude>38.93977523498958</latitude>
				<altitude>0</altitude>
				<heading>-7.416350103959583</heading>
				<tilt>53.43606491848958</tilt>
				<range>587.1677133672948</range>
				<gx:altitudeMode>relativeToSeaFloor</gx:altitudeMode>
			</LookAt>
			<styleUrl>#msn_shaded_dot17</styleUrl>
			<Point>
				<extrude>1</extrude>
				<altitudeMode>relativeToGround</altitudeMode>
				<gx:drawOrder>1</gx:drawOrder>
				<coordinates>-77.01018660152103,38.93841562644008,66</coordinates>
			</Point>
		</Placemark>
		<Placemark>
			<name>H48</name>
			<LookAt>
				<longitude>-77.05169524715227</longitude>
				<latitude>38.95969943665582</latitude>
				<altitude>0</altitude>
				<heading>-25.99239330611976</heading>
				<tilt>21.9329546752113</tilt>
				<range>181.0786905846419</range>
				<gx:altitudeMode>relativeToSeaFloor</gx:altitudeMode>
			</LookAt>
			<styleUrl>#msn_shaded_dot17</styleUrl>
			<Point>
				<extrude>1</extrude>
				<altitudeMode>relativeToGround</altitudeMode>
				<gx:drawOrder>1</gx:drawOrder>
				<coordinates>-77.0518142973052,38.95996531385887,66</coordinates>
			</Point>
		</Placemark>
		<Placemark>
			<name>H49</name>
			<LookAt>
				<longitude>-77.05210968324663</longitude>
				<latitude>38.95494557049076</latitude>
				<altitude>0</altitude>
				<heading>-15.97830074715984</heading>
				<tilt>63.41779917138994</tilt>
				<range>361.800305960279</range>
				<gx:altitudeMode>relativeToSeaFloor</gx:altitudeMode>
			</LookAt>
			<styleUrl>#msn_shaded_dot17</styleUrl>
			<Point>
				<extrude>1</extrude>
				<altitudeMode>relativeToGround</altitudeMode>
				<gx:drawOrder>1</gx:drawOrder>
				<coordinates>-77.05179381463944,38.95371048418742,66</coordinates>
			</Point>
		</Placemark>
		<Placemark>
			<name>H50</name>
			<LookAt>
				<longitude>-77.05315826257365</longitude>
				<latitude>38.96188173273116</latitude>
				<altitude>0</altitude>
				<heading>-121.5829377936892</heading>
				<tilt>57.34904789797071</tilt>
				<range>801.7285399491095</range>
				<gx:altitudeMode>relativeToSeaFloor</gx:altitudeMode>
			</LookAt>
			<styleUrl>#msn_shaded_dot17</styleUrl>
			<Point>
				<extrude>1</extrude>
				<altitudeMode>relativeToGround</altitudeMode>
				<gx:drawOrder>1</gx:drawOrder>
				<coordinates>-77.05095505059923,38.96327236063456,66</coordinates>
			</Point>
		</Placemark>
		<Placemark>
			<name>H51</name>
			<LookAt>
				<longitude>-77.0496506342492</longitude>
				<latitude>38.91416305416067</latitude>
				<altitude>0</altitude>
				<heading>7.61131271410601</heading>
				<tilt>19.51722513628263</tilt>
				<range>205.496718997087</range>
				<gx:altitudeMode>relativeToSeaFloor</gx:altitudeMode>
			</LookAt>
			<styleUrl>#msn_shaded_dot17</styleUrl>
			<Point>
				<extrude>1</extrude>
				<altitudeMode>relativeToGround</altitudeMode>
				<gx:drawOrder>1</gx:drawOrder>
				<coordinates>-77.04953191350309,38.91448986470866,66</coordinates>
			</Point>
		</Placemark>
		<Placemark>
			<name>H52</name>
			<LookAt>
				<longitude>-77.07496114768816</longitude>
				<latitude>38.9236028657371</latitude>
				<altitude>0</altitude>
				<heading>-88.59203822672666</heading>
				<tilt>51.52136734295091</tilt>
				<range>210.2359340336097</range>
				<gx:altitudeMode>relativeToSeaFloor</gx:altitudeMode>
			</LookAt>
			<styleUrl>#msn_shaded_dot17</styleUrl>
			<Point>
				<extrude>1</extrude>
				<altitudeMode>relativeToGround</altitudeMode>
				<gx:drawOrder>1</gx:drawOrder>
				<coordinates>-77.07398032102491,38.92352403552229,66</coordinates>
			</Point>
		</Placemark>
		<Placemark>
			<name>H53</name>
			<LookAt>
				<longitude>-77.0357434076776</longitude>
				<latitude>38.92125487474832</latitude>
				<altitude>0</altitude>
				<heading>-15.01459593509221</heading>
				<tilt>70.82167343754918</tilt>
				<range>78.71755992990668</range>
				<gx:altitudeMode>relativeToSeaFloor</gx:altitudeMode>
			</LookAt>
			<styleUrl>#msn_shaded_dot17</styleUrl>
			<Point>
				<extrude>1</extrude>
				<altitudeMode>relativeToGround</altitudeMode>
				<gx:drawOrder>1</gx:drawOrder>
				<coordinates>-77.03584297932892,38.9229071947,66</coordinates>
			</Point>
		</Placemark>
		<Placemark>
			<name>H54</name>
			<Camera>
				<longitude>-77.38991460245347</longitude>
				<latitude>39.26009844739819</latitude>
				<altitude>2611.74038140449</altitude>
				<heading>55.97533106125615</heading>
				<tilt>0.1362644685464448</tilt>
				<roll>13.89566566306115</roll>
				<gx:altitudeMode>relativeToSeaFloor</gx:altitudeMode>
			</Camera>
			<styleUrl>#msn_shaded_dot17</styleUrl>
			<Point>
				<extrude>1</extrude>
				<altitudeMode>relativeToGround</altitudeMode>
				<gx:drawOrder>1</gx:drawOrder>
				<coordinates>-77.39391306577492,39.26294817677861,111</coordinates>
			</Point>
		</Placemark>
		<Placemark>
			<name>H55</name>
			<LookAt>
				<longitude>-77.07249206017678</longitude>
				<latitude>38.97140312932499</latitude>
				<altitude>0</altitude>
				<heading>-50.9694479313976</heading>
				<tilt>76.21506855458404</tilt>
				<range>988.5796148162116</range>
				<gx:altitudeMode>relativeToSeaFloor</gx:altitudeMode>
			</LookAt>
			<styleUrl>#msn_shaded_dot17</styleUrl>
			<Point>
				<extrude>1</extrude>
				<altitudeMode>relativeToGround</altitudeMode>
				<gx:drawOrder>1</gx:drawOrder>
				<coordinates>-77.06834544975686,38.96791103163879,66</coordinates>
			</Point>
		</Placemark>
		<Placemark>
			<name>H56</name>
			<LookAt>
				<longitude>-77.06101334404653</longitude>
				<latitude>38.91725085307708</latitude>
				<altitude>0</altitude>
				<heading>-33.4963841284662</heading>
				<tilt>8.509730910483515</tilt>
				<range>246.201285339104</range>
				<gx:altitudeMode>relativeToSeaFloor</gx:altitudeMode>
			</LookAt>
			<styleUrl>#msn_shaded_dot17</styleUrl>
			<Point>
				<extrude>1</extrude>
				<altitudeMode>relativeToGround</altitudeMode>
				<gx:drawOrder>1</gx:drawOrder>
				<coordinates>-77.06120140091524,38.91681538320637,66</coordinates>
			</Point>
		</Placemark>
		<Placemark>
			<name>H57</name>
			<LookAt>
				<longitude>-77.12196644178408</longitude>
				<latitude>38.93297194313763</latitude>
				<altitude>0</altitude>
				<heading>123.7356707760245</heading>
				<tilt>57.78901909506679</tilt>
				<range>1262.981557441804</range>
				<gx:altitudeMode>relativeToSeaFloor</gx:altitudeMode>
			</LookAt>
			<styleUrl>#msn_shaded_dot17</styleUrl>
			<Point>
				<extrude>1</extrude>
				<altitudeMode>relativeToGround</altitudeMode>
				<gx:drawOrder>1</gx:drawOrder>
				<coordinates>-77.1265213909882,38.93509730571803,66</coordinates>
			</Point>
		</Placemark>
		<Placemark>
			<name>H60</name>
			<LookAt>
				<longitude>-76.91721517859401</longitude>
				<latitude>38.93151974977108</latitude>
				<altitude>0</altitude>
				<heading>-93.09216210246834</heading>
				<tilt>10.21329771043238</tilt>
				<range>222.6604357283222</range>
				<gx:altitudeMode>relativeToSeaFloor</gx:altitudeMode>
			</LookAt>
			<styleUrl>#msn_shaded_dot17</styleUrl>
			<Point>
				<extrude>1</extrude>
				<altitudeMode>relativeToGround</altitudeMode>
				<gx:drawOrder>1</gx:drawOrder>
				<coordinates>-76.91720945574568,38.93132296535497,66</coordinates>
			</Point>
		</Placemark>
		<Placemark>
			<name>H61</name>
			<Camera>
				<longitude>-76.92471994038009</longitude>
				<latitude>38.92957495407189</latitude>
				<altitude>227.6713278444683</altitude>
				<heading>-40.26161374803408</heading>
				<tilt>0.07074647852920497</tilt>
				<roll>90.14616719557105</roll>
				<gx:altitudeMode>relativeToSeaFloor</gx:altitudeMode>
			</Camera>
			<styleUrl>#msn_shaded_dot17</styleUrl>
			<Point>
				<extrude>1</extrude>
				<altitudeMode>relativeToGround</altitudeMode>
				<gx:drawOrder>1</gx:drawOrder>
				<coordinates>-76.92441048229954,38.92945049345845,66</coordinates>
			</Point>
		</Placemark>
		<Placemark>
			<name>H63</name>
			<Camera>
				<longitude>-76.98806800192187</longitude>
				<latitude>38.93573262477566</latitude>
				<altitude>285.6597437536141</altitude>
				<heading>63.13097444618661</heading>
				<tilt>0.098422226541586</tilt>
				<roll>134.6191497884156</roll>
				<gx:altitudeMode>relativeToSeaFloor</gx:altitudeMode>
			</Camera>
			<styleUrl>#msn_shaded_dot17</styleUrl>
			<Point>
				<extrude>1</extrude>
				<altitudeMode>relativeToGround</altitudeMode>
				<gx:drawOrder>1</gx:drawOrder>
				<coordinates>-76.98842850951264,38.93515064422951,66</coordinates>
			</Point>
		</Placemark>
		<Placemark>
			<name>H64</name>
			<LookAt>
				<longitude>-77.01771423712583</longitude>
				<latitude>38.92529230203103</latitude>
				<altitude>0</altitude>
				<heading>40.72092962152862</heading>
				<tilt>71.45910567786505</tilt>
				<range>560.2873656773106</range>
				<gx:altitudeMode>relativeToSeaFloor</gx:altitudeMode>
			</LookAt>
			<styleUrl>#msn_shaded_dot17</styleUrl>
			<Point>
				<extrude>1</extrude>
				<altitudeMode>relativeToGround</altitudeMode>
				<gx:drawOrder>1</gx:drawOrder>
				<coordinates>-77.02018111759669,38.92371702539111,77</coordinates>
			</Point>
		</Placemark>
		<Placemark>
			<name>H65</name>
			<Camera>
				<longitude>-77.00743646351081</longitude>
				<latitude>38.9193344128334</latitude>
				<altitude>457.8366601027411</altitude>
				<heading>61.45735887962919</heading>
				<tilt>0.01069102459098561</tilt>
				<roll>-78.37394075537516</roll>
				<gx:altitudeMode>relativeToSeaFloor</gx:altitudeMode>
			</Camera>
			<styleUrl>#msn_shaded_dot12</styleUrl>
			<Point>
				<extrude>1</extrude>
				<altitudeMode>relativeToGround</altitudeMode>
				<gx:drawOrder>1</gx:drawOrder>
				<coordinates>-77.00739402065348,38.91883509061264,66</coordinates>
			</Point>
		</Placemark>
		<Folder>
			<name>euclid</name>
			<Placemark>
				<name>Untitled Placemark</name>
				<LookAt>
					<longitude>-77.03813423304003</longitude>
					<latitude>38.9190459905174</latitude>
					<altitude>0</altitude>
					<heading>9.452670518424247</heading>
					<tilt>84.38922013086957</tilt>
					<range>514.9284596199107</range>
					<gx:altitudeMode>relativeToSeaFloor</gx:altitudeMode>
				</LookAt>
				<styleUrl>#msn_shaded_dot5</styleUrl>
				<Point>
					<gx:drawOrder>1</gx:drawOrder>
					<coordinates>-77.03814449752903,38.91923366558144,0</coordinates>
				</Point>
			</Placemark>
			<Placemark>
				<name>Untitled Placemark</name>
				<LookAt>
					<longitude>-77.03629284884268</longitude>
					<latitude>38.92254811228475</latitude>
					<altitude>0</altitude>
					<heading>9.450399553115325</heading>
					<tilt>84.35480169904162</tilt>
					<range>1164.877538643253</range>
					<gx:altitudeMode>relativeToSeaFloor</gx:altitudeMode>
				</LookAt>
				<styleUrl>#msn_shaded_dot5</styleUrl>
				<Point>
					<gx:drawOrder>1</gx:drawOrder>
					<coordinates>-77.03868001051684,38.91944640584248,0</coordinates>
				</Point>
			</Placemark>
			<Placemark>
				<name>Untitled Placemark</name>
				<LookAt>
					<longitude>-77.03471979290995</longitude>
					<latitude>38.91964117953236</latitude>
					<altitude>0</altitude>
					<heading>9.45481552673761</heading>
					<tilt>84.38990299948776</tilt>
					<range>591.3125015769712</range>
					<gx:altitudeMode>relativeToSeaFloor</gx:altitudeMode>
				</LookAt>
				<styleUrl>#msn_shaded_dot5</styleUrl>
				<Point>
					<gx:drawOrder>1</gx:drawOrder>
					<coordinates>-77.03393934795712,38.92035038719956,0</coordinates>
				</Point>
			</Placemark>
			<Placemark>
				<name>Untitled Placemark</name>
				<Camera>
					<longitude>-77.03566135937878</longitude>
					<latitude>38.91895395049291</latitude>
					<altitude>73.3185993575902</altitude>
					<heading>11.33872671209676</heading>
					<tilt>90.43962816305067</tilt>
					<roll>-0.00190339785942832</roll>
					<gx:altitudeMode>relativeToSeaFloor</gx:altitudeMode>
				</Camera>
				<styleUrl>#msn_shaded_dot5</styleUrl>
				<Point>
					<gx:drawOrder>1</gx:drawOrder>
					<coordinates>-77.03539882810438,38.92060088510963,0</coordinates>
				</Point>
			</Placemark>
			<Placemark>
				<name>Untitled Placemark</name>
				<Camera>
					<longitude>-77.03610707412722</longitude>
					<latitude>38.91820702938229</latitude>
					<altitude>84.70317133459609</altitude>
					<heading>11.33844668940295</heading>
					<tilt>90.43962816305067</tilt>
					<roll>-0.001903397859418778</roll>
					<gx:altitudeMode>relativeToSeaFloor</gx:altitudeMode>
				</Camera>
				<styleUrl>#msn_shaded_dot5</styleUrl>
				<Point>
					<gx:drawOrder>1</gx:drawOrder>
					<coordinates>-77.03684599748424,38.9205582700707,0</coordinates>
				</Point>
			</Placemark>
			<Placemark>
				<name>Untitled Placemark</name>
				<Camera>
					<longitude>-77.03566135937878</longitude>
					<latitude>38.91895395049291</latitude>
					<altitude>73.3185993575902</altitude>
					<heading>11.33872671209676</heading>
					<tilt>90.43962816305067</tilt>
					<roll>-0.00190339785942832</roll>
					<gx:altitudeMode>relativeToSeaFloor</gx:altitudeMode>
				</Camera>
				<styleUrl>#msn_shaded_dot5</styleUrl>
				<Point>
					<gx:drawOrder>1</gx:drawOrder>
					<coordinates>-77.03600379403835,38.92056403415413,0</coordinates>
				</Point>
			</Placemark>
			<Placemark>
				<name>Untitled Placemark</name>
				<Camera>
					<longitude>-77.03566135937878</longitude>
					<latitude>38.91895395049291</latitude>
					<altitude>73.3185993575902</altitude>
					<heading>11.33872671209676</heading>
					<tilt>90.43962816305067</tilt>
					<roll>-0.00190339785942832</roll>
					<gx:altitudeMode>relativeToSeaFloor</gx:altitudeMode>
				</Camera>
				<styleUrl>#msn_shaded_dot5</styleUrl>
				<Point>
					<gx:drawOrder>1</gx:drawOrder>
					<coordinates>-77.03472226502623,38.9226621639487,0</coordinates>
				</Point>
			</Placemark>
			<Placemark>
				<name>Untitled Placemark</name>
				<Camera>
					<longitude>-77.03610707412722</longitude>
					<latitude>38.91820702938229</latitude>
					<altitude>84.70317133459609</altitude>
					<heading>11.33844668940295</heading>
					<tilt>90.43962816305067</tilt>
					<roll>-0.001903397859418778</roll>
					<gx:altitudeMode>relativeToSeaFloor</gx:altitudeMode>
				</Camera>
				<styleUrl>#msn_shaded_dot5</styleUrl>
				<Point>
					<gx:drawOrder>1</gx:drawOrder>
					<coordinates>-77.03617001837226,38.92152134626814,0</coordinates>
				</Point>
			</Placemark>
		</Folder>
		<Folder>
			<name>Second Set</name>
			<Placemark>
				<name>Untitled Placemark</name>
				<LookAt>
					<longitude>-77.04065098071761</longitude>
					<latitude>38.92235246335012</latitude>
					<altitude>0</altitude>
					<heading>45.95605460715151</heading>
					<tilt>79.39316789235225</tilt>
					<range>1166.955735464627</range>
					<gx:altitudeMode>relativeToSeaFloor</gx:altitudeMode>
				</LookAt>
				<styleUrl>#msn_shaded_dot23</styleUrl>
				<Point>
					<gx:drawOrder>1</gx:drawOrder>
					<coordinates>-77.04488585318772,38.92004497381009,0</coordinates>
				</Point>
			</Placemark>
			<Placemark>
				<name>Untitled Placemark</name>
				<LookAt>
					<longitude>-77.03057236637105</longitude>
					<latitude>38.91849653596508</latitude>
					<altitude>0</altitude>
					<heading>7.467072317171938</heading>
					<tilt>47.0950860303635</tilt>
					<range>2345.196264655959</range>
					<gx:altitudeMode>relativeToSeaFloor</gx:altitudeMode>
				</LookAt>
				<styleUrl>#msn_shaded_dot23</styleUrl>
				<Point>
					<gx:drawOrder>1</gx:drawOrder>
					<coordinates>-77.02979055846771,38.9222936359061,0</coordinates>
				</Point>
			</Placemark>
			<Placemark>
				<name>Untitled Placemark</name>
				<LookAt>
					<longitude>-77.03646040229332</longitude>
					<latitude>38.90689456054947</latitude>
					<altitude>0</altitude>
					<heading>5.536739920783397</heading>
					<tilt>2.667781611059306</tilt>
					<range>445.0163131269036</range>
					<gx:altitudeMode>relativeToSeaFloor</gx:altitudeMode>
				</LookAt>
				<styleUrl>#msn_shaded_dot14</styleUrl>
				<Point>
					<gx:drawOrder>1</gx:drawOrder>
					<coordinates>-77.03654373836189,38.90722369975338,0</coordinates>
				</Point>
			</Placemark>
			<Placemark>
				<name>Untitled Placemark</name>
				<open>1</open>
				<LookAt>
					<longitude>-77.04310608128121</longitude>
					<latitude>38.90943249458518</latitude>
					<altitude>0</altitude>
					<heading>5.532567052400868</heading>
					<tilt>2.667736733720477</tilt>
					<range>337.8269650865088</range>
					<gx:altitudeMode>relativeToSeaFloor</gx:altitudeMode>
				</LookAt>
				<styleUrl>#msn_shaded_dot14</styleUrl>
				<Point>
					<gx:drawOrder>1</gx:drawOrder>
					<coordinates>-77.0434478380522,38.90963315195856,0</coordinates>
				</Point>
			</Placemark>
			<Placemark>
				<name>Untitled Placemark</name>
				<open>1</open>
				<LookAt>
					<longitude>-77.04683993460439</longitude>
					<latitude>38.91557815837803</latitude>
					<altitude>0</altitude>
					<heading>-31.9586269372821</heading>
					<tilt>74.00261586384721</tilt>
					<range>363.752031401072</range>
					<gx:altitudeMode>relativeToSeaFloor</gx:altitudeMode>
				</LookAt>
				<styleUrl>#msn_shaded_dot23</styleUrl>
				<Point>
					<gx:drawOrder>1</gx:drawOrder>
					<coordinates>-77.04745914435648,38.9162941614489,0</coordinates>
				</Point>
			</Placemark>
		</Folder>
		<atom:link rel="app" href="https://www.google.com/earth/about/versions/#earth-pro" title="Google Earth Pro 7.3.6.10201"></atom:link>
	</Folder>
</Document>
</kml>
