<?xml version="1.0" encoding="UTF-8"?>
<kml xmlns="http://www.opengis.net/kml/2.2" xmlns:gx="http://www.google.com/kml/ext/2.2">
    <Document id="1">
        <Style id="4">
            <LineStyle id="5">
                <color>FF0000FF</color>
                <colorMode>normal</colorMode>
                <width>1.5</width>
            </LineStyle>
        </Style>
        <Style id="8">
            <LineStyle id="9">
                <color>FF0000FF</color>
                <colorMode>normal</colorMode>
                <width>1.5</width>
            </LineStyle>
        </Style>
        <Style id="12">
            <LineStyle id="13">
                <color>FF3A9CD0</color>
                <colorMode>normal</colorMode>
                <width>1.5</width>
            </LineStyle>
        </Style>
        <Style id="16">
            <LineStyle id="17">
                <color>FF00A5FF</color>
                <colorMode>normal</colorMode>
                <width>1.5</width>
            </LineStyle>
        </Style>
        <Style id="20">
            <LineStyle id="21">
                <color>FF00A5FF</color>
                <colorMode>normal</colorMode>
                <width>1.5</width>
            </LineStyle>
        </Style>
        <Style id="24">
            <LineStyle id="25">
                <color>FF00FFFF</color>
                <colorMode>normal</colorMode>
                <width>1.5</width>
            </LineStyle>
        </Style>
        <Style id="28">
            <LineStyle id="29">
                <color>FF6600FF</color>
                <colorMode>normal</colorMode>
                <width>1.5</width>
            </LineStyle>
        </Style>
        <Style id="32">
            <LineStyle id="33">
                <color>FF00CCEE</color>
                <colorMode>normal</colorMode>
                <width>1.5</width>
            </LineStyle>
        </Style>
        <Style id="36">
            <LineStyle id="37">
                <color>FF0000FF</color>
                <colorMode>normal</colorMode>
                <width>1.5</width>
            </LineStyle>
        </Style>
        <Style id="40">
            <LineStyle id="41">
                <color>FF3A9CD0</color>
                <colorMode>normal</colorMode>
                <width>1.5</width>
            </LineStyle>
        </Style>
        <name>Filtered Lines</name>
        <description>Lines generated using Spherical calculations.</description>
        <Placemark id="3">
            <name>PenB → Cap</name>
            <description>
                
        
<![CDATA[
          <b>P1:</b> PenB<br>
          <b>P2:</b> Cap<br>
          <hr>
          <b>Distance:</b> 2.792 miles<br>
          <hr>
          <u>Path P1 → P2:</u><br>
          <b>Forward Azimuth at P1 (Az12):</b> 65.006°<br>
          <b>Back Azimuth at P2 (BackAz12):</b> 65.036°<br>
          <hr>
          <u>Path P2 → P1:</u><br>
          <b>Forward Azimuth at P2 (Az21):</b> 245.036°<br>
          <b>Back Azimuth at P1 (BackAz21):</b> 245.006°<br>
          <hr>
          <b>Filter Reason(s):</b> Az12 Whole<br>
          <hr>
          <i>Calculation Method: Spherical</i>
        ]]>                
        
            </description>
            <styleUrl>#4</styleUrl>
            <LineString id="2">
                <coordinates>-77.05628474196676,38.87273556375202,0.0 -77.009227,38.889801,0.0</coordinates>
            </LineString>
        </Placemark>
        <Placemark id="7">
            <name>PenA → CCnrA</name>
            <description>
                
        
<![CDATA[
          <b>P1:</b> PenA<br>
          <b>P2:</b> CCnrA<br>
          <hr>
          <b>Distance:</b> 2.879 miles<br>
          <hr>
          <u>Path P1 → P2:</u><br>
          <b>Forward Azimuth at P1 (Az12):</b> 67.004°<br>
          <b>Back Azimuth at P2 (BackAz12):</b> 67.034°<br>
          <hr>
          <u>Path P2 → P1:</u><br>
          <b>Forward Azimuth at P2 (Az21):</b> 247.034°<br>
          <b>Back Azimuth at P1 (BackAz21):</b> 247.004°<br>
          <hr>
          <b>Filter Reason(s):</b> Az12 Whole<br>
          <hr>
          <i>Calculation Method: Spherical</i>
        ]]>                
        
            </description>
            <styleUrl>#8</styleUrl>
            <LineString id="6">
                <coordinates>-77.05790028667388,38.872552231854,0.0 -77.00861883736764,38.88882152017216,0.0</coordinates>
            </LineString>
        </Placemark>
        <Placemark id="11">
            <name>PenD → Nc</name>
            <description>
                
        
<![CDATA[
          <b>P1:</b> PenD<br>
          <b>P2:</b> Nc<br>
          <hr>
          <b>Distance:</b> 1.879 miles<br>
          <hr>
          <u>Path P1 → P2:</u><br>
          <b>Forward Azimuth at P1 (Az12):</b> 30.002°<br>
          <b>Back Azimuth at P2 (BackAz12):</b> 30.013°<br>
          <hr>
          <u>Path P2 → P1:</u><br>
          <b>Forward Azimuth at P2 (Az21):</b> 210.013°<br>
          <b>Back Azimuth at P1 (BackAz21):</b> 210.002°<br>
          <hr>
          <b>Filter Reason(s):</b> Az12 Whole, Az12 multiple:15.000<br>
          <hr>
          <i>Calculation Method: Spherical</i>
        ]]>                
        
            </description>
            <styleUrl>#12</styleUrl>
            <LineString id="10">
                <coordinates>-77.05845931790411,38.87004371204871,0.0 -77.04098558,38.89359614000001,0.0</coordinates>
            </LineString>
        </Placemark>
        <Placemark id="15">
            <name>K → Hk</name>
            <description>
                
        
<![CDATA[
          <b>P1:</b> K<br>
          <b>P2:</b> Hk<br>
          <hr>
          <b>Distance:</b> 0.165 miles<br>
          <hr>
          <u>Path P1 → P2:</u><br>
          <b>Forward Azimuth at P1 (Az12):</b> 0.000°<br>
          <b>Back Azimuth at P2 (BackAz12):</b> 0.000°<br>
          <hr>
          <u>Path P2 → P1:</u><br>
          <b>Forward Azimuth at P2 (Az21):</b> 180.000°<br>
          <b>Back Azimuth at P1 (BackAz21):</b> 180.000°<br>
          <hr>
          <b>Filter Reason(s):</b> Az12 Whole, Az12 multiple:15.000, Az12 multiple:18.000, Az21 Whole, Az21 multiple:15.000, Az21 multiple:18.000<br>
          <hr>
          <i>Calculation Method: Spherical</i>
        ]]>                
        
            </description>
            <styleUrl>#16</styleUrl>
            <LineString id="14">
                <coordinates>-77.051444,38.892751,0.0 -77.051444,38.8951366,0.0</coordinates>
            </LineString>
        </Placemark>
        <Placemark id="19">
            <name>J → WH</name>
            <description>
                
        
<![CDATA[
          <b>P1:</b> J<br>
          <b>P2:</b> WH<br>
          <hr>
          <b>Distance:</b> 0.552 miles<br>
          <hr>
          <u>Path P1 → P2:</u><br>
          <b>Forward Azimuth at P1 (Az12):</b> 0.000°<br>
          <b>Back Azimuth at P2 (BackAz12):</b> 0.000°<br>
          <hr>
          <u>Path P2 → P1:</u><br>
          <b>Forward Azimuth at P2 (Az21):</b> 180.000°<br>
          <b>Back Azimuth at P1 (BackAz21):</b> 180.000°<br>
          <hr>
          <b>Filter Reason(s):</b> Az12 Whole, Az12 multiple:15.000, Az12 multiple:18.000, Az21 Whole, Az21 multiple:15.000, Az21 multiple:18.000<br>
          <hr>
          <i>Calculation Method: Spherical</i>
        ]]>                
        
            </description>
            <styleUrl>#20</styleUrl>
            <LineString id="18">
                <coordinates>-77.03656908080315,38.88980129959375,0.0 -77.036569,38.89778875877805,0.0</coordinates>
            </LineString>
        </Placemark>
        <Placemark id="23">
            <name>Nc → AN</name>
            <description>
                
        
<![CDATA[
          <b>P1:</b> Nc<br>
          <b>P2:</b> AN<br>
          <hr>
          <b>Distance:</b> 5.598 miles<br>
          <hr>
          <u>Path P1 → P2:</u><br>
          <b>Forward Azimuth at P1 (Az12):</b> 72.010°<br>
          <b>Back Azimuth at P2 (BackAz12):</b> 72.072°<br>
          <hr>
          <u>Path P2 → P1:</u><br>
          <b>Forward Azimuth at P2 (Az21):</b> 252.072°<br>
          <b>Back Azimuth at P1 (BackAz21):</b> 252.010°<br>
          <hr>
          <b>Filter Reason(s):</b> Az12 Whole, Az12 multiple:18.000<br>
          <hr>
          <i>Calculation Method: Spherical</i>
        ]]>                
        
            </description>
            <styleUrl>#24</styleUrl>
            <LineString id="22">
                <coordinates>-77.04098558,38.89359614000001,0.0 -76.94192180000002,38.91858289999999,0.0</coordinates>
            </LineString>
        </Placemark>
        <Placemark id="27">
            <name>PenE → AN</name>
            <description>
                
        
<![CDATA[
          <b>P1:</b> PenE<br>
          <b>P2:</b> AN<br>
          <hr>
          <b>Distance:</b> 6.841 miles<br>
          <hr>
          <u>Path P1 → P2:</u><br>
          <b>Forward Azimuth at P1 (Az12):</b> 61.000°<br>
          <b>Back Azimuth at P2 (BackAz12):</b> 61.070°<br>
          <hr>
          <u>Path P2 → P1:</u><br>
          <b>Forward Azimuth at P2 (Az21):</b> 241.070°<br>
          <b>Back Azimuth at P1 (BackAz21):</b> 241.000°<br>
          <hr>
          <b>Filter Reason(s):</b> Az12 Whole, Az12 target:61.000<br>
          <hr>
          <i>Calculation Method: Spherical</i>
        ]]>                
        
            </description>
            <styleUrl>#28</styleUrl>
            <LineString id="26">
                <coordinates>-77.05323877107107,38.87062821721818,0.0 -76.94192180000002,38.91858289999999,0.0</coordinates>
            </LineString>
        </Placemark>
        <Placemark id="31">
            <name>P → PenE</name>
            <description>
                
        
<![CDATA[
          <b>P1:</b> P<br>
          <b>P2:</b> PenE<br>
          <hr>
          <b>Distance:</b> 0.149 miles<br>
          <hr>
          <u>Path P1 → P2:</u><br>
          <b>Forward Azimuth at P1 (Az12):</b> 100.006°<br>
          <b>Back Azimuth at P2 (BackAz12):</b> 100.008°<br>
          <hr>
          <u>Path P2 → P1:</u><br>
          <b>Forward Azimuth at P2 (Az21):</b> 280.008°<br>
          <b>Back Azimuth at P1 (BackAz21):</b> 280.006°<br>
          <hr>
          <b>Filter Reason(s):</b> Az12 Whole, Az21 Whole<br>
          <hr>
          <i>Calculation Method: Spherical</i>
        ]]>                
        
            </description>
            <styleUrl>#32</styleUrl>
            <LineString id="30">
                <coordinates>-77.05596854698287,38.87100323118176,0.0 -77.05323877107107,38.87062821721818,0.0</coordinates>
            </LineString>
        </Placemark>
        <Placemark id="35">
            <name>J → Cap</name>
            <description>
                
        
<![CDATA[
          <b>P1:</b> J<br>
          <b>P2:</b> Cap<br>
          <hr>
          <b>Distance:</b> 1.470 miles<br>
          <hr>
          <u>Path P1 → P2:</u><br>
          <b>Forward Azimuth at P1 (Az12):</b> 89.992°<br>
          <b>Back Azimuth at P2 (BackAz12):</b> 90.009°<br>
          <hr>
          <u>Path P2 → P1:</u><br>
          <b>Forward Azimuth at P2 (Az21):</b> 270.009°<br>
          <b>Back Azimuth at P1 (BackAz21):</b> 269.992°<br>
          <hr>
          <b>Filter Reason(s):</b> Az12 multiple:15.000, Az12 multiple:18.000, Az21 Whole, Az21 multiple:15.000, Az21 multiple:18.000<br>
          <hr>
          <i>Calculation Method: Spherical</i>
        ]]>                
        
            </description>
            <styleUrl>#36</styleUrl>
            <LineString id="34">
                <coordinates>-77.03656908080315,38.88980129959375,0.0 -77.009227,38.889801,0.0</coordinates>
            </LineString>
        </Placemark>
        <Placemark id="39">
            <name>PenG → Sc</name>
            <description>
                
        
<![CDATA[
          <b>P1:</b> PenG<br>
          <b>P2:</b> Sc<br>
          <hr>
          <b>Distance:</b> 1.562 miles<br>
          <hr>
          <u>Path P1 → P2:</u><br>
          <b>Forward Azimuth at P1 (Az12):</b> 28.991°<br>
          <b>Back Azimuth at P2 (BackAz12):</b> 29.000°<br>
          <hr>
          <u>Path P2 → P1:</u><br>
          <b>Forward Azimuth at P2 (Az21):</b> 209.000°<br>
          <b>Back Azimuth at P1 (BackAz21):</b> 208.991°<br>
          <hr>
          <b>Filter Reason(s):</b> Az12 target:29.000<br>
          <hr>
          <i>Calculation Method: Spherical</i>
        ]]>                
        
            </description>
            <styleUrl>#40</styleUrl>
            <LineString id="38">
                <coordinates>-77.05466945787724,38.87291816657935,0.0 -77.04058603,38.89269952,0.0</coordinates>
            </LineString>
        </Placemark>
    </Document>
</kml>
