<?xml version="1.0" encoding="UTF-8"?>
<kml xmlns="http://www.opengis.net/kml/2.2" xmlns:gx="http://www.google.com/kml/ext/2.2" xmlns:kml="http://www.opengis.net/kml/2.2" xmlns:atom="http://www.w3.org/2005/Atom">
<Document>
	<name>CapHillPnts.kml</name>
	<StyleMap id="msn_placemark_circle13">
		<Pair>
			<key>normal</key>
			<styleUrl>#sn_placemark_circle10</styleUrl>
		</Pair>
		<Pair>
			<key>highlight</key>
			<styleUrl>#sh_placemark_circle_highlight15</styleUrl>
		</Pair>
	</StyleMap>
	<Style id="sh_placemark_circle_highlight15">
		<IconStyle>
			<color>a6bdffcc</color>
			<scale>0.5</scale>
			<Icon>
				<href>http://maps.google.com/mapfiles/kml/shapes/polygon.png</href>
			</Icon>
		</IconStyle>
		<LabelStyle>
			<color>99ffffff</color>
			<scale>0.5</scale>
		</LabelStyle>
		<LineStyle>
			<color>ffffaad2</color>
			<width>0.5</width>
		</LineStyle>
		<PolyStyle>
			<color>ffffaad2</color>
		</PolyStyle>
	</Style>
	<Style id="sn_placemark_circle10">
		<IconStyle>
			<color>a6bdffcc</color>
			<scale>0.5</scale>
			<Icon>
				<href>http://maps.google.com/mapfiles/kml/shapes/polygon.png</href>
			</Icon>
		</IconStyle>
		<LabelStyle>
			<color>99ffffff</color>
			<scale>0.5</scale>
		</LabelStyle>
		<LineStyle>
			<color>ffffaad2</color>
			<width>0.5</width>
		</LineStyle>
		<PolyStyle>
			<color>ffffaad2</color>
		</PolyStyle>
	</Style>
	<Folder>
		<name>CapHill</name>
		<Placemark>
			<name>Intsct053</name>
			<LookAt>
				<longitude>-76.99761444641886</longitude>
				<latitude>38.88526829043948</latitude>
				<altitude>0</altitude>
				<heading>0.01451134494041618</heading>
				<tilt>0</tilt>
				<range>3239.656948255094</range>
				<gx:altitudeMode>relativeToSeaFloor</gx:altitudeMode>
			</LookAt>
			<styleUrl>#msn_placemark_circle13</styleUrl>
			<Point>
				<gx:drawOrder>1</gx:drawOrder>
				<coordinates>-77.00599512135395,38.88141052569306,0</coordinates>
			</Point>
		</Placemark>
		<Placemark>
			<name>Intsct017</name>
			<LookAt>
				<longitude>-76.98689808001328</longitude>
				<latitude>38.88984373920624</latitude>
				<altitude>0</altitude>
				<heading>0.02122524510963937</heading>
				<tilt>0</tilt>
				<range>2865.68154150422</range>
				<gx:altitudeMode>relativeToSeaFloor</gx:altitudeMode>
			</LookAt>
			<styleUrl>#msn_placemark_circle13</styleUrl>
			<Point>
				<gx:drawOrder>1</gx:drawOrder>
				<coordinates>-76.97594889393882,38.88405616456036,0</coordinates>
			</Point>
		</Placemark>
		<Placemark>
			<name>Intsct050</name>
			<LookAt>
				<longitude>-76.97825990840396</longitude>
				<latitude>38.87428857625743</latitude>
				<altitude>0</altitude>
				<heading>0.02665695173219428</heading>
				<tilt>0</tilt>
				<range>2427.188101969998</range>
				<gx:altitudeMode>relativeToSeaFloor</gx:altitudeMode>
			</LookAt>
			<styleUrl>#msn_placemark_circle13</styleUrl>
			<Point>
				<gx:drawOrder>1</gx:drawOrder>
				<coordinates>-76.98072166352279,38.87838133334684,0</coordinates>
			</Point>
		</Placemark>
		<Placemark>
			<name>Intsct067</name>
			<LookAt>
				<longitude>-76.99951079855511</longitude>
				<latitude>38.89328908326723</latitude>
				<altitude>0</altitude>
				<heading>0.01328909160753895</heading>
				<tilt>0</tilt>
				<range>345.7227408180286</range>
				<gx:altitudeMode>relativeToSeaFloor</gx:altitudeMode>
			</LookAt>
			<styleUrl>#msn_placemark_circle13</styleUrl>
			<Point>
				<gx:drawOrder>1</gx:drawOrder>
				<coordinates>-76.99952125931438,38.89357874324944,0</coordinates>
			</Point>
		</Placemark>
		<Placemark>
			<name>Intsct060</name>
			<LookAt>
				<longitude>-77.00010077333231</longitude>
				<latitude>38.8855821984699</latitude>
				<altitude>0</altitude>
				<heading>0.01292019825753551</heading>
				<tilt>0</tilt>
				<range>335.7325893928639</range>
				<gx:altitudeMode>relativeToSeaFloor</gx:altitudeMode>
			</LookAt>
			<styleUrl>#msn_placemark_circle13</styleUrl>
			<Point>
				<gx:drawOrder>1</gx:drawOrder>
				<coordinates>-76.99954322427776,38.88604332093504,0</coordinates>
			</Point>
		</Placemark>
		<Placemark>
			<name>Intsct052</name>
			<LookAt>
				<longitude>-76.98291319500811</longitude>
				<latitude>38.88147917673419</latitude>
				<altitude>0</altitude>
				<heading>0.02374068439366566</heading>
				<tilt>0</tilt>
				<range>216.0153843429591</range>
				<gx:altitudeMode>relativeToSeaFloor</gx:altitudeMode>
			</LookAt>
			<styleUrl>#msn_placemark_circle13</styleUrl>
			<Point>
				<gx:drawOrder>1</gx:drawOrder>
				<coordinates>-76.98318242042795,38.88128115290582,0</coordinates>
			</Point>
		</Placemark>
		<Placemark>
			<name>Intsct062</name>
			<LookAt>
				<longitude>-76.9897280550594</longitude>
				<latitude>38.8897825533662</latitude>
				<altitude>0</altitude>
				<heading>0.01943146707106274</heading>
				<tilt>0</tilt>
				<range>418.4198685019479</range>
				<gx:altitudeMode>relativeToSeaFloor</gx:altitudeMode>
			</LookAt>
			<styleUrl>#msn_placemark_circle13</styleUrl>
			<Point>
				<gx:drawOrder>1</gx:drawOrder>
				<coordinates>-76.99025502597063,38.88980114214431,0</coordinates>
			</Point>
		</Placemark>
		<Placemark>
			<name>Intsct051</name>
			<LookAt>
				<longitude>-76.98202881927641</longitude>
				<latitude>38.8822443873798</latitude>
				<altitude>0</altitude>
				<heading>0.02429582558640283</heading>
				<tilt>0</tilt>
				<range>665.3335542662918</range>
				<gx:altitudeMode>relativeToSeaFloor</gx:altitudeMode>
			</LookAt>
			<styleUrl>#msn_placemark_circle13</styleUrl>
			<Point>
				<gx:drawOrder>1</gx:drawOrder>
				<coordinates>-76.98552565100998,38.88033775286354,0</coordinates>
			</Point>
		</Placemark>
		<Placemark>
			<name>Intsct073</name>
			<LookAt>
				<longitude>-76.98689808001328</longitude>
				<latitude>38.88984373920624</latitude>
				<altitude>0</altitude>
				<heading>0.02122524510963937</heading>
				<tilt>0</tilt>
				<range>2865.68154150422</range>
				<gx:altitudeMode>relativeToSeaFloor</gx:altitudeMode>
			</LookAt>
			<styleUrl>#msn_placemark_circle13</styleUrl>
			<Point>
				<gx:drawOrder>1</gx:drawOrder>
				<coordinates>-76.98728690433322,38.88627641171033,0</coordinates>
			</Point>
		</Placemark>
		<Placemark>
			<name>Intsct057</name>
			<LookAt>
				<longitude>-76.98496655361798</longitude>
				<latitude>38.88340836824066</latitude>
				<altitude>0</altitude>
				<heading>0.0224198197510483</heading>
				<tilt>0</tilt>
				<range>235.3911681049898</range>
				<gx:altitudeMode>relativeToSeaFloor</gx:altitudeMode>
			</LookAt>
			<styleUrl>#msn_placemark_circle13</styleUrl>
			<Point>
				<gx:drawOrder>1</gx:drawOrder>
				<coordinates>-76.98553999503207,38.88410581119781,0</coordinates>
			</Point>
		</Placemark>
		<Placemark>
			<name>Intsct065</name>
			<LookAt>
				<longitude>-76.99418757501219</longitude>
				<latitude>38.88322906329666</latitude>
				<altitude>0</altitude>
				<heading>0.01663103448079971</heading>
				<tilt>0</tilt>
				<range>2808.704055506662</range>
				<gx:altitudeMode>relativeToSeaFloor</gx:altitudeMode>
			</LookAt>
			<styleUrl>#msn_placemark_circle13</styleUrl>
			<Point>
				<gx:drawOrder>1</gx:drawOrder>
				<coordinates>-76.99158281042443,38.87788360928428,0</coordinates>
			</Point>
		</Placemark>
		<Placemark>
			<name>Intsct063</name>
			<LookAt>
				<longitude>-76.98436029517268</longitude>
				<latitude>38.89704850902326</latitude>
				<altitude>0</altitude>
				<heading>0.02280175869073849</heading>
				<tilt>0</tilt>
				<range>208.1208571637756</range>
				<gx:altitudeMode>relativeToSeaFloor</gx:altitudeMode>
			</LookAt>
			<styleUrl>#msn_placemark_circle13</styleUrl>
			<Point>
				<gx:drawOrder>1</gx:drawOrder>
				<coordinates>-76.98376414490676,38.89743589217142,0</coordinates>
			</Point>
		</Placemark>
		<Placemark>
			<name>Intsct064</name>
			<LookAt>
				<longitude>-76.98308931552711</longitude>
				<latitude>38.90044882060263</latitude>
				<altitude>0</altitude>
				<heading>0.02360019919420667</heading>
				<tilt>0</tilt>
				<range>690.6362270682617</range>
				<gx:altitudeMode>relativeToSeaFloor</gx:altitudeMode>
			</LookAt>
			<styleUrl>#msn_placemark_circle13</styleUrl>
			<Point>
				<gx:drawOrder>1</gx:drawOrder>
				<coordinates>-76.9834356610381,38.90012330071623,0</coordinates>
			</Point>
		</Placemark>
		<Placemark>
			<name>Intsct058</name>
			<LookAt>
				<longitude>-76.9938006145406</longitude>
				<latitude>38.88431535468891</latitude>
				<altitude>0</altitude>
				<heading>0.01687424631509656</heading>
				<tilt>0</tilt>
				<range>274.9854659418411</range>
				<gx:altitudeMode>relativeToSeaFloor</gx:altitudeMode>
			</LookAt>
			<styleUrl>#msn_placemark_circle13</styleUrl>
			<Point>
				<gx:drawOrder>1</gx:drawOrder>
				<coordinates>-76.99499976259511,38.88420836887803,0</coordinates>
			</Point>
		</Placemark>
		<Placemark>
			<name>Intsct076</name>
			<LookAt>
				<longitude>-76.97054072179455</longitude>
				<latitude>38.90593564076488</latitude>
				<altitude>0</altitude>
				<heading>0.03147890777528339</heading>
				<tilt>0</tilt>
				<range>624.5013781334172</range>
				<gx:altitudeMode>relativeToSeaFloor</gx:altitudeMode>
			</LookAt>
			<styleUrl>#msn_placemark_circle13</styleUrl>
			<Point>
				<gx:drawOrder>1</gx:drawOrder>
				<coordinates>-76.96995567470593,38.90562823083018,0</coordinates>
			</Point>
		</Placemark>
		<Placemark>
			<name>Intsct085</name>
			<LookAt>
				<longitude>-77.00855309247331</longitude>
				<latitude>38.88467648158865</latitude>
				<altitude>0</altitude>
				<heading>0.007613297872624941</heading>
				<tilt>0</tilt>
				<range>1066.78802236454</range>
				<gx:altitudeMode>relativeToSeaFloor</gx:altitudeMode>
			</LookAt>
			<styleUrl>#msn_placemark_circle13</styleUrl>
			<Point>
				<gx:drawOrder>1</gx:drawOrder>
				<coordinates>-77.01087273630439,38.88507836278518,0</coordinates>
			</Point>
		</Placemark>
		<Placemark>
			<name>Intsct071</name>
			<LookAt>
				<longitude>-77.00469176749721</longitude>
				<latitude>38.8825751322469</latitude>
				<altitude>0</altitude>
				<heading>0.01005081292546608</heading>
				<tilt>0</tilt>
				<range>1898.816835135705</range>
				<gx:altitudeMode>relativeToSeaFloor</gx:altitudeMode>
			</LookAt>
			<styleUrl>#msn_placemark_circle13</styleUrl>
			<Point>
				<gx:drawOrder>1</gx:drawOrder>
				<coordinates>-77.0066360573784,38.88323879096329,0</coordinates>
			</Point>
		</Placemark>
		<Placemark>
			<name>Intsct061</name>
			<LookAt>
				<longitude>-77.00355166915512</longitude>
				<latitude>38.87639092295607</latitude>
				<altitude>0</altitude>
				<heading>0.01075382607660082</heading>
				<tilt>0</tilt>
				<range>244.6899220967634</range>
				<gx:altitudeMode>relativeToSeaFloor</gx:altitudeMode>
			</LookAt>
			<styleUrl>#msn_placemark_circle13</styleUrl>
			<Point>
				<gx:drawOrder>1</gx:drawOrder>
				<coordinates>-77.00419666779833,38.8764814852439,0</coordinates>
			</Point>
		</Placemark>
		<Placemark>
			<name>Intsct072</name>
			<LookAt>
				<longitude>-77.02116180296439</longitude>
				<latitude>38.88818313426638</latitude>
				<altitude>0</altitude>
				<heading>-0.000287874296578226</heading>
				<tilt>0</tilt>
				<range>998.842957081579</range>
				<gx:altitudeMode>relativeToSeaFloor</gx:altitudeMode>
			</LookAt>
			<styleUrl>#msn_placemark_circle13</styleUrl>
			<Point>
				<gx:drawOrder>1</gx:drawOrder>
				<coordinates>-77.0229942828103,38.88610618676247,0</coordinates>
			</Point>
		</Placemark>
		<Placemark>
			<name>Intsct077</name>
			<LookAt>
				<longitude>-77.01250518177429</longitude>
				<latitude>38.87724486509574</latitude>
				<altitude>0</altitude>
				<heading>0.005129794060087151</heading>
				<tilt>0</tilt>
				<range>463.0621417614382</range>
				<gx:altitudeMode>relativeToSeaFloor</gx:altitudeMode>
			</LookAt>
			<styleUrl>#msn_placemark_circle13</styleUrl>
			<Point>
				<gx:drawOrder>1</gx:drawOrder>
				<coordinates>-77.01398016238869,38.87646430552218,0</coordinates>
			</Point>
		</Placemark>
		<Placemark>
			<name>Intsct082</name>
			<LookAt>
				<longitude>-77.00894087812381</longitude>
				<latitude>38.87088924136681</latitude>
				<altitude>0</altitude>
				<heading>0.007375442641764845</heading>
				<tilt>0</tilt>
				<range>300.8748368801351</range>
				<gx:altitudeMode>relativeToSeaFloor</gx:altitudeMode>
			</LookAt>
			<styleUrl>#msn_placemark_circle13</styleUrl>
			<Point>
				<gx:drawOrder>1</gx:drawOrder>
				<coordinates>-77.0090785493361,38.87069432450439,0</coordinates>
			</Point>
		</Placemark>
		<Placemark>
			<name>Intsct080</name>
			<LookAt>
				<longitude>-77.0295774685826</longitude>
				<latitude>38.88469550649484</latitude>
				<altitude>0</altitude>
				<heading>-0.005600561654737764</heading>
				<tilt>0</tilt>
				<range>1293.175247098543</range>
				<gx:altitudeMode>relativeToSeaFloor</gx:altitudeMode>
			</LookAt>
			<styleUrl>#msn_placemark_circle13</styleUrl>
			<Point>
				<gx:drawOrder>1</gx:drawOrder>
				<coordinates>-77.03200606491326,38.88355041608855,0</coordinates>
			</Point>
		</Placemark>
		<atom:link rel="app" href="https://www.google.com/earth/about/versions/#earth-pro" title="Google Earth Pro 7.3.6.10201"></atom:link>
	</Folder>
</Document>
</kml>
