<?xml version="1.0" encoding="UTF-8"?>
<kml xmlns="http://www.opengis.net/kml/2.2" xmlns:gx="http://www.google.com/kml/ext/2.2" xmlns:kml="http://www.opengis.net/kml/2.2" xmlns:atom="http://www.w3.org/2005/Atom">
<Document>
	<name>CapPnts.kml</name>
	<StyleMap id="m_ylw-pushpin">
		<Pair>
			<key>normal</key>
			<styleUrl>#s_ylw-pushpin</styleUrl>
		</Pair>
		<Pair>
			<key>highlight</key>
			<styleUrl>#s_ylw-pushpin_hl</styleUrl>
		</Pair>
	</StyleMap>
	<StyleMap id="msn_wht-blank">
		<Pair>
			<key>normal</key>
			<styleUrl>#sn_wht-blank</styleUrl>
		</Pair>
		<Pair>
			<key>highlight</key>
			<styleUrl>#sh_wht-blank</styleUrl>
		</Pair>
	</StyleMap>
	<Style id="s_ylw-pushpin">
		<IconStyle>
			<scale>1.1</scale>
			<Icon>
				<href>http://maps.google.com/mapfiles/kml/pushpin/ylw-pushpin.png</href>
			</Icon>
			<hotSpot x="20" y="2" xunits="pixels" yunits="pixels"/>
		</IconStyle>
	</Style>
	<Style id="s_ylw-pushpin_hl">
		<IconStyle>
			<scale>1.3</scale>
			<Icon>
				<href>http://maps.google.com/mapfiles/kml/pushpin/ylw-pushpin.png</href>
			</Icon>
			<hotSpot x="20" y="2" xunits="pixels" yunits="pixels"/>
		</IconStyle>
	</Style>
	<Style id="sh_wht-blank">
		<IconStyle>
			<scale>1.3</scale>
			<Icon>
				<href>http://maps.google.com/mapfiles/kml/paddle/wht-blank.png</href>
			</Icon>
			<hotSpot x="32" y="1" xunits="pixels" yunits="pixels"/>
		</IconStyle>
		<BalloonStyle>
		</BalloonStyle>
		<ListStyle>
			<ItemIcon>
				<href>http://maps.google.com/mapfiles/kml/paddle/wht-blank-lv.png</href>
			</ItemIcon>
		</ListStyle>
	</Style>
	<Style id="sn_wht-blank">
		<IconStyle>
			<scale>1.1</scale>
			<Icon>
				<href>http://maps.google.com/mapfiles/kml/paddle/wht-blank.png</href>
			</Icon>
			<hotSpot x="32" y="1" xunits="pixels" yunits="pixels"/>
		</IconStyle>
		<BalloonStyle>
		</BalloonStyle>
		<ListStyle>
			<ItemIcon>
				<href>http://maps.google.com/mapfiles/kml/paddle/wht-blank-lv.png</href>
			</ItemIcon>
		</ListStyle>
	</Style>
	<Folder>
		<name>CapPnts</name>
		<Placemark>
			<name>CapA</name>
			<LookAt>
				<longitude>-77.00904451751012</longitude>
				<latitude>38.88982762042826</latitude>
				<altitude>0</altitude>
				<heading>-0.1440438388356016</heading>
				<tilt>14.86721413723659</tilt>
				<range>74.7442826353136</range>
				<gx:altitudeMode>relativeToSeaFloor</gx:altitudeMode>
			</LookAt>
			<styleUrl>#msn_wht-blank</styleUrl>
			<Point>
				<gx:drawOrder>1</gx:drawOrder>
				<coordinates>-77.00907543471948,38.88982572820066,0</coordinates>
			</Point>
		</Placemark>
		<Placemark>
			<name>CapR</name>
			<LookAt>
				<longitude>-77.02085458945616</longitude>
				<latitude>38.85694664304295</latitude>
				<altitude>0</altitude>
				<heading>-0.1514615455215911</heading>
				<tilt>14.86745123751469</tilt>
				<range>178.5372523988175</range>
				<gx:altitudeMode>relativeToSeaFloor</gx:altitudeMode>
			</LookAt>
			<styleUrl>#msn_wht-blank</styleUrl>
			<Point>
				<gx:drawOrder>1</gx:drawOrder>
				<coordinates>-77.02085651267426,38.85728132740896,0</coordinates>
			</Point>
		</Placemark>
		<Placemark>
			<name>CapM</name>
			<LookAt>
				<longitude>-77.01083436693116</longitude>
				<latitude>38.88016970062589</latitude>
				<altitude>0</altitude>
				<heading>-0.1452984258234342</heading>
				<tilt>14.86790458794072</tilt>
				<range>380.0444046904632</range>
				<gx:altitudeMode>relativeToSeaFloor</gx:altitudeMode>
			</LookAt>
			<styleUrl>#msn_wht-blank</styleUrl>
			<Point>
				<gx:drawOrder>1</gx:drawOrder>
				<coordinates>-77.01227342578163,38.88119104603373,0</coordinates>
			</Point>
		</Placemark>
		<Placemark>
			<name>CapM</name>
			<LookAt>
				<longitude>-77.01574561955306</longitude>
				<latitude>38.86959317590992</latitude>
				<altitude>0</altitude>
				<heading>-0.1483789175405488</heading>
				<tilt>14.86857144900098</tilt>
				<range>669.4019827864169</range>
				<gx:altitudeMode>relativeToSeaFloor</gx:altitudeMode>
			</LookAt>
			<styleUrl>#msn_wht-blank</styleUrl>
			<Point>
				<gx:drawOrder>1</gx:drawOrder>
				<coordinates>-77.01624557592933,38.86789458124056,0</coordinates>
			</Point>
		</Placemark>
		<Placemark>
			<name>CapL</name>
			<LookAt>
				<longitude>-77.0043286323459</longitude>
				<latitude>38.87271880506657</latitude>
				<altitude>0</altitude>
				<heading>-0.1412200363907595</heading>
				<tilt>14.86800689375219</tilt>
				<range>425.9422912009565</range>
				<gx:altitudeMode>relativeToSeaFloor</gx:altitudeMode>
			</LookAt>
			<styleUrl>#msn_wht-blank</styleUrl>
			<Point>
				<gx:drawOrder>1</gx:drawOrder>
				<coordinates>-77.00292207036118,38.87307523072135,0</coordinates>
			</Point>
		</Placemark>
		<Placemark>
			<name>CapK</name>
			<LookAt>
				<longitude>-77.00662258885394</longitude>
				<latitude>38.8962374892709</latitude>
				<altitude>0</altitude>
				<heading>-0.1425227167860043</heading>
				<tilt>14.86740385185533</tilt>
				<range>157.1258805657178</range>
				<gx:altitudeMode>relativeToSeaFloor</gx:altitudeMode>
			</LookAt>
			<styleUrl>#msn_wht-blank</styleUrl>
			<Point>
				<gx:drawOrder>1</gx:drawOrder>
				<coordinates>-77.00658123413926,38.89646795825885,0</coordinates>
			</Point>
		</Placemark>
		<Placemark>
			<name>CapI</name>
			<LookAt>
				<longitude>-77.00878858329467</longitude>
				<latitude>38.89003777871365</latitude>
				<altitude>0</altitude>
				<heading>-0.1438830439630936</heading>
				<tilt>14.86779494475171</tilt>
				<range>326.7603013400246</range>
				<gx:altitudeMode>relativeToSeaFloor</gx:altitudeMode>
			</LookAt>
			<styleUrl>#msn_wht-blank</styleUrl>
			<Point>
				<gx:drawOrder>1</gx:drawOrder>
				<coordinates>-77.00902609211164,38.88914980840929,0</coordinates>
			</Point>
		</Placemark>
		<Placemark>
			<name>CapJ</name>
			<LookAt>
				<longitude>-77.00878858329467</longitude>
				<latitude>38.89003777871365</latitude>
				<altitude>0</altitude>
				<heading>-0.1438830439630936</heading>
				<tilt>14.86779494475171</tilt>
				<range>326.7603013400246</range>
				<gx:altitudeMode>relativeToSeaFloor</gx:altitudeMode>
			</LookAt>
			<styleUrl>#msn_wht-blank</styleUrl>
			<Point>
				<gx:drawOrder>1</gx:drawOrder>
				<coordinates>-77.00903437439402,38.89074737140278,0</coordinates>
			</Point>
		</Placemark>
		<Placemark>
			<name>CapH</name>
			<LookAt>
				<longitude>-77.01198480411244</longitude>
				<latitude>38.88916536074704</latitude>
				<altitude>0</altitude>
				<heading>-0.1458888543840976</heading>
				<tilt>14.86725859048748</tilt>
				<range>94.22741091306406</range>
				<gx:altitudeMode>relativeToSeaFloor</gx:altitudeMode>
			</LookAt>
			<styleUrl>#msn_wht-blank</styleUrl>
			<Point>
				<gx:drawOrder>1</gx:drawOrder>
				<coordinates>-77.01235415629517,38.8889842559025,0</coordinates>
			</Point>
		</Placemark>
		<Placemark>
			<name>CapG</name>
			<LookAt>
				<longitude>-77.01213967252633</longitude>
				<latitude>38.89062511336208</latitude>
				<altitude>0</altitude>
				<heading>-0.1459895314599937</heading>
				<tilt>14.8672656222908</tilt>
				<range>97.03414909199051</range>
				<gx:altitudeMode>relativeToSeaFloor</gx:altitudeMode>
			</LookAt>
			<styleUrl>#msn_wht-blank</styleUrl>
			<Point>
				<gx:drawOrder>1</gx:drawOrder>
				<coordinates>-77.01234461248093,38.89064906223503,0</coordinates>
			</Point>
		</Placemark>
		<Placemark>
			<name>CapF</name>
			<LookAt>
				<longitude>-77.00999701176617</longitude>
				<latitude>38.88975804385652</latitude>
				<altitude>0</altitude>
				<heading>-0.1446436015328759</heading>
				<tilt>14.86712847251975</tilt>
				<range>37.61779349970872</range>
				<gx:altitudeMode>relativeToSeaFloor</gx:altitudeMode>
			</LookAt>
			<styleUrl>#msn_wht-blank</styleUrl>
			<Point>
				<gx:drawOrder>1</gx:drawOrder>
				<coordinates>-77.01011918158574,38.88981153033319,0</coordinates>
			</Point>
		</Placemark>
		<Placemark>
			<name>CapE</name>
			<LookAt>
				<longitude>-77.00938288310151</longitude>
				<latitude>38.88897266970891</latitude>
				<altitude>0</altitude>
				<heading>-0.1442591463691188</heading>
				<tilt>14.86723786749925</tilt>
				<range>84.81409029121389</range>
				<gx:altitudeMode>relativeToSeaFloor</gx:altitudeMode>
			</LookAt>
			<styleUrl>#msn_wht-blank</styleUrl>
			<Point>
				<gx:drawOrder>1</gx:drawOrder>
				<coordinates>-77.00948753797282,38.88884511763321,0</coordinates>
			</Point>
		</Placemark>
		<Placemark>
			<name>CapD</name>
			<LookAt>
				<longitude>-77.0084935789088</longitude>
				<latitude>38.88895201584386</latitude>
				<altitude>0</altitude>
				<heading>-0.1437049486183455</heading>
				<tilt>14.86723323052568</tilt>
				<range>82.60952766411106</range>
				<gx:altitudeMode>relativeToSeaFloor</gx:altitudeMode>
			</LookAt>
			<styleUrl>#msn_wht-blank</styleUrl>
			<Point>
				<gx:drawOrder>1</gx:drawOrder>
				<coordinates>-77.00861944765801,38.88882350262796,0</coordinates>
			</Point>
		</Placemark>
		<Placemark>
			<name>CapB</name>
			<LookAt>
				<longitude>-77.00875628380722</longitude>
				<latitude>38.89065129381881</latitude>
				<altitude>0</altitude>
				<heading>-0.1438628342722498</heading>
				<tilt>14.86740551623322</tilt>
				<range>157.690318721932</range>
				<gx:altitudeMode>relativeToSeaFloor</gx:altitudeMode>
			</LookAt>
			<styleUrl>#m_ylw-pushpin</styleUrl>
			<Point>
				<gx:drawOrder>1</gx:drawOrder>
				<coordinates>-77.00867584691545,38.89077651915773,0</coordinates>
			</Point>
		</Placemark>
		<Placemark>
			<name>CapC</name>
			<LookAt>
				<longitude>-77.00875628380722</longitude>
				<latitude>38.89065129381881</latitude>
				<altitude>0</altitude>
				<heading>-0.1438628342722498</heading>
				<tilt>14.86740551623322</tilt>
				<range>157.690318721932</range>
				<gx:altitudeMode>relativeToSeaFloor</gx:altitudeMode>
			</LookAt>
			<styleUrl>#m_ylw-pushpin</styleUrl>
			<Point>
				<gx:drawOrder>1</gx:drawOrder>
				<coordinates>-77.00951785716892,38.89079587648465,0</coordinates>
			</Point>
		</Placemark>
		<atom:link rel="app" href="https://www.google.com/earth/about/versions/#earth-pro" title="Google Earth Pro 7.3.6.10201"></atom:link>
	</Folder>
</Document>
</kml>
