<?xml version="1.0" encoding="UTF-8"?>
<kml xmlns="http://www.opengis.net/kml/2.2" xmlns:gx="http://www.google.com/kml/ext/2.2">
    <Document id="1">
        <Style id="4">
            <LineStyle id="5">
                <color>FF33DD00</color>
                <colorMode>normal</colorMode>
                <width>1.5</width>
            </LineStyle>
        </Style>
        <Style id="8">
            <LineStyle id="9">
                <color>FFBBEE11</color>
                <colorMode>normal</colorMode>
                <width>1.5</width>
            </LineStyle>
        </Style>
        <Style id="12">
            <LineStyle id="13">
                <color>FFEE5522</color>
                <colorMode>normal</colorMode>
                <width>1.5</width>
            </LineStyle>
        </Style>
        <Style id="16">
            <LineStyle id="17">
                <color>FFEE5522</color>
                <colorMode>normal</colorMode>
                <width>1.5</width>
            </LineStyle>
        </Style>
        <Style id="20">
            <LineStyle id="21">
                <color>FFDDFF22</color>
                <colorMode>normal</colorMode>
                <width>1.5</width>
            </LineStyle>
        </Style>
        <Style id="24">
            <LineStyle id="25">
                <color>FFDDFF22</color>
                <colorMode>normal</colorMode>
                <width>1.5</width>
            </LineStyle>
        </Style>
        <Style id="28">
            <LineStyle id="29">
                <color>FFDDFF22</color>
                <colorMode>normal</colorMode>
                <width>1.5</width>
            </LineStyle>
        </Style>
        <Style id="32">
            <LineStyle id="33">
                <color>FFDDFF22</color>
                <colorMode>normal</colorMode>
                <width>1.5</width>
            </LineStyle>
        </Style>
        <Style id="36">
            <LineStyle id="37">
                <color>FF00DD00</color>
                <colorMode>normal</colorMode>
                <width>1.5</width>
            </LineStyle>
        </Style>
        <Style id="40">
            <LineStyle id="41">
                <color>FF77FF00</color>
                <colorMode>normal</colorMode>
                <width>1.5</width>
            </LineStyle>
        </Style>
        <Style id="44">
            <LineStyle id="45">
                <color>FF33DD00</color>
                <colorMode>normal</colorMode>
                <width>1.5</width>
            </LineStyle>
        </Style>
        <name>Filtered Lines</name>
        <description>Lines generated using Spherical calculations.</description>
        <Placemark id="3">
            <name>P → PenE</name>
            <description>
                
        
<![CDATA[
          <b>P1:</b> P<br>
          <b>P2:</b> PenE<br>
          <hr>
          <b>Distance:</b> 0.149 miles<br>
          <hr>
          <u>Path P1 → P2:</u><br>
          <b>Forward Azimuth at P1 (Az12):</b> 100.006°<br>
          <b>Back Azimuth at P2 (BackAz12):</b> 100.008°<br>
          <hr>
          <u>Path P2 → P1:</u><br>
          <b>Forward Azimuth at P2 (Az21):</b> 280.008°<br>
          <b>Back Azimuth at P1 (BackAz21):</b> 280.006°<br>
          <hr>
          <b>Filter Reason(s):</b> Dist factor of:2.2360, Dist multiple:0.1491<br>
          <hr>
          <i>Calculation Method: Spherical</i>
        ]]>                
        
            </description>
            <styleUrl>#4</styleUrl>
            <LineString id="2">
                <coordinates>-77.05596854698287,38.87100323118176,0.0 -77.05323877107107,38.87062821721818,0.0</coordinates>
            </LineString>
        </Placemark>
        <Placemark id="7">
            <name>PenF → PenD</name>
            <description>
                
        
<![CDATA[
          <b>P1:</b> PenF<br>
          <b>P2:</b> PenD<br>
          <hr>
          <b>Distance:</b> 0.176 miles<br>
          <hr>
          <u>Path P1 → P2:</u><br>
          <b>Forward Azimuth at P1 (Az12):</b> 297.731°<br>
          <b>Back Azimuth at P2 (BackAz12):</b> 297.729°<br>
          <hr>
          <u>Path P2 → P1:</u><br>
          <b>Forward Azimuth at P2 (Az21):</b> 117.729°<br>
          <b>Back Azimuth at P1 (BackAz21):</b> 117.731°<br>
          <hr>
          <b>Filter Reason(s):</b> Dist factor of:3.7025<br>
          <hr>
          <i>Calculation Method: Spherical</i>
        ]]>                
        
            </description>
            <styleUrl>#8</styleUrl>
            <LineString id="6">
                <coordinates>-77.05555738705385,38.86885600238287,0.0 -77.05845931790411,38.87004371204871,0.0</coordinates>
            </LineString>
        </Placemark>
        <Placemark id="11">
            <name>J → M</name>
            <description>
                
        
<![CDATA[
          <b>P1:</b> J<br>
          <b>P2:</b> M<br>
          <hr>
          <b>Distance:</b> 0.073 miles<br>
          <hr>
          <u>Path P1 → P2:</u><br>
          <b>Forward Azimuth at P1 (Az12):</b> 107.523°<br>
          <b>Back Azimuth at P2 (BackAz12):</b> 107.524°<br>
          <hr>
          <u>Path P2 → P1:</u><br>
          <b>Forward Azimuth at P2 (Az21):</b> 287.524°<br>
          <b>Back Azimuth at P1 (BackAz21):</b> 287.523°<br>
          <hr>
          <b>Filter Reason(s):</b> Dist factor of:5.6050<br>
          <hr>
          <i>Calculation Method: Spherical</i>
        ]]>                
        
            </description>
            <styleUrl>#12</styleUrl>
            <LineString id="10">
                <coordinates>-77.03656908080315,38.88980129959375,0.0 -77.035278,38.889484,0.0</coordinates>
            </LineString>
        </Placemark>
        <Placemark id="15">
            <name>Sc → Ec</name>
            <description>
                
        
<![CDATA[
          <b>P1:</b> Sc<br>
          <b>P2:</b> Ec<br>
          <hr>
          <b>Distance:</b> 0.008 miles<br>
          <hr>
          <u>Path P1 → P2:</u><br>
          <b>Forward Azimuth at P1 (Az12):</b> 320.096°<br>
          <b>Back Azimuth at P2 (BackAz12):</b> 320.095°<br>
          <hr>
          <u>Path P2 → P1:</u><br>
          <b>Forward Azimuth at P2 (Az21):</b> 140.095°<br>
          <b>Back Azimuth at P1 (BackAz21):</b> 140.096°<br>
          <hr>
          <b>Filter Reason(s):</b> Dist factor of:5.6050<br>
          <hr>
          <i>Calculation Method: Spherical</i>
        ]]>                
        
            </description>
            <styleUrl>#16</styleUrl>
            <LineString id="14">
                <coordinates>-77.04058603,38.89269952,0.0 -77.0406797,38.89278669999997,0.0</coordinates>
            </LineString>
        </Placemark>
        <Placemark id="19">
            <name>P → PenA</name>
            <description>
                
        
<![CDATA[
          <b>P1:</b> P<br>
          <b>P2:</b> PenA<br>
          <hr>
          <b>Distance:</b> 0.149 miles<br>
          <hr>
          <u>Path P1 → P2:</u><br>
          <b>Forward Azimuth at P1 (Az12):</b> 315.846°<br>
          <b>Back Azimuth at P2 (BackAz12):</b> 315.845°<br>
          <hr>
          <u>Path P2 → P1:</u><br>
          <b>Forward Azimuth at P2 (Az21):</b> 135.845°<br>
          <b>Back Azimuth at P1 (BackAz21):</b> 135.846°<br>
          <hr>
          <b>Filter Reason(s):</b> Dist multiple:0.1491<br>
          <hr>
          <i>Calculation Method: Spherical</i>
        ]]>                
        
            </description>
            <styleUrl>#20</styleUrl>
            <LineString id="18">
                <coordinates>-77.05596854698287,38.87100323118176,0.0 -77.05790028667388,38.872552231854,0.0</coordinates>
            </LineString>
        </Placemark>
        <Placemark id="23">
            <name>P → PenD</name>
            <description>
                
        
<![CDATA[
          <b>P1:</b> P<br>
          <b>P2:</b> PenD<br>
          <hr>
          <b>Distance:</b> 0.149 miles<br>
          <hr>
          <u>Path P1 → P2:</u><br>
          <b>Forward Azimuth at P1 (Az12):</b> 243.675°<br>
          <b>Back Azimuth at P2 (BackAz12):</b> 243.673°<br>
          <hr>
          <u>Path P2 → P1:</u><br>
          <b>Forward Azimuth at P2 (Az21):</b> 63.673°<br>
          <b>Back Azimuth at P1 (BackAz21):</b> 63.675°<br>
          <hr>
          <b>Filter Reason(s):</b> Dist multiple:0.1491<br>
          <hr>
          <i>Calculation Method: Spherical</i>
        ]]>                
        
            </description>
            <styleUrl>#24</styleUrl>
            <LineString id="22">
                <coordinates>-77.05596854698287,38.87100323118176,0.0 -77.05845931790411,38.87004371204871,0.0</coordinates>
            </LineString>
        </Placemark>
        <Placemark id="27">
            <name>PenA → WH</name>
            <description>
                
        
<![CDATA[
          <b>P1:</b> PenA<br>
          <b>P2:</b> WH<br>
          <hr>
          <b>Distance:</b> 2.087 miles<br>
          <hr>
          <u>Path P1 → P2:</u><br>
          <b>Forward Azimuth at P1 (Az12):</b> 33.336°<br>
          <b>Back Azimuth at P2 (BackAz12):</b> 33.350°<br>
          <hr>
          <u>Path P2 → P1:</u><br>
          <b>Forward Azimuth at P2 (Az21):</b> 213.350°<br>
          <b>Back Azimuth at P1 (BackAz21):</b> 213.336°<br>
          <hr>
          <b>Filter Reason(s):</b> Dist multiple:0.1491<br>
          <hr>
          <i>Calculation Method: Spherical</i>
        ]]>                
        
            </description>
            <styleUrl>#28</styleUrl>
            <LineString id="26">
                <coordinates>-77.05790028667388,38.872552231854,0.0 -77.036569,38.89778875877805,0.0</coordinates>
            </LineString>
        </Placemark>
        <Placemark id="31">
            <name>Nc → NOa</name>
            <description>
                
        
<![CDATA[
          <b>P1:</b> Nc<br>
          <b>P2:</b> NOa<br>
          <hr>
          <b>Distance:</b> 2.386 miles<br>
          <hr>
          <u>Path P1 → P2:</u><br>
          <b>Forward Azimuth at P1 (Az12):</b> 324.038°<br>
          <b>Back Azimuth at P2 (BackAz12):</b> 324.022°<br>
          <hr>
          <u>Path P2 → P1:</u><br>
          <b>Forward Azimuth at P2 (Az21):</b> 144.022°<br>
          <b>Back Azimuth at P1 (BackAz21):</b> 144.038°<br>
          <hr>
          <b>Filter Reason(s):</b> Dist multiple:0.1491<br>
          <hr>
          <i>Calculation Method: Spherical</i>
        ]]>                
        
            </description>
            <styleUrl>#32</styleUrl>
            <LineString id="30">
                <coordinates>-77.04098558,38.89359614000001,0.0 -77.06705128052432,38.92154464050518,0.0</coordinates>
            </LineString>
        </Placemark>
        <Placemark id="35">
            <name>PenG → Ec</name>
            <description>
                
        
<![CDATA[
          <b>P1:</b> PenG<br>
          <b>P2:</b> Ec<br>
          <hr>
          <b>Distance:</b> 1.565 miles<br>
          <hr>
          <u>Path P1 → P2:</u><br>
          <b>Forward Azimuth at P1 (Az12):</b> 28.723°<br>
          <b>Back Azimuth at P2 (BackAz12):</b> 28.732°<br>
          <hr>
          <u>Path P2 → P1:</u><br>
          <b>Forward Azimuth at P2 (Az21):</b> 208.732°<br>
          <b>Back Azimuth at P1 (BackAz21):</b> 208.723°<br>
          <hr>
          <b>Filter Reason(s):</b> Dist multiple:0.1739<br>
          <hr>
          <i>Calculation Method: Spherical</i>
        ]]>                
        
            </description>
            <styleUrl>#36</styleUrl>
            <LineString id="34">
                <coordinates>-77.05466945787724,38.87291816657935,0.0 -77.0406797,38.89278669999997,0.0</coordinates>
            </LineString>
        </Placemark>
        <Placemark id="39">
            <name>PenE → Sc</name>
            <description>
                
        
<![CDATA[
          <b>P1:</b> PenE<br>
          <b>P2:</b> Sc<br>
          <hr>
          <b>Distance:</b> 1.670 miles<br>
          <hr>
          <u>Path P1 → P2:</u><br>
          <b>Forward Azimuth at P1 (Az12):</b> 24.045°<br>
          <b>Back Azimuth at P2 (BackAz12):</b> 24.053°<br>
          <hr>
          <u>Path P2 → P1:</u><br>
          <b>Forward Azimuth at P2 (Az21):</b> 204.053°<br>
          <b>Back Azimuth at P1 (BackAz21):</b> 204.045°<br>
          <hr>
          <b>Filter Reason(s):</b> Dist multiple:0.3338<br>
          <hr>
          <i>Calculation Method: Spherical</i>
        ]]>                
        
            </description>
            <styleUrl>#40</styleUrl>
            <LineString id="38">
                <coordinates>-77.05323877107107,38.87062821721818,0.0 -77.04058603,38.89269952,0.0</coordinates>
            </LineString>
        </Placemark>
        <Placemark id="43">
            <name>P → CCnrA</name>
            <description>
                
        
<![CDATA[
          <b>P1:</b> P<br>
          <b>P2:</b> CCnrA<br>
          <hr>
          <b>Distance:</b> 2.828 miles<br>
          <hr>
          <u>Path P1 → P2:</u><br>
          <b>Forward Azimuth at P1 (Az12):</b> 64.186°<br>
          <b>Back Azimuth at P2 (BackAz12):</b> 64.216°<br>
          <hr>
          <u>Path P2 → P1:</u><br>
          <b>Forward Azimuth at P2 (Az21):</b> 244.216°<br>
          <b>Back Azimuth at P1 (BackAz21):</b> 244.186°<br>
          <hr>
          <b>Filter Reason(s):</b> Dist multiple:0.7071<br>
          <hr>
          <i>Calculation Method: Spherical</i>
        ]]>                
        
            </description>
            <styleUrl>#44</styleUrl>
            <LineString id="42">
                <coordinates>-77.05596854698287,38.87100323118176,0.0 -77.00861883736764,38.88882152017216,0.0</coordinates>
            </LineString>
        </Placemark>
    </Document>
</kml>
