<?xml version="1.0" encoding="UTF-8"?>
<kml xmlns="http://www.opengis.net/kml/2.2" xmlns:gx="http://www.google.com/kml/ext/2.2">
    <Document id="1">
        <Style id="4">
            <LineStyle id="5">
                <color>FF33DD00</color>
                <colorMode>normal</colorMode>
                <width>1.5</width>
            </LineStyle>
        </Style>
        <Style id="8">
            <LineStyle id="9">
                <color>FFBBEE11</color>
                <colorMode>normal</colorMode>
                <width>1.5</width>
            </LineStyle>
        </Style>
        <Style id="12">
            <LineStyle id="13">
                <color>FFEE5522</color>
                <colorMode>normal</colorMode>
                <width>1.5</width>
            </LineStyle>
        </Style>
        <Style id="16">
            <LineStyle id="17">
                <color>FFEE5522</color>
                <colorMode>normal</colorMode>
                <width>1.5</width>
            </LineStyle>
        </Style>
        <Style id="20">
            <LineStyle id="21">
                <color>FFEE5522</color>
                <colorMode>normal</colorMode>
                <width>1.5</width>
            </LineStyle>
        </Style>
        <Style id="24">
            <LineStyle id="25">
                <color>FFEE5522</color>
                <colorMode>normal</colorMode>
                <width>1.5</width>
            </LineStyle>
        </Style>
        <Style id="28">
            <LineStyle id="29">
                <color>FFEE5522</color>
                <colorMode>normal</colorMode>
                <width>1.5</width>
            </LineStyle>
        </Style>
        <Style id="32">
            <LineStyle id="33">
                <color>FFEE5522</color>
                <colorMode>normal</colorMode>
                <width>1.5</width>
            </LineStyle>
        </Style>
        <Style id="36">
            <LineStyle id="37">
                <color>FFEE5522</color>
                <colorMode>normal</colorMode>
                <width>1.5</width>
            </LineStyle>
        </Style>
        <Style id="40">
            <LineStyle id="41">
                <color>FFEE5522</color>
                <colorMode>normal</colorMode>
                <width>1.5</width>
            </LineStyle>
        </Style>
        <Style id="44">
            <LineStyle id="45">
                <color>FFEE5522</color>
                <colorMode>normal</colorMode>
                <width>1.5</width>
            </LineStyle>
        </Style>
        <Style id="48">
            <LineStyle id="49">
                <color>FFEE5522</color>
                <colorMode>normal</colorMode>
                <width>1.5</width>
            </LineStyle>
        </Style>
        <Style id="52">
            <LineStyle id="53">
                <color>FFEE5522</color>
                <colorMode>normal</colorMode>
                <width>1.5</width>
            </LineStyle>
        </Style>
        <Style id="56">
            <LineStyle id="57">
                <color>FFEE5522</color>
                <colorMode>normal</colorMode>
                <width>1.5</width>
            </LineStyle>
        </Style>
        <Style id="60">
            <LineStyle id="61">
                <color>FFEE5522</color>
                <colorMode>normal</colorMode>
                <width>1.5</width>
            </LineStyle>
        </Style>
        <Style id="64">
            <LineStyle id="65">
                <color>FFEE5522</color>
                <colorMode>normal</colorMode>
                <width>1.5</width>
            </LineStyle>
        </Style>
        <Style id="68">
            <LineStyle id="69">
                <color>FFEE5522</color>
                <colorMode>normal</colorMode>
                <width>1.5</width>
            </LineStyle>
        </Style>
        <Style id="72">
            <LineStyle id="73">
                <color>FFEE5522</color>
                <colorMode>normal</colorMode>
                <width>1.5</width>
            </LineStyle>
        </Style>
        <Style id="76">
            <LineStyle id="77">
                <color>FFEE5522</color>
                <colorMode>normal</colorMode>
                <width>1.5</width>
            </LineStyle>
        </Style>
        <Style id="80">
            <LineStyle id="81">
                <color>FFEE5522</color>
                <colorMode>normal</colorMode>
                <width>1.5</width>
            </LineStyle>
        </Style>
        <Style id="84">
            <LineStyle id="85">
                <color>FFEE5522</color>
                <colorMode>normal</colorMode>
                <width>1.5</width>
            </LineStyle>
        </Style>
        <Style id="88">
            <LineStyle id="89">
                <color>FFEE5522</color>
                <colorMode>normal</colorMode>
                <width>1.5</width>
            </LineStyle>
        </Style>
        <Style id="92">
            <LineStyle id="93">
                <color>FFEE5522</color>
                <colorMode>normal</colorMode>
                <width>1.5</width>
            </LineStyle>
        </Style>
        <Style id="96">
            <LineStyle id="97">
                <color>FFEE5522</color>
                <colorMode>normal</colorMode>
                <width>1.5</width>
            </LineStyle>
        </Style>
        <Style id="100">
            <LineStyle id="101">
                <color>FFEE5522</color>
                <colorMode>normal</colorMode>
                <width>1.5</width>
            </LineStyle>
        </Style>
        <Style id="104">
            <LineStyle id="105">
                <color>FFEE5522</color>
                <colorMode>normal</colorMode>
                <width>1.5</width>
            </LineStyle>
        </Style>
        <Style id="108">
            <LineStyle id="109">
                <color>FFEE5522</color>
                <colorMode>normal</colorMode>
                <width>1.5</width>
            </LineStyle>
        </Style>
        <Style id="112">
            <LineStyle id="113">
                <color>FFEE5522</color>
                <colorMode>normal</colorMode>
                <width>1.5</width>
            </LineStyle>
        </Style>
        <Style id="116">
            <LineStyle id="117">
                <color>FFEE5522</color>
                <colorMode>normal</colorMode>
                <width>1.5</width>
            </LineStyle>
        </Style>
        <Style id="120">
            <LineStyle id="121">
                <color>FFEE5522</color>
                <colorMode>normal</colorMode>
                <width>1.5</width>
            </LineStyle>
        </Style>
        <Style id="124">
            <LineStyle id="125">
                <color>FFEE5522</color>
                <colorMode>normal</colorMode>
                <width>1.5</width>
            </LineStyle>
        </Style>
        <Style id="128">
            <LineStyle id="129">
                <color>FFEE5522</color>
                <colorMode>normal</colorMode>
                <width>1.5</width>
            </LineStyle>
        </Style>
        <Style id="132">
            <LineStyle id="133">
                <color>FFEE5522</color>
                <colorMode>normal</colorMode>
                <width>1.5</width>
            </LineStyle>
        </Style>
        <Style id="136">
            <LineStyle id="137">
                <color>FFEE5522</color>
                <colorMode>normal</colorMode>
                <width>1.5</width>
            </LineStyle>
        </Style>
        <Style id="140">
            <LineStyle id="141">
                <color>FFEE5522</color>
                <colorMode>normal</colorMode>
                <width>1.5</width>
            </LineStyle>
        </Style>
        <Style id="144">
            <LineStyle id="145">
                <color>FFEE5522</color>
                <colorMode>normal</colorMode>
                <width>1.5</width>
            </LineStyle>
        </Style>
        <Style id="148">
            <LineStyle id="149">
                <color>FFEE5522</color>
                <colorMode>normal</colorMode>
                <width>1.5</width>
            </LineStyle>
        </Style>
        <Style id="152">
            <LineStyle id="153">
                <color>FFEE5522</color>
                <colorMode>normal</colorMode>
                <width>1.5</width>
            </LineStyle>
        </Style>
        <Style id="156">
            <LineStyle id="157">
                <color>FFEE5522</color>
                <colorMode>normal</colorMode>
                <width>1.5</width>
            </LineStyle>
        </Style>
        <Style id="160">
            <LineStyle id="161">
                <color>FFEE5522</color>
                <colorMode>normal</colorMode>
                <width>1.5</width>
            </LineStyle>
        </Style>
        <Style id="164">
            <LineStyle id="165">
                <color>FFEE5522</color>
                <colorMode>normal</colorMode>
                <width>1.5</width>
            </LineStyle>
        </Style>
        <Style id="168">
            <LineStyle id="169">
                <color>FFEE5522</color>
                <colorMode>normal</colorMode>
                <width>1.5</width>
            </LineStyle>
        </Style>
        <Style id="172">
            <LineStyle id="173">
                <color>FFEE5522</color>
                <colorMode>normal</colorMode>
                <width>1.5</width>
            </LineStyle>
        </Style>
        <Style id="176">
            <LineStyle id="177">
                <color>FFEE5522</color>
                <colorMode>normal</colorMode>
                <width>1.5</width>
            </LineStyle>
        </Style>
        <Style id="180">
            <LineStyle id="181">
                <color>FFDDFF22</color>
                <colorMode>normal</colorMode>
                <width>1.5</width>
            </LineStyle>
        </Style>
        <name>Filtered Lines</name>
        <description>Lines generated using Spherical calculations.</description>
        <Placemark id="3">
            <name>P → PenB</name>
            <description>
                
        
<![CDATA[
          <b>P1:</b> P<br>
          <b>P2:</b> PenB<br>
          <hr>
          <b>Distance:</b> 0.121 miles<br>
          <hr>
          <u>Path P1 → P2:</u><br>
          <b>Forward Azimuth at P1 (Az12):</b> 351.912°<br>
          <b>Back Azimuth at P2 (BackAz12):</b> 351.912°<br>
          <hr>
          <u>Path P2 → P1:</u><br>
          <b>Forward Azimuth at P2 (Az21):</b> 171.912°<br>
          <b>Back Azimuth at P1 (BackAz21):</b> 171.912°<br>
          <hr>
          <b>Filter Reason(s):</b> Dist factor of:14.1420<br>
          <hr>
          <i>Calculation Method: Spherical</i>
        ]]>                
        
            </description>
            <styleUrl>#4</styleUrl>
            <LineString id="2">
                <coordinates>-77.05596854698287,38.87100323118176,0.0 -77.05628474196676,38.87273556375202,0.0</coordinates>
            </LineString>
        </Placemark>
        <Placemark id="7">
            <name>Sc → Ec</name>
            <description>
                
        
<![CDATA[
          <b>P1:</b> Sc<br>
          <b>P2:</b> Ec<br>
          <hr>
          <b>Distance:</b> 0.008 miles<br>
          <hr>
          <u>Path P1 → P2:</u><br>
          <b>Forward Azimuth at P1 (Az12):</b> 320.096°<br>
          <b>Back Azimuth at P2 (BackAz12):</b> 320.095°<br>
          <hr>
          <u>Path P2 → P1:</u><br>
          <b>Forward Azimuth at P2 (Az21):</b> 140.095°<br>
          <b>Back Azimuth at P1 (BackAz21):</b> 140.096°<br>
          <hr>
          <b>Filter Reason(s):</b> Dist factor of:16.1800<br>
          <hr>
          <i>Calculation Method: Spherical</i>
        ]]>                
        
            </description>
            <styleUrl>#8</styleUrl>
            <LineString id="6">
                <coordinates>-77.04058603,38.89269952,0.0 -77.0406797,38.89278669999997,0.0</coordinates>
            </LineString>
        </Placemark>
        <Placemark id="11">
            <name>P → PenE</name>
            <description>
                
        
<![CDATA[
          <b>P1:</b> P<br>
          <b>P2:</b> PenE<br>
          <hr>
          <b>Distance:</b> 0.149 miles<br>
          <hr>
          <u>Path P1 → P2:</u><br>
          <b>Forward Azimuth at P1 (Az12):</b> 100.006°<br>
          <b>Back Azimuth at P2 (BackAz12):</b> 100.008°<br>
          <hr>
          <u>Path P2 → P1:</u><br>
          <b>Forward Azimuth at P2 (Az21):</b> 280.008°<br>
          <b>Back Azimuth at P1 (BackAz21):</b> 280.006°<br>
          <hr>
          <b>Filter Reason(s):</b> Dist multiple:0.0044<br>
          <hr>
          <i>Calculation Method: Spherical</i>
        ]]>                
        
            </description>
            <styleUrl>#12</styleUrl>
            <LineString id="10">
                <coordinates>-77.05596854698287,38.87100323118176,0.0 -77.05323877107107,38.87062821721818,0.0</coordinates>
            </LineString>
        </Placemark>
        <Placemark id="15">
            <name>P → PenG</name>
            <description>
                
        
<![CDATA[
          <b>P1:</b> P<br>
          <b>P2:</b> PenG<br>
          <hr>
          <b>Distance:</b> 0.150 miles<br>
          <hr>
          <u>Path P1 → P2:</u><br>
          <b>Forward Azimuth at P1 (Az12):</b> 27.841°<br>
          <b>Back Azimuth at P2 (BackAz12):</b> 27.842°<br>
          <hr>
          <u>Path P2 → P1:</u><br>
          <b>Forward Azimuth at P2 (Az21):</b> 207.842°<br>
          <b>Back Azimuth at P1 (BackAz21):</b> 207.841°<br>
          <hr>
          <b>Filter Reason(s):</b> Dist multiple:0.0044<br>
          <hr>
          <i>Calculation Method: Spherical</i>
        ]]>                
        
            </description>
            <styleUrl>#16</styleUrl>
            <LineString id="14">
                <coordinates>-77.05596854698287,38.87100323118176,0.0 -77.05466945787724,38.87291816657935,0.0</coordinates>
            </LineString>
        </Placemark>
        <Placemark id="19">
            <name>P → PenA</name>
            <description>
                
        
<![CDATA[
          <b>P1:</b> P<br>
          <b>P2:</b> PenA<br>
          <hr>
          <b>Distance:</b> 0.149 miles<br>
          <hr>
          <u>Path P1 → P2:</u><br>
          <b>Forward Azimuth at P1 (Az12):</b> 315.846°<br>
          <b>Back Azimuth at P2 (BackAz12):</b> 315.845°<br>
          <hr>
          <u>Path P2 → P1:</u><br>
          <b>Forward Azimuth at P2 (Az21):</b> 135.845°<br>
          <b>Back Azimuth at P1 (BackAz21):</b> 135.846°<br>
          <hr>
          <b>Filter Reason(s):</b> Dist multiple:0.0044<br>
          <hr>
          <i>Calculation Method: Spherical</i>
        ]]>                
        
            </description>
            <styleUrl>#20</styleUrl>
            <LineString id="18">
                <coordinates>-77.05596854698287,38.87100323118176,0.0 -77.05790028667388,38.872552231854,0.0</coordinates>
            </LineString>
        </Placemark>
        <Placemark id="23">
            <name>P → PenD</name>
            <description>
                
        
<![CDATA[
          <b>P1:</b> P<br>
          <b>P2:</b> PenD<br>
          <hr>
          <b>Distance:</b> 0.149 miles<br>
          <hr>
          <u>Path P1 → P2:</u><br>
          <b>Forward Azimuth at P1 (Az12):</b> 243.675°<br>
          <b>Back Azimuth at P2 (BackAz12):</b> 243.673°<br>
          <hr>
          <u>Path P2 → P1:</u><br>
          <b>Forward Azimuth at P2 (Az21):</b> 63.673°<br>
          <b>Back Azimuth at P1 (BackAz21):</b> 63.675°<br>
          <hr>
          <b>Filter Reason(s):</b> Dist multiple:0.0044<br>
          <hr>
          <i>Calculation Method: Spherical</i>
        ]]>                
        
            </description>
            <styleUrl>#24</styleUrl>
            <LineString id="22">
                <coordinates>-77.05596854698287,38.87100323118176,0.0 -77.05845931790411,38.87004371204871,0.0</coordinates>
            </LineString>
        </Placemark>
        <Placemark id="27">
            <name>P → AN</name>
            <description>
                
        
<![CDATA[
          <b>P1:</b> P<br>
          <b>P2:</b> AN<br>
          <hr>
          <b>Distance:</b> 6.957 miles<br>
          <hr>
          <u>Path P1 → P2:</u><br>
          <b>Forward Azimuth at P1 (Az12):</b> 61.771°<br>
          <b>Back Azimuth at P2 (BackAz12):</b> 61.843°<br>
          <hr>
          <u>Path P2 → P1:</u><br>
          <b>Forward Azimuth at P2 (Az21):</b> 241.843°<br>
          <b>Back Azimuth at P1 (BackAz21):</b> 241.771°<br>
          <hr>
          <b>Filter Reason(s):</b> Dist multiple:0.0044<br>
          <hr>
          <i>Calculation Method: Spherical</i>
        ]]>                
        
            </description>
            <styleUrl>#28</styleUrl>
            <LineString id="26">
                <coordinates>-77.05596854698287,38.87100323118176,0.0 -76.94192180000002,38.91858289999999,0.0</coordinates>
            </LineString>
        </Placemark>
        <Placemark id="31">
            <name>PenE → PenG</name>
            <description>
                
        
<![CDATA[
          <b>P1:</b> PenE<br>
          <b>P2:</b> PenG<br>
          <hr>
          <b>Distance:</b> 0.176 miles<br>
          <hr>
          <u>Path P1 → P2:</u><br>
          <b>Forward Azimuth at P1 (Az12):</b> 334.061°<br>
          <b>Back Azimuth at P2 (BackAz12):</b> 334.061°<br>
          <hr>
          <u>Path P2 → P1:</u><br>
          <b>Forward Azimuth at P2 (Az21):</b> 154.061°<br>
          <b>Back Azimuth at P1 (BackAz21):</b> 154.061°<br>
          <hr>
          <b>Filter Reason(s):</b> Dist multiple:0.0044<br>
          <hr>
          <i>Calculation Method: Spherical</i>
        ]]>                
        
            </description>
            <styleUrl>#32</styleUrl>
            <LineString id="30">
                <coordinates>-77.05323877107107,38.87062821721818,0.0 -77.05466945787724,38.87291816657935,0.0</coordinates>
            </LineString>
        </Placemark>
        <Placemark id="35">
            <name>PenE → Ec</name>
            <description>
                
        
<![CDATA[
          <b>P1:</b> PenE<br>
          <b>P2:</b> Ec<br>
          <hr>
          <b>Distance:</b> 1.673 miles<br>
          <hr>
          <u>Path P1 → P2:</u><br>
          <b>Forward Azimuth at P1 (Az12):</b> 23.804°<br>
          <b>Back Azimuth at P2 (BackAz12):</b> 23.811°<br>
          <hr>
          <u>Path P2 → P1:</u><br>
          <b>Forward Azimuth at P2 (Az21):</b> 203.811°<br>
          <b>Back Azimuth at P1 (BackAz21):</b> 203.804°<br>
          <hr>
          <b>Filter Reason(s):</b> Dist multiple:0.0044<br>
          <hr>
          <i>Calculation Method: Spherical</i>
        ]]>                
        
            </description>
            <styleUrl>#36</styleUrl>
            <LineString id="34">
                <coordinates>-77.05323877107107,38.87062821721818,0.0 -77.0406797,38.89278669999997,0.0</coordinates>
            </LineString>
        </Placemark>
        <Placemark id="39">
            <name>PenE → Wc</name>
            <description>
                
        
<![CDATA[
          <b>P1:</b> PenE<br>
          <b>P2:</b> Wc<br>
          <hr>
          <b>Distance:</b> 1.695 miles<br>
          <hr>
          <u>Path P1 → P2:</u><br>
          <b>Forward Azimuth at P1 (Az12):</b> 23.264°<br>
          <b>Back Azimuth at P2 (BackAz12):</b> 23.272°<br>
          <hr>
          <u>Path P2 → P1:</u><br>
          <b>Forward Azimuth at P2 (Az21):</b> 203.272°<br>
          <b>Back Azimuth at P1 (BackAz21):</b> 203.264°<br>
          <hr>
          <b>Filter Reason(s):</b> Dist multiple:0.0044<br>
          <hr>
          <i>Calculation Method: Spherical</i>
        ]]>                
        
            </description>
            <styleUrl>#40</styleUrl>
            <LineString id="38">
                <coordinates>-77.05323877107107,38.87062821721818,0.0 -77.04078625,38.89317136999999,0.0</coordinates>
            </LineString>
        </Placemark>
        <Placemark id="43">
            <name>PenF → PenC</name>
            <description>
                
        
<![CDATA[
          <b>P1:</b> PenF<br>
          <b>P2:</b> PenC<br>
          <hr>
          <b>Distance:</b> 0.514 miles<br>
          <hr>
          <u>Path P1 → P2:</u><br>
          <b>Forward Azimuth at P1 (Az12):</b> 351.723°<br>
          <b>Back Azimuth at P2 (BackAz12):</b> 351.722°<br>
          <hr>
          <u>Path P2 → P1:</u><br>
          <b>Forward Azimuth at P2 (Az21):</b> 171.722°<br>
          <b>Back Azimuth at P1 (BackAz21):</b> 171.723°<br>
          <hr>
          <b>Filter Reason(s):</b> Dist multiple:0.0044<br>
          <hr>
          <i>Calculation Method: Spherical</i>
        ]]>                
        
            </description>
            <styleUrl>#44</styleUrl>
            <LineString id="42">
                <coordinates>-77.05555738705385,38.86885600238287,0.0 -77.05693269848774,38.87621612361609,0.0</coordinates>
            </LineString>
        </Placemark>
        <Placemark id="47">
            <name>PenF → Cap</name>
            <description>
                
        
<![CDATA[
          <b>P1:</b> PenF<br>
          <b>P2:</b> Cap<br>
          <hr>
          <b>Distance:</b> 2.881 miles<br>
          <hr>
          <u>Path P1 → P2:</u><br>
          <b>Forward Azimuth at P1 (Az12):</b> 59.841°<br>
          <b>Back Azimuth at P2 (BackAz12):</b> 59.870°<br>
          <hr>
          <u>Path P2 → P1:</u><br>
          <b>Forward Azimuth at P2 (Az21):</b> 239.870°<br>
          <b>Back Azimuth at P1 (BackAz21):</b> 239.841°<br>
          <hr>
          <b>Filter Reason(s):</b> Dist multiple:0.0044<br>
          <hr>
          <i>Calculation Method: Spherical</i>
        ]]>                
        
            </description>
            <styleUrl>#48</styleUrl>
            <LineString id="46">
                <coordinates>-77.05555738705385,38.86885600238287,0.0 -77.009227,38.889801,0.0</coordinates>
            </LineString>
        </Placemark>
        <Placemark id="51">
            <name>PenF → WH</name>
            <description>
                
        
<![CDATA[
          <b>P1:</b> PenF<br>
          <b>P2:</b> WH<br>
          <hr>
          <b>Distance:</b> 2.244 miles<br>
          <hr>
          <u>Path P1 → P2:</u><br>
          <b>Forward Azimuth at P1 (Az12):</b> 27.055°<br>
          <b>Back Azimuth at P2 (BackAz12):</b> 27.067°<br>
          <hr>
          <u>Path P2 → P1:</u><br>
          <b>Forward Azimuth at P2 (Az21):</b> 207.067°<br>
          <b>Back Azimuth at P1 (BackAz21):</b> 207.055°<br>
          <hr>
          <b>Filter Reason(s):</b> Dist multiple:0.0044<br>
          <hr>
          <i>Calculation Method: Spherical</i>
        ]]>                
        
            </description>
            <styleUrl>#52</styleUrl>
            <LineString id="50">
                <coordinates>-77.05555738705385,38.86885600238287,0.0 -77.036569,38.89778875877805,0.0</coordinates>
            </LineString>
        </Placemark>
        <Placemark id="55">
            <name>PenF → Wc</name>
            <description>
                
        
<![CDATA[
          <b>P1:</b> PenF<br>
          <b>P2:</b> Wc<br>
          <hr>
          <b>Distance:</b> 1.858 miles<br>
          <hr>
          <u>Path P1 → P2:</u><br>
          <b>Forward Azimuth at P1 (Az12):</b> 25.305°<br>
          <b>Back Azimuth at P2 (BackAz12):</b> 25.314°<br>
          <hr>
          <u>Path P2 → P1:</u><br>
          <b>Forward Azimuth at P2 (Az21):</b> 205.314°<br>
          <b>Back Azimuth at P1 (BackAz21):</b> 205.305°<br>
          <hr>
          <b>Filter Reason(s):</b> Dist multiple:0.0044<br>
          <hr>
          <i>Calculation Method: Spherical</i>
        ]]>                
        
            </description>
            <styleUrl>#56</styleUrl>
            <LineString id="54">
                <coordinates>-77.05555738705385,38.86885600238287,0.0 -77.04078625,38.89317136999999,0.0</coordinates>
            </LineString>
        </Placemark>
        <Placemark id="59">
            <name>PenG → PenB</name>
            <description>
                
        
<![CDATA[
          <b>P1:</b> PenG<br>
          <b>P2:</b> PenB<br>
          <hr>
          <b>Distance:</b> 0.088 miles<br>
          <hr>
          <u>Path P1 → P2:</u><br>
          <b>Forward Azimuth at P1 (Az12):</b> 261.739°<br>
          <b>Back Azimuth at P2 (BackAz12):</b> 261.738°<br>
          <hr>
          <u>Path P2 → P1:</u><br>
          <b>Forward Azimuth at P2 (Az21):</b> 81.738°<br>
          <b>Back Azimuth at P1 (BackAz21):</b> 81.739°<br>
          <hr>
          <b>Filter Reason(s):</b> Dist multiple:0.0044<br>
          <hr>
          <i>Calculation Method: Spherical</i>
        ]]>                
        
            </description>
            <styleUrl>#60</styleUrl>
            <LineString id="58">
                <coordinates>-77.05466945787724,38.87291816657935,0.0 -77.05628474196676,38.87273556375202,0.0</coordinates>
            </LineString>
        </Placemark>
        <Placemark id="63">
            <name>PenG → PenA</name>
            <description>
                
        
<![CDATA[
          <b>P1:</b> PenG<br>
          <b>P2:</b> PenA<br>
          <hr>
          <b>Distance:</b> 0.176 miles<br>
          <hr>
          <u>Path P1 → P2:</u><br>
          <b>Forward Azimuth at P1 (Az12):</b> 261.724°<br>
          <b>Back Azimuth at P2 (BackAz12):</b> 261.722°<br>
          <hr>
          <u>Path P2 → P1:</u><br>
          <b>Forward Azimuth at P2 (Az21):</b> 81.722°<br>
          <b>Back Azimuth at P1 (BackAz21):</b> 81.724°<br>
          <hr>
          <b>Filter Reason(s):</b> Dist multiple:0.0044<br>
          <hr>
          <i>Calculation Method: Spherical</i>
        ]]>                
        
            </description>
            <styleUrl>#64</styleUrl>
            <LineString id="62">
                <coordinates>-77.05466945787724,38.87291816657935,0.0 -77.05790028667388,38.872552231854,0.0</coordinates>
            </LineString>
        </Placemark>
        <Placemark id="67">
            <name>PenB → PenA</name>
            <description>
                
        
<![CDATA[
          <b>P1:</b> PenB<br>
          <b>P2:</b> PenA<br>
          <hr>
          <b>Distance:</b> 0.088 miles<br>
          <hr>
          <u>Path P1 → P2:</u><br>
          <b>Forward Azimuth at P1 (Az12):</b> 261.708°<br>
          <b>Back Azimuth at P2 (BackAz12):</b> 261.706°<br>
          <hr>
          <u>Path P2 → P1:</u><br>
          <b>Forward Azimuth at P2 (Az21):</b> 81.706°<br>
          <b>Back Azimuth at P1 (BackAz21):</b> 81.708°<br>
          <hr>
          <b>Filter Reason(s):</b> Dist multiple:0.0044<br>
          <hr>
          <i>Calculation Method: Spherical</i>
        ]]>                
        
            </description>
            <styleUrl>#68</styleUrl>
            <LineString id="66">
                <coordinates>-77.05628474196676,38.87273556375202,0.0 -77.05790028667388,38.872552231854,0.0</coordinates>
            </LineString>
        </Placemark>
        <Placemark id="71">
            <name>PenB → PenD</name>
            <description>
                
        
<![CDATA[
          <b>P1:</b> PenB<br>
          <b>P2:</b> PenD<br>
          <hr>
          <b>Distance:</b> 0.220 miles<br>
          <hr>
          <u>Path P1 → P2:</u><br>
          <b>Forward Azimuth at P1 (Az12):</b> 212.168°<br>
          <b>Back Azimuth at P2 (BackAz12):</b> 212.167°<br>
          <hr>
          <u>Path P2 → P1:</u><br>
          <b>Forward Azimuth at P2 (Az21):</b> 32.167°<br>
          <b>Back Azimuth at P1 (BackAz21):</b> 32.168°<br>
          <hr>
          <b>Filter Reason(s):</b> Dist multiple:0.0044<br>
          <hr>
          <i>Calculation Method: Spherical</i>
        ]]>                
        
            </description>
            <styleUrl>#72</styleUrl>
            <LineString id="70">
                <coordinates>-77.05628474196676,38.87273556375202,0.0 -77.05845931790411,38.87004371204871,0.0</coordinates>
            </LineString>
        </Placemark>
        <Placemark id="75">
            <name>PenB → J</name>
            <description>
                
        
<![CDATA[
          <b>P1:</b> PenB<br>
          <b>P2:</b> J<br>
          <hr>
          <b>Distance:</b> 1.586 miles<br>
          <hr>
          <u>Path P1 → P2:</u><br>
          <b>Forward Azimuth at P1 (Az12):</b> 41.960°<br>
          <b>Back Azimuth at P2 (BackAz12):</b> 41.972°<br>
          <hr>
          <u>Path P2 → P1:</u><br>
          <b>Forward Azimuth at P2 (Az21):</b> 221.972°<br>
          <b>Back Azimuth at P1 (BackAz21):</b> 221.960°<br>
          <hr>
          <b>Filter Reason(s):</b> Dist multiple:0.0044<br>
          <hr>
          <i>Calculation Method: Spherical</i>
        ]]>                
        
            </description>
            <styleUrl>#76</styleUrl>
            <LineString id="74">
                <coordinates>-77.05628474196676,38.87273556375202,0.0 -77.03656908080315,38.88980129959375,0.0</coordinates>
            </LineString>
        </Placemark>
        <Placemark id="79">
            <name>PenB → PO</name>
            <description>
                
        
<![CDATA[
          <b>P1:</b> PenB<br>
          <b>P2:</b> PO<br>
          <hr>
          <b>Distance:</b> 5.468 miles<br>
          <hr>
          <u>Path P1 → P2:</u><br>
          <b>Forward Azimuth at P1 (Az12):</b> 321.297°<br>
          <b>Back Azimuth at P2 (BackAz12):</b> 321.257°<br>
          <hr>
          <u>Path P2 → P1:</u><br>
          <b>Forward Azimuth at P2 (Az21):</b> 141.257°<br>
          <b>Back Azimuth at P1 (BackAz21):</b> 141.297°<br>
          <hr>
          <b>Filter Reason(s):</b> Dist multiple:0.0044<br>
          <hr>
          <i>Calculation Method: Spherical</i>
        ]]>                
        
            </description>
            <styleUrl>#80</styleUrl>
            <LineString id="78">
                <coordinates>-77.05628474196676,38.87273556375202,0.0 -77.1199159,38.93449309999998,0.0</coordinates>
            </LineString>
        </Placemark>
        <Placemark id="83">
            <name>PenA → PenD</name>
            <description>
                
        
<![CDATA[
          <b>P1:</b> PenA<br>
          <b>P2:</b> PenD<br>
          <hr>
          <b>Distance:</b> 0.176 miles<br>
          <hr>
          <u>Path P1 → P2:</u><br>
          <b>Forward Azimuth at P1 (Az12):</b> 189.843°<br>
          <b>Back Azimuth at P2 (BackAz12):</b> 189.843°<br>
          <hr>
          <u>Path P2 → P1:</u><br>
          <b>Forward Azimuth at P2 (Az21):</b> 9.843°<br>
          <b>Back Azimuth at P1 (BackAz21):</b> 9.843°<br>
          <hr>
          <b>Filter Reason(s):</b> Dist multiple:0.0044<br>
          <hr>
          <i>Calculation Method: Spherical</i>
        ]]>                
        
            </description>
            <styleUrl>#84</styleUrl>
            <LineString id="82">
                <coordinates>-77.05790028667388,38.872552231854,0.0 -77.05845931790411,38.87004371204871,0.0</coordinates>
            </LineString>
        </Placemark>
        <Placemark id="87">
            <name>PenA → PO</name>
            <description>
                
        
<![CDATA[
          <b>P1:</b> PenA<br>
          <b>P2:</b> PO<br>
          <hr>
          <b>Distance:</b> 5.424 miles<br>
          <hr>
          <u>Path P1 → P2:</u><br>
          <b>Forward Azimuth at P1 (Az12):</b> 322.096°<br>
          <b>Back Azimuth at P2 (BackAz12):</b> 322.057°<br>
          <hr>
          <u>Path P2 → P1:</u><br>
          <b>Forward Azimuth at P2 (Az21):</b> 142.057°<br>
          <b>Back Azimuth at P1 (BackAz21):</b> 142.096°<br>
          <hr>
          <b>Filter Reason(s):</b> Dist multiple:0.0044<br>
          <hr>
          <i>Calculation Method: Spherical</i>
        ]]>                
        
            </description>
            <styleUrl>#88</styleUrl>
            <LineString id="86">
                <coordinates>-77.05790028667388,38.872552231854,0.0 -77.1199159,38.93449309999998,0.0</coordinates>
            </LineString>
        </Placemark>
        <Placemark id="91">
            <name>PenD → CCnrA</name>
            <description>
                
        
<![CDATA[
          <b>P1:</b> PenD<br>
          <b>P2:</b> CCnrA<br>
          <hr>
          <b>Distance:</b> 2.978 miles<br>
          <hr>
          <u>Path P1 → P2:</u><br>
          <b>Forward Azimuth at P1 (Az12):</b> 64.159°<br>
          <b>Back Azimuth at P2 (BackAz12):</b> 64.190°<br>
          <hr>
          <u>Path P2 → P1:</u><br>
          <b>Forward Azimuth at P2 (Az21):</b> 244.190°<br>
          <b>Back Azimuth at P1 (BackAz21):</b> 244.159°<br>
          <hr>
          <b>Filter Reason(s):</b> Dist multiple:0.0044<br>
          <hr>
          <i>Calculation Method: Spherical</i>
        ]]>                
        
            </description>
            <styleUrl>#92</styleUrl>
            <LineString id="90">
                <coordinates>-77.05845931790411,38.87004371204871,0.0 -77.00861883736764,38.88882152017216,0.0</coordinates>
            </LineString>
        </Placemark>
        <Placemark id="95">
            <name>PenD → AN</name>
            <description>
                
        
<![CDATA[
          <b>P1:</b> PenD<br>
          <b>P2:</b> AN<br>
          <hr>
          <b>Distance:</b> 7.106 miles<br>
          <hr>
          <u>Path P1 → P2:</u><br>
          <b>Forward Azimuth at P1 (Az12):</b> 61.810°<br>
          <b>Back Azimuth at P2 (BackAz12):</b> 61.883°<br>
          <hr>
          <u>Path P2 → P1:</u><br>
          <b>Forward Azimuth at P2 (Az21):</b> 241.883°<br>
          <b>Back Azimuth at P1 (BackAz21):</b> 241.810°<br>
          <hr>
          <b>Filter Reason(s):</b> Dist multiple:0.0044<br>
          <hr>
          <i>Calculation Method: Spherical</i>
        ]]>                
        
            </description>
            <styleUrl>#96</styleUrl>
            <LineString id="94">
                <coordinates>-77.05845931790411,38.87004371204871,0.0 -76.94192180000002,38.91858289999999,0.0</coordinates>
            </LineString>
        </Placemark>
        <Placemark id="99">
            <name>PenC → Cap</name>
            <description>
                
        
<![CDATA[
          <b>P1:</b> PenC<br>
          <b>P2:</b> Cap<br>
          <hr>
          <b>Distance:</b> 2.732 miles<br>
          <hr>
          <u>Path P1 → P2:</u><br>
          <b>Forward Azimuth at P1 (Az12):</b> 69.892°<br>
          <b>Back Azimuth at P2 (BackAz12):</b> 69.921°<br>
          <hr>
          <u>Path P2 → P1:</u><br>
          <b>Forward Azimuth at P2 (Az21):</b> 249.921°<br>
          <b>Back Azimuth at P1 (BackAz21):</b> 249.892°<br>
          <hr>
          <b>Filter Reason(s):</b> Dist multiple:0.0044<br>
          <hr>
          <i>Calculation Method: Spherical</i>
        ]]>                
        
            </description>
            <styleUrl>#100</styleUrl>
            <LineString id="98">
                <coordinates>-77.05693269848774,38.87621612361609,0.0 -77.009227,38.889801,0.0</coordinates>
            </LineString>
        </Placemark>
        <Placemark id="103">
            <name>PenC → WH</name>
            <description>
                
        
<![CDATA[
          <b>P1:</b> PenC<br>
          <b>P2:</b> WH<br>
          <hr>
          <b>Distance:</b> 1.849 miles<br>
          <hr>
          <u>Path P1 → P2:</u><br>
          <b>Forward Azimuth at P1 (Az12):</b> 36.301°<br>
          <b>Back Azimuth at P2 (BackAz12):</b> 36.314°<br>
          <hr>
          <u>Path P2 → P1:</u><br>
          <b>Forward Azimuth at P2 (Az21):</b> 216.314°<br>
          <b>Back Azimuth at P1 (BackAz21):</b> 216.301°<br>
          <hr>
          <b>Filter Reason(s):</b> Dist multiple:0.0044<br>
          <hr>
          <i>Calculation Method: Spherical</i>
        ]]>                
        
            </description>
            <styleUrl>#104</styleUrl>
            <LineString id="102">
                <coordinates>-77.05693269848774,38.87621612361609,0.0 -77.036569,38.89778875877805,0.0</coordinates>
            </LineString>
        </Placemark>
        <Placemark id="107">
            <name>PenC → Wc</name>
            <description>
                
        
<![CDATA[
          <b>P1:</b> PenC<br>
          <b>P2:</b> Wc<br>
          <hr>
          <b>Distance:</b> 1.458 miles<br>
          <hr>
          <u>Path P1 → P2:</u><br>
          <b>Forward Azimuth at P1 (Az12):</b> 36.544°<br>
          <b>Back Azimuth at P2 (BackAz12):</b> 36.554°<br>
          <hr>
          <u>Path P2 → P1:</u><br>
          <b>Forward Azimuth at P2 (Az21):</b> 216.554°<br>
          <b>Back Azimuth at P1 (BackAz21):</b> 216.544°<br>
          <hr>
          <b>Filter Reason(s):</b> Dist multiple:0.0044<br>
          <hr>
          <i>Calculation Method: Spherical</i>
        ]]>                
        
            </description>
            <styleUrl>#108</styleUrl>
            <LineString id="106">
                <coordinates>-77.05693269848774,38.87621612361609,0.0 -77.04078625,38.89317136999999,0.0</coordinates>
            </LineString>
        </Placemark>
        <Placemark id="111">
            <name>J → Sc</name>
            <description>
                
        
<![CDATA[
          <b>P1:</b> J<br>
          <b>P2:</b> Sc<br>
          <hr>
          <b>Distance:</b> 0.295 miles<br>
          <hr>
          <u>Path P1 → P2:</u><br>
          <b>Forward Azimuth at P1 (Az12):</b> 312.831°<br>
          <b>Back Azimuth at P2 (BackAz12):</b> 312.828°<br>
          <hr>
          <u>Path P2 → P1:</u><br>
          <b>Forward Azimuth at P2 (Az21):</b> 132.828°<br>
          <b>Back Azimuth at P1 (BackAz21):</b> 132.831°<br>
          <hr>
          <b>Filter Reason(s):</b> Dist multiple:0.0044<br>
          <hr>
          <i>Calculation Method: Spherical</i>
        ]]>                
        
            </description>
            <styleUrl>#112</styleUrl>
            <LineString id="110">
                <coordinates>-77.03656908080315,38.88980129959375,0.0 -77.04058603,38.89269952,0.0</coordinates>
            </LineString>
        </Placemark>
        <Placemark id="115">
            <name>J → Wc</name>
            <description>
                
        
<![CDATA[
          <b>P1:</b> J<br>
          <b>P2:</b> Wc<br>
          <hr>
          <b>Distance:</b> 0.325 miles<br>
          <hr>
          <u>Path P1 → P2:</u><br>
          <b>Forward Azimuth at P1 (Az12):</b> 315.757°<br>
          <b>Back Azimuth at P2 (BackAz12):</b> 315.754°<br>
          <hr>
          <u>Path P2 → P1:</u><br>
          <b>Forward Azimuth at P2 (Az21):</b> 135.754°<br>
          <b>Back Azimuth at P1 (BackAz21):</b> 135.757°<br>
          <hr>
          <b>Filter Reason(s):</b> Dist multiple:0.0044<br>
          <hr>
          <i>Calculation Method: Spherical</i>
        ]]>                
        
            </description>
            <styleUrl>#116</styleUrl>
            <LineString id="114">
                <coordinates>-77.03656908080315,38.88980129959375,0.0 -77.04078625,38.89317136999999,0.0</coordinates>
            </LineString>
        </Placemark>
        <Placemark id="119">
            <name>Cap → M</name>
            <description>
                
        
<![CDATA[
          <b>P1:</b> Cap<br>
          <b>P2:</b> M<br>
          <hr>
          <b>Distance:</b> 1.401 miles<br>
          <hr>
          <u>Path P1 → P2:</u><br>
          <b>Forward Azimuth at P1 (Az12):</b> 269.113°<br>
          <b>Back Azimuth at P2 (BackAz12):</b> 269.096°<br>
          <hr>
          <u>Path P2 → P1:</u><br>
          <b>Forward Azimuth at P2 (Az21):</b> 89.096°<br>
          <b>Back Azimuth at P1 (BackAz21):</b> 89.113°<br>
          <hr>
          <b>Filter Reason(s):</b> Dist multiple:0.0044<br>
          <hr>
          <i>Calculation Method: Spherical</i>
        ]]>                
        
            </description>
            <styleUrl>#120</styleUrl>
            <LineString id="118">
                <coordinates>-77.009227,38.889801,0.0 -77.035278,38.889484,0.0</coordinates>
            </LineString>
        </Placemark>
        <Placemark id="123">
            <name>Cap → Wc</name>
            <description>
                
        
<![CDATA[
          <b>P1:</b> Cap<br>
          <b>P2:</b> Wc<br>
          <hr>
          <b>Distance:</b> 1.713 miles<br>
          <hr>
          <u>Path P1 → P2:</u><br>
          <b>Forward Azimuth at P1 (Az12):</b> 277.823°<br>
          <b>Back Azimuth at P2 (BackAz12):</b> 277.803°<br>
          <hr>
          <u>Path P2 → P1:</u><br>
          <b>Forward Azimuth at P2 (Az21):</b> 97.803°<br>
          <b>Back Azimuth at P1 (BackAz21):</b> 97.823°<br>
          <hr>
          <b>Filter Reason(s):</b> Dist multiple:0.0044<br>
          <hr>
          <i>Calculation Method: Spherical</i>
        ]]>                
        
            </description>
            <styleUrl>#124</styleUrl>
            <LineString id="122">
                <coordinates>-77.009227,38.889801,0.0 -77.04078625,38.89317136999999,0.0</coordinates>
            </LineString>
        </Placemark>
        <Placemark id="127">
            <name>Cap → AN</name>
            <description>
                
        
<![CDATA[
          <b>P1:</b> Cap<br>
          <b>P2:</b> AN<br>
          <hr>
          <b>Distance:</b> 4.128 miles<br>
          <hr>
          <u>Path P1 → P2:</u><br>
          <b>Forward Azimuth at P1 (Az12):</b> 61.189°<br>
          <b>Back Azimuth at P2 (BackAz12):</b> 61.232°<br>
          <hr>
          <u>Path P2 → P1:</u><br>
          <b>Forward Azimuth at P2 (Az21):</b> 241.232°<br>
          <b>Back Azimuth at P1 (BackAz21):</b> 241.189°<br>
          <hr>
          <b>Filter Reason(s):</b> Dist multiple:0.0044<br>
          <hr>
          <i>Calculation Method: Spherical</i>
        ]]>                
        
            </description>
            <styleUrl>#128</styleUrl>
            <LineString id="126">
                <coordinates>-77.009227,38.889801,0.0 -76.94192180000002,38.91858289999999,0.0</coordinates>
            </LineString>
        </Placemark>
        <Placemark id="131">
            <name>WH → Sc</name>
            <description>
                
        
<![CDATA[
          <b>P1:</b> WH<br>
          <b>P2:</b> Sc<br>
          <hr>
          <b>Distance:</b> 0.413 miles<br>
          <hr>
          <u>Path P1 → P2:</u><br>
          <b>Forward Azimuth at P1 (Az12):</b> 211.565°<br>
          <b>Back Azimuth at P2 (BackAz12):</b> 211.562°<br>
          <hr>
          <u>Path P2 → P1:</u><br>
          <b>Forward Azimuth at P2 (Az21):</b> 31.562°<br>
          <b>Back Azimuth at P1 (BackAz21):</b> 31.565°<br>
          <hr>
          <b>Filter Reason(s):</b> Dist multiple:0.0044<br>
          <hr>
          <i>Calculation Method: Spherical</i>
        ]]>                
        
            </description>
            <styleUrl>#132</styleUrl>
            <LineString id="130">
                <coordinates>-77.036569,38.89778875877805,0.0 -77.04058603,38.89269952,0.0</coordinates>
            </LineString>
        </Placemark>
        <Placemark id="135">
            <name>WH → NOa</name>
            <description>
                
        
<![CDATA[
          <b>P1:</b> WH<br>
          <b>P2:</b> NOa<br>
          <hr>
          <b>Distance:</b> 2.319 miles<br>
          <hr>
          <u>Path P1 → P2:</u><br>
          <b>Forward Azimuth at P1 (Az12):</b> 315.054°<br>
          <b>Back Azimuth at P2 (BackAz12):</b> 315.034°<br>
          <hr>
          <u>Path P2 → P1:</u><br>
          <b>Forward Azimuth at P2 (Az21):</b> 135.034°<br>
          <b>Back Azimuth at P1 (BackAz21):</b> 135.054°<br>
          <hr>
          <b>Filter Reason(s):</b> Dist multiple:0.0044<br>
          <hr>
          <i>Calculation Method: Spherical</i>
        ]]>                
        
            </description>
            <styleUrl>#136</styleUrl>
            <LineString id="134">
                <coordinates>-77.036569,38.89778875877805,0.0 -77.06705128052432,38.92154464050518,0.0</coordinates>
            </LineString>
        </Placemark>
        <Placemark id="139">
            <name>WH → PO</name>
            <description>
                
        
<![CDATA[
          <b>P1:</b> WH<br>
          <b>P2:</b> PO<br>
          <hr>
          <b>Distance:</b> 5.148 miles<br>
          <hr>
          <u>Path P1 → P2:</u><br>
          <b>Forward Azimuth at P1 (Az12):</b> 299.536°<br>
          <b>Back Azimuth at P2 (BackAz12):</b> 299.483°<br>
          <hr>
          <u>Path P2 → P1:</u><br>
          <b>Forward Azimuth at P2 (Az21):</b> 119.483°<br>
          <b>Back Azimuth at P1 (BackAz21):</b> 119.536°<br>
          <hr>
          <b>Filter Reason(s):</b> Dist multiple:0.0044<br>
          <hr>
          <i>Calculation Method: Spherical</i>
        ]]>                
        
            </description>
            <styleUrl>#140</styleUrl>
            <LineString id="138">
                <coordinates>-77.036569,38.89778875877805,0.0 -77.1199159,38.93449309999998,0.0</coordinates>
            </LineString>
        </Placemark>
        <Placemark id="143">
            <name>M → Wc</name>
            <description>
                
        
<![CDATA[
          <b>P1:</b> M<br>
          <b>P2:</b> Wc<br>
          <hr>
          <b>Distance:</b> 0.391 miles<br>
          <hr>
          <u>Path P1 → P2:</u><br>
          <b>Forward Azimuth at P1 (Az12):</b> 310.700°<br>
          <b>Back Azimuth at P2 (BackAz12):</b> 310.696°<br>
          <hr>
          <u>Path P2 → P1:</u><br>
          <b>Forward Azimuth at P2 (Az21):</b> 130.696°<br>
          <b>Back Azimuth at P1 (BackAz21):</b> 130.700°<br>
          <hr>
          <b>Filter Reason(s):</b> Dist multiple:0.0044<br>
          <hr>
          <i>Calculation Method: Spherical</i>
        ]]>                
        
            </description>
            <styleUrl>#144</styleUrl>
            <LineString id="142">
                <coordinates>-77.035278,38.889484,0.0 -77.04078625,38.89317136999999,0.0</coordinates>
            </LineString>
        </Placemark>
        <Placemark id="147">
            <name>M → Hk</name>
            <description>
                
        
<![CDATA[
          <b>P1:</b> M<br>
          <b>P2:</b> Hk<br>
          <hr>
          <b>Distance:</b> 0.953 miles<br>
          <hr>
          <u>Path P1 → P2:</u><br>
          <b>Forward Azimuth at P1 (Az12):</b> 294.197°<br>
          <b>Back Azimuth at P2 (BackAz12):</b> 294.187°<br>
          <hr>
          <u>Path P2 → P1:</u><br>
          <b>Forward Azimuth at P2 (Az21):</b> 114.187°<br>
          <b>Back Azimuth at P1 (BackAz21):</b> 114.197°<br>
          <hr>
          <b>Filter Reason(s):</b> Dist multiple:0.0044<br>
          <hr>
          <i>Calculation Method: Spherical</i>
        ]]>                
        
            </description>
            <styleUrl>#148</styleUrl>
            <LineString id="146">
                <coordinates>-77.035278,38.889484,0.0 -77.051444,38.8951366,0.0</coordinates>
            </LineString>
        </Placemark>
        <Placemark id="151">
            <name>M → AN</name>
            <description>
                
        
<![CDATA[
          <b>P1:</b> M<br>
          <b>P2:</b> AN<br>
          <hr>
          <b>Distance:</b> 5.406 miles<br>
          <hr>
          <u>Path P1 → P2:</u><br>
          <b>Forward Azimuth at P1 (Az12):</b> 68.143°<br>
          <b>Back Azimuth at P2 (BackAz12):</b> 68.201°<br>
          <hr>
          <u>Path P2 → P1:</u><br>
          <b>Forward Azimuth at P2 (Az21):</b> 248.201°<br>
          <b>Back Azimuth at P1 (BackAz21):</b> 248.143°<br>
          <hr>
          <b>Filter Reason(s):</b> Dist multiple:0.0044<br>
          <hr>
          <i>Calculation Method: Spherical</i>
        ]]>                
        
            </description>
            <styleUrl>#152</styleUrl>
            <LineString id="150">
                <coordinates>-77.035278,38.889484,0.0 -76.94192180000002,38.91858289999999,0.0</coordinates>
            </LineString>
        </Placemark>
        <Placemark id="155">
            <name>Ec → AN</name>
            <description>
                
        
<![CDATA[
          <b>P1:</b> Ec<br>
          <b>P2:</b> AN<br>
          <hr>
          <b>Distance:</b> 5.600 miles<br>
          <hr>
          <u>Path P1 → P2:</u><br>
          <b>Forward Azimuth at P1 (Az12):</b> 71.414°<br>
          <b>Back Azimuth at P2 (BackAz12):</b> 71.476°<br>
          <hr>
          <u>Path P2 → P1:</u><br>
          <b>Forward Azimuth at P2 (Az21):</b> 251.476°<br>
          <b>Back Azimuth at P1 (BackAz21):</b> 251.414°<br>
          <hr>
          <b>Filter Reason(s):</b> Dist multiple:0.0044<br>
          <hr>
          <i>Calculation Method: Spherical</i>
        ]]>                
        
            </description>
            <styleUrl>#156</styleUrl>
            <LineString id="154">
                <coordinates>-77.0406797,38.89278669999997,0.0 -76.94192180000002,38.91858289999999,0.0</coordinates>
            </LineString>
        </Placemark>
        <Placemark id="159">
            <name>Wc → NOa</name>
            <description>
                
        
<![CDATA[
          <b>P1:</b> Wc<br>
          <b>P2:</b> NOa<br>
          <hr>
          <b>Distance:</b> 2.416 miles<br>
          <hr>
          <u>Path P1 → P2:</u><br>
          <b>Forward Azimuth at P1 (Az12):</b> 324.241°<br>
          <b>Back Azimuth at P2 (BackAz12):</b> 324.225°<br>
          <hr>
          <u>Path P2 → P1:</u><br>
          <b>Forward Azimuth at P2 (Az21):</b> 144.225°<br>
          <b>Back Azimuth at P1 (BackAz21):</b> 144.241°<br>
          <hr>
          <b>Filter Reason(s):</b> Dist multiple:0.0044<br>
          <hr>
          <i>Calculation Method: Spherical</i>
        ]]>                
        
            </description>
            <styleUrl>#160</styleUrl>
            <LineString id="158">
                <coordinates>-77.04078625,38.89317136999999,0.0 -77.06705128052432,38.92154464050518,0.0</coordinates>
            </LineString>
        </Placemark>
        <Placemark id="163">
            <name>NOa → AN</name>
            <description>
                
        
<![CDATA[
          <b>P1:</b> NOa<br>
          <b>P2:</b> AN<br>
          <hr>
          <b>Distance:</b> 6.728 miles<br>
          <hr>
          <u>Path P1 → P2:</u><br>
          <b>Forward Azimuth at P1 (Az12):</b> 91.703°<br>
          <b>Back Azimuth at P2 (BackAz12):</b> 91.782°<br>
          <hr>
          <u>Path P2 → P1:</u><br>
          <b>Forward Azimuth at P2 (Az21):</b> 271.782°<br>
          <b>Back Azimuth at P1 (BackAz21):</b> 271.703°<br>
          <hr>
          <b>Filter Reason(s):</b> Dist multiple:0.0044<br>
          <hr>
          <i>Calculation Method: Spherical</i>
        ]]>                
        
            </description>
            <styleUrl>#164</styleUrl>
            <LineString id="162">
                <coordinates>-77.06705128052432,38.92154464050518,0.0 -76.94192180000002,38.91858289999999,0.0</coordinates>
            </LineString>
        </Placemark>
        <Placemark id="167">
            <name>CCnrA → PO</name>
            <description>
                
        
<![CDATA[
          <b>P1:</b> CCnrA<br>
          <b>P2:</b> PO<br>
          <hr>
          <b>Distance:</b> 6.763 miles<br>
          <hr>
          <u>Path P1 → P2:</u><br>
          <b>Forward Azimuth at P1 (Az12):</b> 297.841°<br>
          <b>Back Azimuth at P2 (BackAz12):</b> 297.771°<br>
          <hr>
          <u>Path P2 → P1:</u><br>
          <b>Forward Azimuth at P2 (Az21):</b> 117.771°<br>
          <b>Back Azimuth at P1 (BackAz21):</b> 117.841°<br>
          <hr>
          <b>Filter Reason(s):</b> Dist multiple:0.0044<br>
          <hr>
          <i>Calculation Method: Spherical</i>
        ]]>                
        
            </description>
            <styleUrl>#168</styleUrl>
            <LineString id="166">
                <coordinates>-77.00861883736764,38.88882152017216,0.0 -77.1199159,38.93449309999998,0.0</coordinates>
            </LineString>
        </Placemark>
        <Placemark id="171">
            <name>CCnrA → AN</name>
            <description>
                
        
<![CDATA[
          <b>P1:</b> CCnrA<br>
          <b>P2:</b> AN<br>
          <hr>
          <b>Distance:</b> 4.133 miles<br>
          <hr>
          <u>Path P1 → P2:</u><br>
          <b>Forward Azimuth at P1 (Az12):</b> 60.149°<br>
          <b>Back Azimuth at P2 (BackAz12):</b> 60.191°<br>
          <hr>
          <u>Path P2 → P1:</u><br>
          <b>Forward Azimuth at P2 (Az21):</b> 240.191°<br>
          <b>Back Azimuth at P1 (BackAz21):</b> 240.149°<br>
          <hr>
          <b>Filter Reason(s):</b> Dist multiple:0.0044<br>
          <hr>
          <i>Calculation Method: Spherical</i>
        ]]>                
        
            </description>
            <styleUrl>#172</styleUrl>
            <LineString id="170">
                <coordinates>-77.00861883736764,38.88882152017216,0.0 -76.94192180000002,38.91858289999999,0.0</coordinates>
            </LineString>
        </Placemark>
        <Placemark id="175">
            <name>AN → RC</name>
            <description>
                
        
<![CDATA[
          <b>P1:</b> AN<br>
          <b>P2:</b> RC<br>
          <hr>
          <b>Distance:</b> 7.576 miles<br>
          <hr>
          <u>Path P1 → P2:</u><br>
          <b>Forward Azimuth at P1 (Az12):</b> 308.514°<br>
          <b>Back Azimuth at P2 (BackAz12):</b> 308.445°<br>
          <hr>
          <u>Path P2 → P1:</u><br>
          <b>Forward Azimuth at P2 (Az21):</b> 128.445°<br>
          <b>Back Azimuth at P1 (BackAz21):</b> 128.514°<br>
          <hr>
          <b>Filter Reason(s):</b> Dist multiple:0.0044<br>
          <hr>
          <i>Calculation Method: Spherical</i>
        ]]>                
        
            </description>
            <styleUrl>#176</styleUrl>
            <LineString id="174">
                <coordinates>-76.94192180000002,38.91858289999999,0.0 -77.05231894611552,38.98682226543504,0.0</coordinates>
            </LineString>
        </Placemark>
        <Placemark id="179">
            <name>P → CCnrA</name>
            <description>
                
        
<![CDATA[
          <b>P1:</b> P<br>
          <b>P2:</b> CCnrA<br>
          <hr>
          <b>Distance:</b> 2.828 miles<br>
          <hr>
          <u>Path P1 → P2:</u><br>
          <b>Forward Azimuth at P1 (Az12):</b> 64.186°<br>
          <b>Back Azimuth at P2 (BackAz12):</b> 64.216°<br>
          <hr>
          <u>Path P2 → P1:</u><br>
          <b>Forward Azimuth at P2 (Az21):</b> 244.216°<br>
          <b>Back Azimuth at P1 (BackAz21):</b> 244.186°<br>
          <hr>
          <b>Filter Reason(s):</b> Dist multiple:0.0044, Dist multiple:0.7071<br>
          <hr>
          <i>Calculation Method: Spherical</i>
        ]]>                
        
            </description>
            <styleUrl>#180</styleUrl>
            <LineString id="178">
                <coordinates>-77.05596854698287,38.87100323118176,0.0 -77.00861883736764,38.88882152017216,0.0</coordinates>
            </LineString>
        </Placemark>
    </Document>
</kml>
