<?xml version="1.0" encoding="UTF-8"?>
<kml xmlns="http://www.opengis.net/kml/2.2" xmlns:gx="http://www.google.com/kml/ext/2.2" xmlns:kml="http://www.opengis.net/kml/2.2" xmlns:atom="http://www.w3.org/2005/Atom">
<Document>
	<name>DwnTwnIntersections.kml</name>
	<StyleMap id="msn_placemark_circle132">
		<Pair>
			<key>normal</key>
			<styleUrl>#sn_placemark_circle1040</styleUrl>
		</Pair>
		<Pair>
			<key>highlight</key>
			<styleUrl>#sh_placemark_circle_highlight156</styleUrl>
		</Pair>
	</StyleMap>
	<StyleMap id="msn_placemark_circle1320">
		<Pair>
			<key>normal</key>
			<styleUrl>#sn_placemark_circle104</styleUrl>
		</Pair>
		<Pair>
			<key>highlight</key>
			<styleUrl>#sh_placemark_circle_highlight1560</styleUrl>
		</Pair>
	</StyleMap>
	<StyleMap id="msn_placemark_circle1321">
		<Pair>
			<key>normal</key>
			<styleUrl>#sn_placemark_circle1016</styleUrl>
		</Pair>
		<Pair>
			<key>highlight</key>
			<styleUrl>#sh_placemark_circle_highlight1516</styleUrl>
		</Pair>
	</StyleMap>
	<StyleMap id="msn_placemark_circle1322">
		<Pair>
			<key>normal</key>
			<styleUrl>#sn_placemark_circle107</styleUrl>
		</Pair>
		<Pair>
			<key>highlight</key>
			<styleUrl>#sh_placemark_circle_highlight159</styleUrl>
		</Pair>
	</StyleMap>
	<StyleMap id="msn_placemark_circle133">
		<Pair>
			<key>normal</key>
			<styleUrl>#sn_placemark_circle101</styleUrl>
		</Pair>
		<Pair>
			<key>highlight</key>
			<styleUrl>#sh_placemark_circle_highlight153</styleUrl>
		</Pair>
	</StyleMap>
	<StyleMap id="msn_placemark_circle138">
		<Pair>
			<key>normal</key>
			<styleUrl>#sn_placemark_circle1022</styleUrl>
		</Pair>
		<Pair>
			<key>highlight</key>
			<styleUrl>#sh_placemark_circle_highlight152</styleUrl>
		</Pair>
	</StyleMap>
	<Style id="sh_placemark_circle_highlight1516">
		<IconStyle>
			<color>a600ff00</color>
			<scale>0.4</scale>
			<Icon>
				<href>http://maps.google.com/mapfiles/kml/shapes/polygon.png</href>
			</Icon>
		</IconStyle>
		<LabelStyle>
			<color>99ffffff</color>
			<scale>0.5</scale>
		</LabelStyle>
		<LineStyle>
			<color>ffffaad2</color>
			<width>0.5</width>
		</LineStyle>
		<PolyStyle>
			<color>ffffaad2</color>
		</PolyStyle>
	</Style>
	<Style id="sh_placemark_circle_highlight152">
		<IconStyle>
			<color>a600ff00</color>
			<scale>0.4</scale>
			<Icon>
				<href>http://maps.google.com/mapfiles/kml/shapes/polygon.png</href>
			</Icon>
		</IconStyle>
		<LabelStyle>
			<color>99ffffff</color>
			<scale>0.5</scale>
		</LabelStyle>
		<LineStyle>
			<color>ffffaad2</color>
			<width>0.5</width>
		</LineStyle>
		<PolyStyle>
			<color>ffffaad2</color>
		</PolyStyle>
	</Style>
	<Style id="sh_placemark_circle_highlight153">
		<IconStyle>
			<color>a600ff00</color>
			<scale>0.4</scale>
			<Icon>
				<href>http://maps.google.com/mapfiles/kml/shapes/polygon.png</href>
			</Icon>
		</IconStyle>
		<LabelStyle>
			<color>99ffffff</color>
			<scale>0.5</scale>
		</LabelStyle>
		<LineStyle>
			<color>ffffaad2</color>
			<width>0.5</width>
		</LineStyle>
		<PolyStyle>
			<color>ffffaad2</color>
		</PolyStyle>
	</Style>
	<Style id="sh_placemark_circle_highlight156">
		<IconStyle>
			<color>a600ff00</color>
			<scale>0.4</scale>
			<Icon>
				<href>http://maps.google.com/mapfiles/kml/shapes/polygon.png</href>
			</Icon>
		</IconStyle>
		<LabelStyle>
			<color>99ffffff</color>
			<scale>0.5</scale>
		</LabelStyle>
		<LineStyle>
			<color>ffffaad2</color>
			<width>0.5</width>
		</LineStyle>
		<PolyStyle>
			<color>ffffaad2</color>
		</PolyStyle>
	</Style>
	<Style id="sh_placemark_circle_highlight1560">
		<IconStyle>
			<color>a600ff00</color>
			<scale>0.4</scale>
			<Icon>
				<href>http://maps.google.com/mapfiles/kml/shapes/polygon.png</href>
			</Icon>
		</IconStyle>
		<LabelStyle>
			<color>99ffffff</color>
			<scale>0.5</scale>
		</LabelStyle>
		<LineStyle>
			<color>ffffaad2</color>
			<width>0.5</width>
		</LineStyle>
		<PolyStyle>
			<color>ffffaad2</color>
		</PolyStyle>
	</Style>
	<Style id="sh_placemark_circle_highlight159">
		<IconStyle>
			<color>a600ff00</color>
			<scale>0.4</scale>
			<Icon>
				<href>http://maps.google.com/mapfiles/kml/shapes/polygon.png</href>
			</Icon>
		</IconStyle>
		<LabelStyle>
			<color>99ffffff</color>
			<scale>0.5</scale>
		</LabelStyle>
		<LineStyle>
			<color>ffffaad2</color>
			<width>0.5</width>
		</LineStyle>
		<PolyStyle>
			<color>ffffaad2</color>
		</PolyStyle>
	</Style>
	<Style id="sn_placemark_circle101">
		<IconStyle>
			<color>a600ff00</color>
			<scale>0.4</scale>
			<Icon>
				<href>http://maps.google.com/mapfiles/kml/shapes/polygon.png</href>
			</Icon>
		</IconStyle>
		<LabelStyle>
			<color>99ffffff</color>
			<scale>0.5</scale>
		</LabelStyle>
		<LineStyle>
			<color>ffffaad2</color>
			<width>0.5</width>
		</LineStyle>
		<PolyStyle>
			<color>ffffaad2</color>
		</PolyStyle>
	</Style>
	<Style id="sn_placemark_circle1016">
		<IconStyle>
			<color>a600ff00</color>
			<scale>0.4</scale>
			<Icon>
				<href>http://maps.google.com/mapfiles/kml/shapes/polygon.png</href>
			</Icon>
		</IconStyle>
		<LabelStyle>
			<color>99ffffff</color>
			<scale>0.5</scale>
		</LabelStyle>
		<LineStyle>
			<color>ffffaad2</color>
			<width>0.5</width>
		</LineStyle>
		<PolyStyle>
			<color>ffffaad2</color>
		</PolyStyle>
	</Style>
	<Style id="sn_placemark_circle1022">
		<IconStyle>
			<color>a600ff00</color>
			<scale>0.4</scale>
			<Icon>
				<href>http://maps.google.com/mapfiles/kml/shapes/polygon.png</href>
			</Icon>
		</IconStyle>
		<LabelStyle>
			<color>99ffffff</color>
			<scale>0.5</scale>
		</LabelStyle>
		<LineStyle>
			<color>ffffaad2</color>
			<width>0.5</width>
		</LineStyle>
		<PolyStyle>
			<color>ffffaad2</color>
		</PolyStyle>
	</Style>
	<Style id="sn_placemark_circle104">
		<IconStyle>
			<color>a600ff00</color>
			<scale>0.4</scale>
			<Icon>
				<href>http://maps.google.com/mapfiles/kml/shapes/polygon.png</href>
			</Icon>
		</IconStyle>
		<LabelStyle>
			<color>99ffffff</color>
			<scale>0.5</scale>
		</LabelStyle>
		<LineStyle>
			<color>ffffaad2</color>
			<width>0.5</width>
		</LineStyle>
		<PolyStyle>
			<color>ffffaad2</color>
		</PolyStyle>
	</Style>
	<Style id="sn_placemark_circle1040">
		<IconStyle>
			<color>a600ff00</color>
			<scale>0.4</scale>
			<Icon>
				<href>http://maps.google.com/mapfiles/kml/shapes/polygon.png</href>
			</Icon>
		</IconStyle>
		<LabelStyle>
			<color>99ffffff</color>
			<scale>0.5</scale>
		</LabelStyle>
		<LineStyle>
			<color>ffffaad2</color>
			<width>0.5</width>
		</LineStyle>
		<PolyStyle>
			<color>ffffaad2</color>
		</PolyStyle>
	</Style>
	<Style id="sn_placemark_circle107">
		<IconStyle>
			<color>a600ff00</color>
			<scale>0.4</scale>
			<Icon>
				<href>http://maps.google.com/mapfiles/kml/shapes/polygon.png</href>
			</Icon>
		</IconStyle>
		<LabelStyle>
			<color>99ffffff</color>
			<scale>0.5</scale>
		</LabelStyle>
		<LineStyle>
			<color>ffffaad2</color>
			<width>0.5</width>
		</LineStyle>
		<PolyStyle>
			<color>ffffaad2</color>
		</PolyStyle>
	</Style>
	<Folder>
		<name>DwnTwn</name>
		<Placemark>
			<name>Intsct006</name>
			<LookAt>
				<longitude>-77.0411608945161</longitude>
				<latitude>38.91349606948864</latitude>
				<altitude>0</altitude>
				<heading>-0.01283789370620098</heading>
				<tilt>0</tilt>
				<range>1558.331665923884</range>
				<gx:altitudeMode>relativeToSeaFloor</gx:altitudeMode>
			</LookAt>
			<styleUrl>#msn_placemark_circle1320</styleUrl>
			<Point>
				<gx:drawOrder>1</gx:drawOrder>
				<coordinates>-77.04620702352959,38.91433287563066,0</coordinates>
			</Point>
		</Placemark>
		<Placemark>
			<name>Intsct013</name>
			<LookAt>
				<longitude>-77.02892009177438</longitude>
				<latitude>38.90846846739001</latitude>
				<altitude>0</altitude>
				<heading>-0.005166598087071913</heading>
				<tilt>0</tilt>
				<range>514.4267429734073</range>
				<gx:altitudeMode>relativeToSeaFloor</gx:altitudeMode>
			</LookAt>
			<styleUrl>#msn_placemark_circle1320</styleUrl>
			<Point>
				<gx:drawOrder>1</gx:drawOrder>
				<coordinates>-77.02962409767211,38.90963432958821,0</coordinates>
			</Point>
		</Placemark>
		<Placemark>
			<name>Intsct009</name>
			<LookAt>
				<longitude>-77.04414104151931</longitude>
				<latitude>38.90901746043443</latitude>
				<altitude>0</altitude>
				<heading>-0.0147286078565961</heading>
				<tilt>0</tilt>
				<range>882.9803587597979</range>
				<gx:altitudeMode>relativeToSeaFloor</gx:altitudeMode>
			</LookAt>
			<styleUrl>#msn_placemark_circle1320</styleUrl>
			<Point>
				<gx:drawOrder>1</gx:drawOrder>
				<coordinates>-77.04345942253296,38.90964122798432,0</coordinates>
			</Point>
		</Placemark>
		<Placemark>
			<name>Intsct012</name>
			<LookAt>
				<longitude>-77.0365128710098</longitude>
				<latitude>38.90773342613412</latitude>
				<altitude>0</altitude>
				<heading>-0.009937356300987334</heading>
				<tilt>0</tilt>
				<range>450.5202921932534</range>
				<gx:altitudeMode>relativeToSeaFloor</gx:altitudeMode>
			</LookAt>
			<styleUrl>#msn_placemark_circle1320</styleUrl>
			<Point>
				<gx:drawOrder>1</gx:drawOrder>
				<coordinates>-77.03653717204568,38.90723476009851,0</coordinates>
			</Point>
		</Placemark>
		<Placemark>
			<name>Intsct008</name>
			<LookAt>
				<longitude>-77.04928837439259</longitude>
				<latitude>38.9035865551196</latitude>
				<altitude>0</altitude>
				<heading>-0.01796118641433139</heading>
				<tilt>0</tilt>
				<range>471.9971500231773</range>
				<gx:altitudeMode>relativeToSeaFloor</gx:altitudeMode>
			</LookAt>
			<styleUrl>#msn_placemark_circle1320</styleUrl>
			<Point>
				<gx:drawOrder>1</gx:drawOrder>
				<coordinates>-77.05013189771242,38.90252157183857,0</coordinates>
			</Point>
		</Placemark>
		<Placemark>
			<name>Intsct080</name>
			<LookAt>
				<longitude>-77.04332898681113</longitude>
				<latitude>38.89541442123066</latitude>
				<altitude>0</altitude>
				<heading>-0.0142182851953147</heading>
				<tilt>0</tilt>
				<range>4404.312904657409</range>
				<gx:altitudeMode>relativeToSeaFloor</gx:altitudeMode>
			</LookAt>
			<styleUrl>#msn_placemark_circle1322</styleUrl>
			<Point>
				<gx:drawOrder>1</gx:drawOrder>
				<coordinates>-77.05360031341959,38.89898261126365,0</coordinates>
			</Point>
		</Placemark>
		<Placemark>
			<name>Intsct014</name>
			<LookAt>
				<longitude>-77.03184836970844</longitude>
				<latitude>38.906394377704</latitude>
				<altitude>0</altitude>
				<heading>-0.007005763925216083</heading>
				<tilt>0</tilt>
				<range>390.7980475662044</range>
				<gx:altitudeMode>relativeToSeaFloor</gx:altitudeMode>
			</LookAt>
			<styleUrl>#msn_placemark_circle1320</styleUrl>
			<Point>
				<gx:drawOrder>1</gx:drawOrder>
				<coordinates>-77.03197530601018,38.90564871624386,0</coordinates>
			</Point>
		</Placemark>
		<Placemark>
			<name>Intsct010</name>
			<LookAt>
				<longitude>-77.03651621621127</longitude>
				<latitude>38.89865209193258</latitude>
				<altitude>0</altitude>
				<heading>-0.00993814937381826</heading>
				<tilt>0</tilt>
				<range>139.6073395455507</range>
				<gx:altitudeMode>relativeToSeaFloor</gx:altitudeMode>
			</LookAt>
			<styleUrl>#msn_placemark_circle1320</styleUrl>
			<Point>
				<gx:drawOrder>1</gx:drawOrder>
				<coordinates>-77.03657097283033,38.89828563763562,0</coordinates>
			</Point>
		</Placemark>
		<Placemark>
			<name>Intsct078</name>
			<LookAt>
				<longitude>-77.01220283308317</longitude>
				<latitude>38.89533992541264</latitude>
				<altitude>0</altitude>
				<heading>0.005315136562151246</heading>
				<tilt>0</tilt>
				<range>4405.195343303359</range>
				<gx:altitudeMode>relativeToSeaFloor</gx:altitudeMode>
			</LookAt>
			<styleUrl>#msn_placemark_circle138</styleUrl>
			<Point>
				<gx:drawOrder>1</gx:drawOrder>
				<coordinates>-77.02297408574574,38.90261744671308,0</coordinates>
			</Point>
		</Placemark>
		<Placemark>
			<name>Intsct090</name>
			<LookAt>
				<longitude>-77.01461099596169</longitude>
				<latitude>38.89114360742695</latitude>
				<altitude>0</altitude>
				<heading>0.00377604303746315</heading>
				<tilt>0</tilt>
				<range>515.7671430302139</range>
				<gx:altitudeMode>relativeToSeaFloor</gx:altitudeMode>
			</LookAt>
			<styleUrl>#msn_placemark_circle132</styleUrl>
			<Point>
				<gx:drawOrder>1</gx:drawOrder>
				<coordinates>-77.01233780635461,38.89064033307322,0</coordinates>
			</Point>
		</Placemark>
		<Placemark>
			<name>Intsct074</name>
			<LookAt>
				<longitude>-77.00979200165678</longitude>
				<latitude>38.89989717021994</latitude>
				<altitude>0</altitude>
				<heading>0.006848244827437898</heading>
				<tilt>0</tilt>
				<range>1583.572263457207</range>
				<gx:altitudeMode>relativeToSeaFloor</gx:altitudeMode>
			</LookAt>
			<styleUrl>#msn_placemark_circle133</styleUrl>
			<Point>
				<gx:drawOrder>1</gx:drawOrder>
				<coordinates>-77.01235282769433,38.89878546878008,0</coordinates>
			</Point>
		</Placemark>
		<Placemark>
			<name>Intsct079</name>
			<LookAt>
				<longitude>-77.02086396319493</longitude>
				<latitude>38.8962415090258</latitude>
				<altitude>0</altitude>
				<heading>-0.0001251500227725022</heading>
				<tilt>0</tilt>
				<range>1728.132275094673</range>
				<gx:altitudeMode>relativeToSeaFloor</gx:altitudeMode>
			</LookAt>
			<styleUrl>#msn_placemark_circle1321</styleUrl>
			<Point>
				<gx:drawOrder>1</gx:drawOrder>
				<coordinates>-77.02295020167529,38.89363293216059,0</coordinates>
			</Point>
		</Placemark>
		<atom:link rel="app" href="https://www.google.com/earth/about/versions/#earth-pro" title="Google Earth Pro 7.3.6.10201"></atom:link>
	</Folder>
</Document>
</kml>
