<?xml version="1.0" encoding="UTF-8"?>
<kml xmlns="http://www.opengis.net/kml/2.2" xmlns:gx="http://www.google.com/kml/ext/2.2" xmlns:kml="http://www.opengis.net/kml/2.2" xmlns:atom="http://www.w3.org/2005/Atom">
<Document>
	<name>PenPnts.kml</name>
	<StyleMap id="m_ylw-pushpin">
		<Pair>
			<key>normal</key>
			<styleUrl>#s_ylw-pushpin00</styleUrl>
		</Pair>
		<Pair>
			<key>highlight</key>
			<styleUrl>#s_ylw-pushpin_hl00</styleUrl>
		</Pair>
	</StyleMap>
	<StyleMap id="msn_star">
		<Pair>
			<key>normal</key>
			<styleUrl>#sn_star</styleUrl>
		</Pair>
		<Pair>
			<key>highlight</key>
			<styleUrl>#sh_star</styleUrl>
		</Pair>
	</StyleMap>
	<Style id="s_ylw-pushpin00">
		<IconStyle>
			<color>cc005500</color>
			<scale>0.5</scale>
			<Icon>
				<href>http://maps.google.com/mapfiles/kml/shapes/star.png</href>
			</Icon>
		</IconStyle>
		<LabelStyle>
			<color>b3ffffff</color>
			<scale>0.5</scale>
		</LabelStyle>
	</Style>
	<Style id="s_ylw-pushpin_hl00">
		<IconStyle>
			<color>cc005500</color>
			<scale>0.590909</scale>
			<Icon>
				<href>http://maps.google.com/mapfiles/kml/shapes/star.png</href>
			</Icon>
		</IconStyle>
		<LabelStyle>
			<color>b3ffffff</color>
			<scale>0.5</scale>
		</LabelStyle>
	</Style>
	<Style id="sh_star">
		<IconStyle>
			<color>cc00ff00</color>
			<scale>0.827273</scale>
			<Icon>
				<href>http://maps.google.com/mapfiles/kml/shapes/star.png</href>
			</Icon>
		</IconStyle>
		<LabelStyle>
			<color>ccffffff</color>
			<scale>0.7</scale>
		</LabelStyle>
		<BalloonStyle>
		</BalloonStyle>
	</Style>
	<Style id="sn_star">
		<IconStyle>
			<color>cc00ff00</color>
			<scale>0.7</scale>
			<Icon>
				<href>http://maps.google.com/mapfiles/kml/shapes/star.png</href>
			</Icon>
		</IconStyle>
		<LabelStyle>
			<color>ccffffff</color>
			<scale>0.7</scale>
		</LabelStyle>
		<BalloonStyle>
		</BalloonStyle>
	</Style>
	<Folder>
		<name>PenPnts</name>
		<open>1</open>
		<Placemark>
			<name>PenA</name>
			<LookAt>
				<longitude>-77.05734143759395</longitude>
				<latitude>38.87239733512456</latitude>
				<altitude>0</altitude>
				<heading>-0.02275359557892797</heading>
				<tilt>0</tilt>
				<range>173.4572102928906</range>
				<gx:altitudeMode>relativeToSeaFloor</gx:altitudeMode>
			</LookAt>
			<styleUrl>#msn_star</styleUrl>
			<Point>
				<gx:drawOrder>1</gx:drawOrder>
				<coordinates>-77.05786528091933,38.87262722628098,0</coordinates>
			</Point>
		</Placemark>
		<Placemark>
			<name>PenD</name>
			<LookAt>
				<longitude>-77.05807008460445</longitude>
				<latitude>38.87007085903708</latitude>
				<altitude>0</altitude>
				<heading>-0.02321082542517045</heading>
				<tilt>0</tilt>
				<range>158.1508926378977</range>
				<gx:altitudeMode>relativeToSeaFloor</gx:altitudeMode>
			</LookAt>
			<styleUrl>#msn_star</styleUrl>
			<Point>
				<gx:drawOrder>1</gx:drawOrder>
				<coordinates>-77.05841808191346,38.87014746169203,0</coordinates>
			</Point>
		</Placemark>
		<Placemark>
			<name>PenE</name>
			<LookAt>
				<longitude>-77.05362227031316</longitude>
				<latitude>38.87072868085453</latitude>
				<altitude>0</altitude>
				<heading>-0.008076625907632012</heading>
				<tilt>0</tilt>
				<range>98.28342044977292</range>
				<gx:altitudeMode>relativeToSeaFloor</gx:altitudeMode>
			</LookAt>
			<styleUrl>#msn_star</styleUrl>
			<Point>
				<gx:drawOrder>1</gx:drawOrder>
				<coordinates>-77.05324434344904,38.87072872172274,0</coordinates>
			</Point>
		</Placemark>
		<Placemark>
			<name>PenF</name>
			<LookAt>
				<longitude>-77.05580753398471</longitude>
				<latitude>38.86907066220041</latitude>
				<altitude>0</altitude>
				<heading>-0.02179096704225352</heading>
				<tilt>0</tilt>
				<range>97.87794870118847</range>
				<gx:altitudeMode>relativeToSeaFloor</gx:altitudeMode>
			</LookAt>
			<styleUrl>#msn_star</styleUrl>
			<Point>
				<gx:drawOrder>1</gx:drawOrder>
				<coordinates>-77.05556655805725,38.8689747836158,0</coordinates>
			</Point>
		</Placemark>
		<Placemark>
			<name>PenG</name>
			<LookAt>
				<longitude>-77.05511716585596</longitude>
				<latitude>38.87224138202482</latitude>
				<altitude>0</altitude>
				<heading>-0.02135768129425947</heading>
				<tilt>0</tilt>
				<range>323.4183599820038</range>
				<gx:altitudeMode>relativeToSeaFloor</gx:altitudeMode>
			</LookAt>
			<styleUrl>#msn_star</styleUrl>
			<Point>
				<gx:drawOrder>1</gx:drawOrder>
				<coordinates>-77.05466801451274,38.87298421406125,0</coordinates>
			</Point>
		</Placemark>
		<Placemark>
			<name>PenB</name>
			<visibility>0</visibility>
			<LookAt>
				<longitude>-77.05650936450725</longitude>
				<latitude>38.87242167780397</latitude>
				<altitude>0</altitude>
				<heading>-0.02223145486778925</heading>
				<tilt>0</tilt>
				<range>294.5165158177159</range>
				<gx:altitudeMode>relativeToSeaFloor</gx:altitudeMode>
			</LookAt>
			<styleUrl>#msn_star</styleUrl>
			<Point>
				<gx:drawOrder>1</gx:drawOrder>
				<coordinates>-77.05630296948044,38.87281834763942,0</coordinates>
			</Point>
		</Placemark>
		<Placemark>
			<name>PenC</name>
			<visibility>0</visibility>
			<LookAt>
				<longitude>-77.05415553781546</longitude>
				<latitude>38.87498540172819</latitude>
				<altitude>0</altitude>
				<heading>-0.0207541171190058</heading>
				<tilt>0</tilt>
				<range>1581.391034769656</range>
				<gx:altitudeMode>relativeToSeaFloor</gx:altitudeMode>
			</LookAt>
			<styleUrl>#msn_star</styleUrl>
			<Point>
				<gx:drawOrder>1</gx:drawOrder>
				<coordinates>-77.05715373472489,38.87684588415627,0</coordinates>
			</Point>
		</Placemark>
		<Placemark>
			<name>P01</name>
			<visibility>0</visibility>
			<LookAt>
				<longitude>-77.05328724708063</longitude>
				<latitude>38.87058585031833</latitude>
				<altitude>0</altitude>
				<heading>-0.007868287176272429</heading>
				<tilt>0</tilt>
				<range>55.53181118746562</range>
				<gx:altitudeMode>relativeToSeaFloor</gx:altitudeMode>
			</LookAt>
			<styleUrl>#m_ylw-pushpin</styleUrl>
			<Point>
				<gx:drawOrder>1</gx:drawOrder>
				<coordinates>-77.05326318932634,38.87059990223479,0</coordinates>
			</Point>
		</Placemark>
		<Placemark>
			<name>P02</name>
			<visibility>0</visibility>
			<LookAt>
				<longitude>-77.0540390144885</longitude>
				<latitude>38.86937402417733</latitude>
				<altitude>0</altitude>
				<heading>-0.008340051026670951</heading>
				<tilt>0</tilt>
				<range>70.90923467462873</range>
				<gx:altitudeMode>relativeToSeaFloor</gx:altitudeMode>
			</LookAt>
			<styleUrl>#m_ylw-pushpin</styleUrl>
			<Point>
				<gx:drawOrder>1</gx:drawOrder>
				<coordinates>-77.05398621448433,38.86939495989273,0</coordinates>
			</Point>
		</Placemark>
		<Placemark>
			<name>P03</name>
			<visibility>0</visibility>
			<LookAt>
				<longitude>-77.05430468474258</longitude>
				<latitude>38.86977005948754</latitude>
				<altitude>0</altitude>
				<heading>-0.008506772624406085</heading>
				<tilt>0</tilt>
				<range>142.8929313108596</range>
				<gx:altitudeMode>relativeToSeaFloor</gx:altitudeMode>
			</LookAt>
			<styleUrl>#m_ylw-pushpin</styleUrl>
			<Point>
				<gx:drawOrder>1</gx:drawOrder>
				<coordinates>-77.05437046108972,38.86975197616888,0</coordinates>
			</Point>
		</Placemark>
		<Placemark>
			<name>P04</name>
			<visibility>0</visibility>
			<LookAt>
				<longitude>-77.05483222238986</longitude>
				<latitude>38.8708988516949</latitude>
				<altitude>0</altitude>
				<heading>-0.008837836378958583</heading>
				<tilt>0</tilt>
				<range>130.5404164677348</range>
				<gx:altitudeMode>relativeToSeaFloor</gx:altitudeMode>
			</LookAt>
			<styleUrl>#m_ylw-pushpin</styleUrl>
			<Point>
				<gx:drawOrder>1</gx:drawOrder>
				<coordinates>-77.05484460076273,38.87092912427096,0</coordinates>
			</Point>
		</Placemark>
		<Placemark>
			<name>P05</name>
			<visibility>0</visibility>
			<LookAt>
				<longitude>-77.05568396956632</longitude>
				<latitude>38.87028288825821</latitude>
				<altitude>0</altitude>
				<heading>-0.00937236084267567</heading>
				<tilt>0</tilt>
				<range>47.62198790081971</range>
				<gx:altitudeMode>relativeToSeaFloor</gx:altitudeMode>
			</LookAt>
			<styleUrl>#m_ylw-pushpin</styleUrl>
			<Point>
				<gx:drawOrder>1</gx:drawOrder>
				<coordinates>-77.05579614823468,38.87021861689082,0</coordinates>
			</Point>
		</Placemark>
		<Placemark>
			<name>P06</name>
			<visibility>0</visibility>
			<LookAt>
				<longitude>-77.05553998017545</longitude>
				<latitude>38.8689214232837</latitude>
				<altitude>0</altitude>
				<heading>-0.009281991088493832</heading>
				<tilt>0</tilt>
				<range>46.12168507817292</range>
				<gx:altitudeMode>relativeToSeaFloor</gx:altitudeMode>
			</LookAt>
			<styleUrl>#m_ylw-pushpin</styleUrl>
			<Point>
				<gx:drawOrder>1</gx:drawOrder>
				<coordinates>-77.05558430317087,38.86885675407948,0</coordinates>
			</Point>
		</Placemark>
		<Placemark>
			<name>P08</name>
			<visibility>0</visibility>
			<LookAt>
				<longitude>-77.05611861146028</longitude>
				<latitude>38.87166376250247</latitude>
				<altitude>0</altitude>
				<heading>-0.009643261941684141</heading>
				<tilt>0</tilt>
				<range>148.4875333262881</range>
				<gx:altitudeMode>relativeToSeaFloor</gx:altitudeMode>
			</LookAt>
			<styleUrl>#m_ylw-pushpin</styleUrl>
			<Point>
				<gx:drawOrder>1</gx:drawOrder>
				<coordinates>-77.05609849461305,38.87160898020808,0</coordinates>
			</Point>
		</Placemark>
		<Placemark>
			<name>P07</name>
			<visibility>0</visibility>
			<LookAt>
				<longitude>-77.05652584055774</longitude>
				<latitude>38.87171173088484</latitude>
				<altitude>0</altitude>
				<heading>-0.009898840230104762</heading>
				<tilt>0</tilt>
				<range>63.80250696472754</range>
				<gx:altitudeMode>relativeToSeaFloor</gx:altitudeMode>
			</LookAt>
			<styleUrl>#m_ylw-pushpin</styleUrl>
			<Point>
				<gx:drawOrder>1</gx:drawOrder>
				<coordinates>-77.05678847506353,38.87177962539866,0</coordinates>
			</Point>
		</Placemark>
		<Placemark>
			<name>P09</name>
			<visibility>0</visibility>
			<LookAt>
				<longitude>-77.05639285327572</longitude>
				<latitude>38.87219248151357</latitude>
				<altitude>0</altitude>
				<heading>-0.009815380151908255</heading>
				<tilt>0</tilt>
				<range>163.9925083912665</range>
				<gx:altitudeMode>relativeToSeaFloor</gx:altitudeMode>
			</LookAt>
			<styleUrl>#m_ylw-pushpin</styleUrl>
			<Point>
				<gx:drawOrder>1</gx:drawOrder>
				<coordinates>-77.05695473783611,38.87266780702514,0</coordinates>
			</Point>
		</Placemark>
		<Placemark>
			<name>P10</name>
			<visibility>0</visibility>
			<LookAt>
				<longitude>-77.05887530911048</longitude>
				<latitude>38.87116319343691</latitude>
				<altitude>0</altitude>
				<heading>-0.01137327095626824</heading>
				<tilt>0</tilt>
				<range>149.6411244273564</range>
				<gx:altitudeMode>relativeToSeaFloor</gx:altitudeMode>
			</LookAt>
			<styleUrl>#m_ylw-pushpin</styleUrl>
			<Point>
				<gx:drawOrder>1</gx:drawOrder>
				<coordinates>-77.05882057494102,38.87104804843893,0</coordinates>
			</Point>
		</Placemark>
		<Placemark>
			<name>P11</name>
			<visibility>0</visibility>
			<LookAt>
				<longitude>-77.05688434521797</longitude>
				<latitude>38.875859429341</latitude>
				<altitude>0</altitude>
				<heading>-0.01012591659645307</heading>
				<tilt>0</tilt>
				<range>93.24704946098247</range>
				<gx:altitudeMode>relativeToSeaFloor</gx:altitudeMode>
			</LookAt>
			<styleUrl>#m_ylw-pushpin</styleUrl>
			<Point>
				<gx:drawOrder>1</gx:drawOrder>
				<coordinates>-77.05687555521709,38.8760727340971,0</coordinates>
			</Point>
		</Placemark>
		<Placemark>
			<name>P12</name>
			<visibility>0</visibility>
			<LookAt>
				<longitude>-77.05666517186799</longitude>
				<latitude>38.87477826637868</latitude>
				<altitude>0</altitude>
				<heading>-0.009988359902505394</heading>
				<tilt>0</tilt>
				<range>96.60064911492326</range>
				<gx:altitudeMode>relativeToSeaFloor</gx:altitudeMode>
			</LookAt>
			<styleUrl>#m_ylw-pushpin</styleUrl>
			<Point>
				<gx:drawOrder>1</gx:drawOrder>
				<coordinates>-77.05669266742383,38.8748994424166,0</coordinates>
			</Point>
		</Placemark>
		<Placemark>
			<name>P13</name>
			<visibility>0</visibility>
			<LookAt>
				<longitude>-77.05652900378665</longitude>
				<latitude>38.8733742946538</latitude>
				<altitude>0</altitude>
				<heading>-0.009902863633042313</heading>
				<tilt>0</tilt>
				<range>279.3727113476162</range>
				<gx:altitudeMode>relativeToSeaFloor</gx:altitudeMode>
			</LookAt>
			<styleUrl>#m_ylw-pushpin</styleUrl>
			<Point>
				<gx:drawOrder>1</gx:drawOrder>
				<coordinates>-77.05688080068221,38.87337424678827,0</coordinates>
			</Point>
		</Placemark>
		<Placemark>
			<name>P14</name>
			<visibility>0</visibility>
			<LookAt>
				<longitude>-77.05645949937413</longitude>
				<latitude>38.87233941464713</latitude>
				<altitude>0</altitude>
				<heading>-0.00985720641944259</heading>
				<tilt>0</tilt>
				<range>163.9925083911548</range>
				<gx:altitudeMode>relativeToSeaFloor</gx:altitudeMode>
			</LookAt>
			<styleUrl>#m_ylw-pushpin</styleUrl>
			<Point>
				<gx:drawOrder>1</gx:drawOrder>
				<coordinates>-77.05556253048977,38.87282012024017,0</coordinates>
			</Point>
		</Placemark>
		<Placemark>
			<name>P16</name>
			<visibility>0</visibility>
			<LookAt>
				<longitude>-77.0555756098618</longitude>
				<latitude>38.87189906505292</latitude>
				<altitude>0</altitude>
				<heading>-0.009302489157377891</heading>
				<tilt>0</tilt>
				<range>184.0531094295745</range>
				<gx:altitudeMode>relativeToSeaFloor</gx:altitudeMode>
			</LookAt>
			<styleUrl>#m_ylw-pushpin</styleUrl>
			<Point>
				<gx:drawOrder>1</gx:drawOrder>
				<coordinates>-77.05539369401011,38.87192237029357,0</coordinates>
			</Point>
		</Placemark>
		<Placemark>
			<name>P18</name>
			<visibility>0</visibility>
			<LookAt>
				<longitude>-77.05827408521495</longitude>
				<latitude>38.87011780784521</latitude>
				<altitude>0</altitude>
				<heading>-0.01099593646930617</heading>
				<tilt>0</tilt>
				<range>91.82774455057383</range>
				<gx:altitudeMode>relativeToSeaFloor</gx:altitudeMode>
			</LookAt>
			<styleUrl>#m_ylw-pushpin</styleUrl>
			<Point>
				<gx:drawOrder>1</gx:drawOrder>
				<coordinates>-77.05846180583724,38.87004130734088,0</coordinates>
			</Point>
		</Placemark>
		<Placemark>
			<name>P17</name>
			<visibility>0</visibility>
			<LookAt>
				<longitude>-77.05362227031316</longitude>
				<latitude>38.87072868085453</latitude>
				<altitude>0</altitude>
				<heading>-0.008076625907632012</heading>
				<tilt>0</tilt>
				<range>98.28342044977292</range>
				<gx:altitudeMode>relativeToSeaFloor</gx:altitudeMode>
			</LookAt>
			<styleUrl>#m_ylw-pushpin</styleUrl>
			<Point>
				<gx:drawOrder>1</gx:drawOrder>
				<coordinates>-77.05324434344904,38.87072872172274,0</coordinates>
			</Point>
		</Placemark>
		<Placemark>
			<name>P19</name>
			<visibility>0</visibility>
			<LookAt>
				<longitude>-77.05561710444769</longitude>
				<latitude>38.86912060733562</latitude>
				<altitude>0</altitude>
				<heading>-0.009328498724397028</heading>
				<tilt>0</tilt>
				<range>56.55796636599538</range>
				<gx:altitudeMode>relativeToSeaFloor</gx:altitudeMode>
			</LookAt>
			<styleUrl>#m_ylw-pushpin</styleUrl>
			<Point>
				<gx:drawOrder>1</gx:drawOrder>
				<coordinates>-77.05556346717465,38.8689572534153,0</coordinates>
			</Point>
		</Placemark>
		<Placemark>
			<name>P20</name>
			<visibility>0</visibility>
			<LookAt>
				<longitude>-77.05842279497716</longitude>
				<latitude>38.87027365789406</latitude>
				<altitude>0</altitude>
				<heading>-0.01108923672565221</heading>
				<tilt>0</tilt>
				<range>102.0866734199014</range>
				<gx:altitudeMode>relativeToSeaFloor</gx:altitudeMode>
			</LookAt>
			<styleUrl>#m_ylw-pushpin</styleUrl>
			<Point>
				<gx:drawOrder>1</gx:drawOrder>
				<coordinates>-77.05842690950784,38.87014451946406,0</coordinates>
			</Point>
		</Placemark>
		<Placemark>
			<name>P21</name>
			<visibility>0</visibility>
			<LookAt>
				<longitude>-77.05789057800393</longitude>
				<latitude>38.87264197188951</latitude>
				<altitude>0</altitude>
				<heading>-0.01075521520024956</heading>
				<tilt>0</tilt>
				<range>105.0472816579736</range>
				<gx:altitudeMode>relativeToSeaFloor</gx:altitudeMode>
			</LookAt>
			<styleUrl>#m_ylw-pushpin</styleUrl>
			<Point>
				<gx:drawOrder>1</gx:drawOrder>
				<coordinates>-77.05786639491927,38.87262868713065,0</coordinates>
			</Point>
		</Placemark>
		<Placemark>
			<name>P22</name>
			<visibility>0</visibility>
			<LookAt>
				<longitude>-77.05597853099502</longitude>
				<latitude>38.8711524612603</latitude>
				<altitude>0</altitude>
				<heading>-0.009555351259497044</heading>
				<tilt>0</tilt>
				<range>86.93707023804092</range>
				<gx:altitudeMode>relativeToSeaFloor</gx:altitudeMode>
			</LookAt>
			<styleUrl>#m_ylw-pushpin</styleUrl>
			<Point>
				<gx:drawOrder>1</gx:drawOrder>
				<coordinates>-77.05597261660679,38.87101774407496,0</coordinates>
			</Point>
		</Placemark>
		<Placemark>
			<name>P23</name>
			<visibility>0</visibility>
			<LookAt>
				<longitude>-77.06095017553741</longitude>
				<latitude>38.8733536242941</latitude>
				<altitude>0</altitude>
				<heading>-0.01267552501033802</heading>
				<tilt>0</tilt>
				<range>284.1468872610344</range>
				<gx:altitudeMode>relativeToSeaFloor</gx:altitudeMode>
			</LookAt>
			<styleUrl>#m_ylw-pushpin</styleUrl>
			<Point>
				<gx:drawOrder>1</gx:drawOrder>
				<coordinates>-77.0610923830321,38.87284139629067,0</coordinates>
			</Point>
		</Placemark>
		<Placemark>
			<name>P24</name>
			<visibility>0</visibility>
			<LookAt>
				<longitude>-77.05229065654869</longitude>
				<latitude>38.87228149332308</latitude>
				<altitude>0</altitude>
				<heading>-0.007240874250029111</heading>
				<tilt>0</tilt>
				<range>270.1149402832735</range>
				<gx:altitudeMode>relativeToSeaFloor</gx:altitudeMode>
			</LookAt>
			<styleUrl>#m_ylw-pushpin</styleUrl>
			<Point>
				<gx:drawOrder>1</gx:drawOrder>
				<coordinates>-77.0511569563507,38.87285393325713,0</coordinates>
			</Point>
		</Placemark>
		<Placemark>
			<name>P25</name>
			<visibility>0</visibility>
			<LookAt>
				<longitude>-77.05685672537568</longitude>
				<latitude>38.87063372885121</latitude>
				<altitude>0</altitude>
				<heading>-0.01010655441082209</heading>
				<tilt>0</tilt>
				<range>108.6917853944839</range>
				<gx:altitudeMode>relativeToSeaFloor</gx:altitudeMode>
			</LookAt>
			<styleUrl>#m_ylw-pushpin</styleUrl>
			<Point>
				<gx:drawOrder>1</gx:drawOrder>
				<coordinates>-77.05703039364934,38.87069213946823,0</coordinates>
			</Point>
		</Placemark>
		<Placemark>
			<name>P25</name>
			<visibility>0</visibility>
			<LookAt>
				<longitude>-77.05620961268289</longitude>
				<latitude>38.872433637993</latitude>
				<altitude>0</altitude>
				<heading>-0.009700440163839892</heading>
				<tilt>0</tilt>
				<range>158.7774075225234</range>
				<gx:altitudeMode>relativeToSeaFloor</gx:altitudeMode>
			</LookAt>
			<styleUrl>#m_ylw-pushpin</styleUrl>
			<Point>
				<gx:drawOrder>1</gx:drawOrder>
				<coordinates>-77.0562720255781,38.87274160076576,0</coordinates>
			</Point>
		</Placemark>
		<Placemark>
			<name>P26</name>
			<visibility>0</visibility>
			<LookAt>
				<longitude>-77.05428167921031</longitude>
				<latitude>38.87192123308982</latitude>
				<altitude>0</altitude>
				<heading>-0.008490479334987741</heading>
				<tilt>0</tilt>
				<range>76.57812226642059</range>
				<gx:altitudeMode>relativeToSeaFloor</gx:altitudeMode>
			</LookAt>
			<styleUrl>#m_ylw-pushpin</styleUrl>
			<Point>
				<gx:drawOrder>1</gx:drawOrder>
				<coordinates>-77.05403696102074,38.87182116207816,0</coordinates>
			</Point>
		</Placemark>
		<Placemark>
			<name>P27</name>
			<visibility>0</visibility>
			<LookAt>
				<longitude>-77.05456618513705</longitude>
				<latitude>38.87008934818218</latitude>
				<altitude>0</altitude>
				<heading>-0.008669024892096299</heading>
				<tilt>0</tilt>
				<range>87.67441653457563</range>
				<gx:altitudeMode>relativeToSeaFloor</gx:altitudeMode>
			</LookAt>
			<styleUrl>#m_ylw-pushpin</styleUrl>
			<Point>
				<gx:drawOrder>1</gx:drawOrder>
				<coordinates>-77.05449848292572,38.86988787581267,0</coordinates>
			</Point>
		</Placemark>
		<Placemark>
			<name>P28</name>
			<visibility>0</visibility>
			<LookAt>
				<longitude>-77.05695494008503</longitude>
				<latitude>38.86980645977063</latitude>
				<altitude>0</altitude>
				<heading>-0.01016808999311469</heading>
				<tilt>0</tilt>
				<range>245.5107763410186</range>
				<gx:altitudeMode>relativeToSeaFloor</gx:altitudeMode>
			</LookAt>
			<styleUrl>#m_ylw-pushpin</styleUrl>
			<Point>
				<gx:drawOrder>1</gx:drawOrder>
				<coordinates>-77.05697484686898,38.86964082144529,0</coordinates>
			</Point>
		</Placemark>
		<Placemark>
			<name>P29</name>
			<visibility>0</visibility>
			<LookAt>
				<longitude>-77.0574762606894</longitude>
				<latitude>38.87139316749686</latitude>
				<altitude>0</altitude>
				<heading>-0.01049523951200467</heading>
				<tilt>0</tilt>
				<range>245.5107763436622</range>
				<gx:altitudeMode>relativeToSeaFloor</gx:altitudeMode>
			</LookAt>
			<styleUrl>#m_ylw-pushpin</styleUrl>
			<Point>
				<gx:drawOrder>1</gx:drawOrder>
				<coordinates>-77.05805798358796,38.87136202639957,0</coordinates>
			</Point>
		</Placemark>
		<Placemark>
			<name>P30</name>
			<visibility>0</visibility>
			<LookAt>
				<longitude>-77.04878577035471</longitude>
				<latitude>38.87459795412298</latitude>
				<altitude>0</altitude>
				<heading>-0.005042775154949752</heading>
				<tilt>0</tilt>
				<range>603.9480889198418</range>
				<gx:altitudeMode>relativeToSeaFloor</gx:altitudeMode>
			</LookAt>
			<styleUrl>#m_ylw-pushpin</styleUrl>
			<Point>
				<gx:drawOrder>1</gx:drawOrder>
				<coordinates>-77.04708486963725,38.87539387743403,0</coordinates>
			</Point>
		</Placemark>
		<atom:link rel="app" href="https://www.google.com/earth/about/versions/#earth-pro" title="Google Earth Pro 7.3.6.10201"></atom:link>
	</Folder>
</Document>
</kml>
