<?xml version="1.0" encoding="UTF-8"?>
<kml xmlns="http://www.opengis.net/kml/2.2" xmlns:gx="http://www.google.com/kml/ext/2.2" xmlns:kml="http://www.opengis.net/kml/2.2" xmlns:atom="http://www.w3.org/2005/Atom">
<Document>
	<name>PenPntsOG.kml</name>
	<Schema name="centerpnts" id="S_centerpnts_SDD0">
		<SimpleField type="string" name="LOC"><displayName>&lt;b&gt;LOC&lt;/b&gt;</displayName>
</SimpleField>
		<SimpleField type="double" name="LAT"><displayName>&lt;b&gt;LAT&lt;/b&gt;</displayName>
</SimpleField>
		<SimpleField type="double" name="LON"><displayName>&lt;b&gt;LON&lt;/b&gt;</displayName>
</SimpleField>
	</Schema>
	<Style id="hlightPointStyle0101">
		<IconStyle>
			<color>e0009102</color>
			<scale>0.8</scale>
			<Icon>
				<href>http://maps.google.com/mapfiles/kml/shapes/star.png</href>
			</Icon>
		</IconStyle>
		<LabelStyle>
			<color>ccffffff</color>
			<scale>0.7</scale>
		</LabelStyle>
		<BalloonStyle>
			<text><![CDATA[<table border="0">
  <tr><td><b>LOC</b></td><td>$[centerpnts/LOC]</td></tr>
  <tr><td><b>LAT</b></td><td>$[centerpnts/LAT]</td></tr>
  <tr><td><b>LON</b></td><td>$[centerpnts/LON]</td></tr>
</table>]]></text>
		</BalloonStyle>
		<LineStyle>
			<color>80ceffd1</color>
			<width>5</width>
		</LineStyle>
	</Style>
	<StyleMap id="msn_star1">
		<Pair>
			<key>normal</key>
			<styleUrl>#sn_star4</styleUrl>
		</Pair>
		<Pair>
			<key>highlight</key>
			<styleUrl>#sh_star0</styleUrl>
		</Pair>
	</StyleMap>
	<StyleMap id="msn_star3">
		<Pair>
			<key>normal</key>
			<styleUrl>#sn_star5</styleUrl>
		</Pair>
		<Pair>
			<key>highlight</key>
			<styleUrl>#sh_star1</styleUrl>
		</Pair>
	</StyleMap>
	<StyleMap id="msn_star6">
		<Pair>
			<key>normal</key>
			<styleUrl>#sn_star3</styleUrl>
		</Pair>
		<Pair>
			<key>highlight</key>
			<styleUrl>#sh_star7</styleUrl>
		</Pair>
	</StyleMap>
	<Style id="normPointStyle00000">
		<IconStyle>
			<color>e0009102</color>
			<scale>0.8</scale>
			<Icon>
				<href>http://maps.google.com/mapfiles/kml/shapes/star.png</href>
			</Icon>
		</IconStyle>
		<LabelStyle>
			<color>ccffffff</color>
			<scale>0.7</scale>
		</LabelStyle>
		<BalloonStyle>
			<text><![CDATA[<table border="0">
  <tr><td><b>LOC</b></td><td>$[centerpnts/LOC]</td></tr>
  <tr><td><b>LAT</b></td><td>$[centerpnts/LAT]</td></tr>
  <tr><td><b>LON</b></td><td>$[centerpnts/LON]</td></tr>
</table>]]></text>
		</BalloonStyle>
		<LineStyle>
			<color>80ceffd1</color>
			<width>5</width>
		</LineStyle>
	</Style>
	<StyleMap id="pointStyleMap0000">
		<Pair>
			<key>normal</key>
			<styleUrl>#normPointStyle00000</styleUrl>
		</Pair>
		<Pair>
			<key>highlight</key>
			<styleUrl>#hlightPointStyle0101</styleUrl>
		</Pair>
	</StyleMap>
	<Style id="sh_star0">
		<IconStyle>
			<color>cc00ff00</color>
			<scale>0.827273</scale>
			<Icon>
				<href>http://maps.google.com/mapfiles/kml/shapes/star.png</href>
			</Icon>
		</IconStyle>
		<LabelStyle>
			<color>ccffffff</color>
			<scale>0.7</scale>
		</LabelStyle>
	</Style>
	<Style id="sh_star1">
		<IconStyle>
			<color>cc00ff00</color>
			<scale>0.827273</scale>
			<Icon>
				<href>http://maps.google.com/mapfiles/kml/shapes/star.png</href>
			</Icon>
		</IconStyle>
		<LabelStyle>
			<color>ccffffff</color>
			<scale>0.7</scale>
		</LabelStyle>
	</Style>
	<Style id="sh_star7">
		<IconStyle>
			<color>cc00ff00</color>
			<scale>0.827273</scale>
			<Icon>
				<href>http://maps.google.com/mapfiles/kml/shapes/star.png</href>
			</Icon>
		</IconStyle>
		<LabelStyle>
			<color>ccffffff</color>
			<scale>0.7</scale>
		</LabelStyle>
	</Style>
	<Style id="sn_star3">
		<IconStyle>
			<color>cc00ff00</color>
			<scale>0.7</scale>
			<Icon>
				<href>http://maps.google.com/mapfiles/kml/shapes/star.png</href>
			</Icon>
		</IconStyle>
		<LabelStyle>
			<color>ccffffff</color>
			<scale>0.7</scale>
		</LabelStyle>
	</Style>
	<Style id="sn_star4">
		<IconStyle>
			<color>cc00ff00</color>
			<scale>0.7</scale>
			<Icon>
				<href>http://maps.google.com/mapfiles/kml/shapes/star.png</href>
			</Icon>
		</IconStyle>
		<LabelStyle>
			<color>ccffffff</color>
			<scale>0.7</scale>
		</LabelStyle>
	</Style>
	<Style id="sn_star5">
		<IconStyle>
			<color>cc00ff00</color>
			<scale>0.7</scale>
			<Icon>
				<href>http://maps.google.com/mapfiles/kml/shapes/star.png</href>
			</Icon>
		</IconStyle>
		<LabelStyle>
			<color>ccffffff</color>
			<scale>0.7</scale>
		</LabelStyle>
	</Style>
	<Folder>
		<name>Pen</name>
		<open>1</open>
		<Placemark>
			<name>PenE</name>
			<LookAt>
				<longitude>-77.05362227031316</longitude>
				<latitude>38.87072868085453</latitude>
				<altitude>0</altitude>
				<heading>-0.008076625907632012</heading>
				<tilt>0</tilt>
				<range>98.28342044977292</range>
				<gx:altitudeMode>relativeToSeaFloor</gx:altitudeMode>
			</LookAt>
			<styleUrl>#msn_star3</styleUrl>
			<Point>
				<gx:drawOrder>1</gx:drawOrder>
				<coordinates>-77.05324434344904,38.87072872172274,0</coordinates>
			</Point>
		</Placemark>
		<Placemark>
			<name>PenF</name>
			<LookAt>
				<longitude>-77.05580753398471</longitude>
				<latitude>38.86907066220041</latitude>
				<altitude>0</altitude>
				<heading>-0.02179096704225352</heading>
				<tilt>0</tilt>
				<range>97.87794870118847</range>
				<gx:altitudeMode>relativeToSeaFloor</gx:altitudeMode>
			</LookAt>
			<styleUrl>#msn_star3</styleUrl>
			<Point>
				<gx:drawOrder>1</gx:drawOrder>
				<coordinates>-77.05556655805725,38.8689747836158,0</coordinates>
			</Point>
		</Placemark>
		<Placemark>
			<name>PenG</name>
			<LookAt>
				<longitude>-77.05485941336057</longitude>
				<latitude>38.87296263568203</latitude>
				<altitude>0</altitude>
				<heading>-0.0004985559809117902</heading>
				<tilt>0</tilt>
				<range>105.2732225073577</range>
				<gx:altitudeMode>relativeToSeaFloor</gx:altitudeMode>
			</LookAt>
			<styleUrl>#msn_star6</styleUrl>
			<Point>
				<gx:drawOrder>1</gx:drawOrder>
				<coordinates>-77.05467548773174,38.87297156405388,0</coordinates>
			</Point>
		</Placemark>
		<Placemark>
			<name>PenA</name>
			<LookAt>
				<longitude>-77.05734143759395</longitude>
				<latitude>38.87239733512456</latitude>
				<altitude>0</altitude>
				<heading>-0.02275359557892797</heading>
				<tilt>0</tilt>
				<range>173.4572102928906</range>
				<gx:altitudeMode>relativeToSeaFloor</gx:altitudeMode>
			</LookAt>
			<styleUrl>#msn_star3</styleUrl>
			<Point>
				<gx:drawOrder>1</gx:drawOrder>
				<coordinates>-77.05786528091933,38.87262722628098,0</coordinates>
			</Point>
		</Placemark>
		<Placemark>
			<name>PenB</name>
			<LookAt>
				<longitude>-77.05722250384251</longitude>
				<latitude>38.87239483275627</latitude>
				<altitude>0</altitude>
				<heading>-0.001984516796308416</heading>
				<tilt>0</tilt>
				<range>306.9284315906747</range>
				<gx:altitudeMode>relativeToSeaFloor</gx:altitudeMode>
			</LookAt>
			<styleUrl>#msn_star1</styleUrl>
			<Point>
				<gx:drawOrder>1</gx:drawOrder>
				<coordinates>-77.05630382111248,38.87278527203482,0</coordinates>
			</Point>
		</Placemark>
		<Placemark>
			<name>PenC</name>
			<LookAt>
				<longitude>-77.05415553781546</longitude>
				<latitude>38.87498540172819</latitude>
				<altitude>0</altitude>
				<heading>-0.0207541171190058</heading>
				<tilt>0</tilt>
				<range>1581.391034769656</range>
				<gx:altitudeMode>relativeToSeaFloor</gx:altitudeMode>
			</LookAt>
			<styleUrl>#msn_star3</styleUrl>
			<Point>
				<gx:drawOrder>1</gx:drawOrder>
				<coordinates>-77.05715373472489,38.87684588415627,0</coordinates>
			</Point>
		</Placemark>
		<Placemark>
			<name>PenD</name>
			<LookAt>
				<longitude>-77.05807008460445</longitude>
				<latitude>38.87007085903708</latitude>
				<altitude>0</altitude>
				<heading>-0.02321082542517045</heading>
				<tilt>0</tilt>
				<range>158.1508926378977</range>
				<gx:altitudeMode>relativeToSeaFloor</gx:altitudeMode>
			</LookAt>
			<styleUrl>#msn_star3</styleUrl>
			<Point>
				<gx:drawOrder>1</gx:drawOrder>
				<coordinates>-77.05841808191346,38.87014746169203,0</coordinates>
			</Point>
		</Placemark>
		<Placemark>
			<name>P</name>
			<styleUrl>#pointStyleMap0000</styleUrl>
			<ExtendedData>
				<SchemaData schemaUrl="#S_centerpnts_SDD0">
					<SimpleData name="LOC">PEN</SimpleData>
					<SimpleData name="LAT">38.871</SimpleData>
					<SimpleData name="LON">-77.056</SimpleData>
				</SchemaData>
			</ExtendedData>
			<Point>
				<extrude>1</extrude>
				<altitudeMode>absolute</altitudeMode>
				<coordinates>-77.05598519142683,38.8710236073416,50.00000000000001</coordinates>
			</Point>
		</Placemark>
		<atom:link rel="app" href="https://www.google.com/earth/about/versions/#earth-pro" title="Google Earth Pro 7.3.6.10201"></atom:link>
	</Folder>
</Document>
</kml>
