<?xml version="1.0" encoding="UTF-8"?>
<kml xmlns="http://www.opengis.net/kml/2.2" xmlns:gx="http://www.google.com/kml/ext/2.2" xmlns:kml="http://www.opengis.net/kml/2.2" xmlns:atom="http://www.w3.org/2005/Atom">
<Document>
	<name>PentagonPlusPoints.kml</name>
	<Schema name="centerpnts" id="S_centerpnts_SDD0">
		<SimpleField type="string" name="LOC"><displayName>&lt;b&gt;LOC&lt;/b&gt;</displayName>
</SimpleField>
		<SimpleField type="double" name="LAT"><displayName>&lt;b&gt;LAT&lt;/b&gt;</displayName>
</SimpleField>
		<SimpleField type="double" name="LON"><displayName>&lt;b&gt;LON&lt;/b&gt;</displayName>
</SimpleField>
	</Schema>
	<Schema name="trypoints" id="S_trypoints_SDDD0">
		<SimpleField type="string" name="LOC"><displayName>&lt;b&gt;LOC&lt;/b&gt;</displayName>
</SimpleField>
		<SimpleField type="double" name="LAT"><displayName>&lt;b&gt;LAT&lt;/b&gt;</displayName>
</SimpleField>
		<SimpleField type="double" name="LON"><displayName>&lt;b&gt;LON&lt;/b&gt;</displayName>
</SimpleField>
		<SimpleField type="double" name="ALT"><displayName>&lt;b&gt;ALT&lt;/b&gt;</displayName>
</SimpleField>
	</Schema>
	<Style id="hlightPointStyle30">
		<IconStyle>
			<color>f2000000</color>
			<scale>0.8</scale>
			<Icon>
				<href>http://maps.google.com/mapfiles/kml/shapes/open-diamond.png</href>
			</Icon>
		</IconStyle>
		<LabelStyle>
			<color>e6ffffff</color>
			<scale>0.7</scale>
		</LabelStyle>
		<LineStyle>
			<color>ffd5ffff</color>
			<width>3</width>
		</LineStyle>
	</Style>
	<StyleMap id="msn_cross-hairs">
		<Pair>
			<key>normal</key>
			<styleUrl>#sn_cross-hairs</styleUrl>
		</Pair>
		<Pair>
			<key>highlight</key>
			<styleUrl>#sh_cross-hairs_highlight</styleUrl>
		</Pair>
	</StyleMap>
	<StyleMap id="msn_cross-hairs4">
		<Pair>
			<key>normal</key>
			<styleUrl>#sn_cross-hairs1</styleUrl>
		</Pair>
		<Pair>
			<key>highlight</key>
			<styleUrl>#sh_cross-hairs_highlight1</styleUrl>
		</Pair>
	</StyleMap>
	<StyleMap id="msn_open-diamond001">
		<Pair>
			<key>normal</key>
			<styleUrl>#sn_open-diamond00</styleUrl>
		</Pair>
		<Pair>
			<key>highlight</key>
			<styleUrl>#sh_open-diamond001</styleUrl>
		</Pair>
	</StyleMap>
	<StyleMap id="msn_placemark_circle030">
		<Pair>
			<key>normal</key>
			<styleUrl>#sn_placemark_circle23</styleUrl>
		</Pair>
		<Pair>
			<key>highlight</key>
			<styleUrl>#sh_placemark_circle_highlight00</styleUrl>
		</Pair>
	</StyleMap>
	<StyleMap id="msn_placemark_circle15">
		<Pair>
			<key>normal</key>
			<styleUrl>#sn_placemark_circle2</styleUrl>
		</Pair>
		<Pair>
			<key>highlight</key>
			<styleUrl>#sh_placemark_circle_highlight8</styleUrl>
		</Pair>
	</StyleMap>
	<StyleMap id="msn_shaded_dot17">
		<Pair>
			<key>normal</key>
			<styleUrl>#sn_shaded_dot020</styleUrl>
		</Pair>
		<Pair>
			<key>highlight</key>
			<styleUrl>#sh_shaded_dot100</styleUrl>
		</Pair>
	</StyleMap>
	<StyleMap id="msn_star">
		<Pair>
			<key>normal</key>
			<styleUrl>#sn_star</styleUrl>
		</Pair>
		<Pair>
			<key>highlight</key>
			<styleUrl>#sh_star</styleUrl>
		</Pair>
	</StyleMap>
	<StyleMap id="msn_star3">
		<Pair>
			<key>normal</key>
			<styleUrl>#sn_star5</styleUrl>
		</Pair>
		<Pair>
			<key>highlight</key>
			<styleUrl>#sh_star1</styleUrl>
		</Pair>
	</StyleMap>
	<StyleMap id="msn_target">
		<Pair>
			<key>normal</key>
			<styleUrl>#sn_target</styleUrl>
		</Pair>
		<Pair>
			<key>highlight</key>
			<styleUrl>#sh_target</styleUrl>
		</Pair>
	</StyleMap>
	<StyleMap id="msn_triangle">
		<Pair>
			<key>normal</key>
			<styleUrl>#sn_triangle2</styleUrl>
		</Pair>
		<Pair>
			<key>highlight</key>
			<styleUrl>#sh_triangle2</styleUrl>
		</Pair>
	</StyleMap>
	<StyleMap id="msn_triangle1">
		<Pair>
			<key>normal</key>
			<styleUrl>#sn_triangle</styleUrl>
		</Pair>
		<Pair>
			<key>highlight</key>
			<styleUrl>#sh_triangle0</styleUrl>
		</Pair>
	</StyleMap>
	<Style id="normPointStyle21">
		<IconStyle>
			<color>f2000000</color>
			<scale>0.8</scale>
			<Icon>
				<href>http://maps.google.com/mapfiles/kml/shapes/open-diamond.png</href>
			</Icon>
		</IconStyle>
		<LabelStyle>
			<color>e6ffffff</color>
			<scale>0.7</scale>
		</LabelStyle>
		<LineStyle>
			<color>ffd5ffff</color>
			<width>3</width>
		</LineStyle>
	</Style>
	<StyleMap id="pointStyleMap2">
		<Pair>
			<key>normal</key>
			<styleUrl>#normPointStyle21</styleUrl>
		</Pair>
		<Pair>
			<key>highlight</key>
			<styleUrl>#hlightPointStyle30</styleUrl>
		</Pair>
	</StyleMap>
	<Style id="sh_cross-hairs_highlight">
		<IconStyle>
			<color>f20000ff</color>
			<scale>0.472727</scale>
			<Icon>
				<href>http://maps.google.com/mapfiles/kml/shapes/cross-hairs_highlight.png</href>
			</Icon>
		</IconStyle>
		<LabelStyle>
			<color>c9ffffff</color>
			<scale>0.5</scale>
		</LabelStyle>
		<LineStyle>
			<color>ccffffff</color>
			<width>0.5</width>
		</LineStyle>
	</Style>
	<Style id="sh_cross-hairs_highlight1">
		<IconStyle>
			<color>b30000ff</color>
			<scale>0.590909</scale>
			<Icon>
				<href>http://maps.google.com/mapfiles/kml/shapes/cross-hairs_highlight.png</href>
			</Icon>
		</IconStyle>
		<LabelStyle>
			<color>b3ffffff</color>
			<scale>0.6</scale>
		</LabelStyle>
		<LineStyle>
			<width>2.5</width>
		</LineStyle>
	</Style>
	<Style id="sh_open-diamond001">
		<IconStyle>
			<color>e6ffffff</color>
			<scale>0.827273</scale>
			<Icon>
				<href>http://maps.google.com/mapfiles/kml/shapes/target.png</href>
			</Icon>
		</IconStyle>
		<LabelStyle>
			<color>c9ffffff</color>
			<scale>0.6</scale>
		</LabelStyle>
		<LineStyle>
			<color>e6ffffff</color>
			<width>0.5</width>
		</LineStyle>
	</Style>
	<Style id="sh_placemark_circle_highlight00">
		<IconStyle>
			<color>ffffff00</color>
			<colorMode>random</colorMode>
			<scale>0.6</scale>
			<Icon>
				<href>http://maps.google.com/mapfiles/kml/shapes/placemark_circle_highlight.png</href>
			</Icon>
		</IconStyle>
		<LabelStyle>
			<color>ccffffff</color>
			<scale>0.5</scale>
		</LabelStyle>
		<LineStyle>
			<color>ccffff00</color>
			<colorMode>random</colorMode>
			<width>0.5</width>
		</LineStyle>
		<PolyStyle>
			<colorMode>random</colorMode>
		</PolyStyle>
	</Style>
	<Style id="sh_placemark_circle_highlight8">
		<IconStyle>
			<color>f200ffff</color>
			<scale>0.7</scale>
			<Icon>
				<href>http://maps.google.com/mapfiles/kml/shapes/sunny.png</href>
			</Icon>
			<hotSpot x="0.5" y="0" xunits="fraction" yunits="fraction"/>
		</IconStyle>
		<LabelStyle>
			<color>ccffffff</color>
			<scale>0.6</scale>
		</LabelStyle>
		<LineStyle>
			<color>cc00ffff</color>
			<colorMode>random</colorMode>
			<width>2.5</width>
		</LineStyle>
		<PolyStyle>
			<colorMode>random</colorMode>
		</PolyStyle>
	</Style>
	<Style id="sh_shaded_dot100">
		<IconStyle>
			<color>ccffffaa</color>
			<scale>0.827275</scale>
			<Icon>
				<href>http://maps.google.com/mapfiles/kml/shapes/marina.png</href>
			</Icon>
			<hotSpot x="0.5" y="0" xunits="fraction" yunits="fraction"/>
		</IconStyle>
		<LabelStyle>
			<color>b3ffffff</color>
			<scale>0.4</scale>
		</LabelStyle>
		<LineStyle>
			<color>ffffb205</color>
			<width>1.2</width>
		</LineStyle>
	</Style>
	<Style id="sh_star">
		<IconStyle>
			<color>cc00ff00</color>
			<scale>0.827273</scale>
			<Icon>
				<href>http://maps.google.com/mapfiles/kml/shapes/star.png</href>
			</Icon>
		</IconStyle>
		<LabelStyle>
			<color>ccffffff</color>
			<scale>0.7</scale>
		</LabelStyle>
		<BalloonStyle>
		</BalloonStyle>
		<LineStyle>
			<width>2</width>
		</LineStyle>
	</Style>
	<Style id="sh_star1">
		<IconStyle>
			<color>cc00ff00</color>
			<scale>0.827273</scale>
			<Icon>
				<href>http://maps.google.com/mapfiles/kml/shapes/star.png</href>
			</Icon>
		</IconStyle>
		<LabelStyle>
			<color>ccffffff</color>
			<scale>0.7</scale>
		</LabelStyle>
		<LineStyle>
			<width>2</width>
		</LineStyle>
	</Style>
	<Style id="sh_target">
		<IconStyle>
			<color>e6ffffff</color>
			<scale>0.827273</scale>
			<Icon>
				<href>http://maps.google.com/mapfiles/kml/shapes/target.png</href>
			</Icon>
		</IconStyle>
		<LabelStyle>
			<color>c9ffffff</color>
			<scale>0.6</scale>
		</LabelStyle>
		<LineStyle>
			<color>e6ffffff</color>
			<width>2</width>
		</LineStyle>
	</Style>
	<Style id="sh_triangle0">
		<IconStyle>
			<color>e6ffffff</color>
			<scale>0.945455</scale>
			<Icon>
				<href>http://maps.google.com/mapfiles/kml/shapes/triangle.png</href>
			</Icon>
		</IconStyle>
		<LabelStyle>
			<color>bfffffff</color>
			<scale>0.5</scale>
		</LabelStyle>
		<LineStyle>
			<color>ccffffff</color>
			<width>1.5</width>
		</LineStyle>
	</Style>
	<Style id="sh_triangle2">
		<IconStyle>
			<color>e6ffffff</color>
			<scale>0.945455</scale>
			<Icon>
				<href>http://maps.google.com/mapfiles/kml/shapes/triangle.png</href>
			</Icon>
		</IconStyle>
		<LabelStyle>
			<color>bfffffff</color>
			<scale>0.5</scale>
		</LabelStyle>
		<LineStyle>
			<color>ccffffff</color>
			<width>1.5</width>
		</LineStyle>
	</Style>
	<Style id="sn_cross-hairs">
		<IconStyle>
			<color>f20000ff</color>
			<scale>0.4</scale>
			<Icon>
				<href>http://maps.google.com/mapfiles/kml/shapes/cross-hairs.png</href>
			</Icon>
		</IconStyle>
		<LabelStyle>
			<color>c9ffffff</color>
			<scale>0.5</scale>
		</LabelStyle>
		<LineStyle>
			<color>ccffffff</color>
			<width>0.5</width>
		</LineStyle>
	</Style>
	<Style id="sn_cross-hairs1">
		<IconStyle>
			<color>b30000ff</color>
			<scale>0.5</scale>
			<Icon>
				<href>http://maps.google.com/mapfiles/kml/shapes/cross-hairs.png</href>
			</Icon>
		</IconStyle>
		<LabelStyle>
			<color>b3ffffff</color>
			<scale>0.6</scale>
		</LabelStyle>
		<LineStyle>
			<width>2.5</width>
		</LineStyle>
	</Style>
	<Style id="sn_open-diamond00">
		<IconStyle>
			<color>e6ffffff</color>
			<scale>0.7</scale>
			<Icon>
				<href>http://maps.google.com/mapfiles/kml/shapes/target.png</href>
			</Icon>
		</IconStyle>
		<LabelStyle>
			<color>c9ffffff</color>
			<scale>0.6</scale>
		</LabelStyle>
		<LineStyle>
			<color>e6ffffff</color>
			<width>0.5</width>
		</LineStyle>
	</Style>
	<Style id="sn_placemark_circle2">
		<IconStyle>
			<color>f200ffff</color>
			<scale>0.7</scale>
			<Icon>
				<href>http://maps.google.com/mapfiles/kml/shapes/sunny.png</href>
			</Icon>
			<hotSpot x="0.5" y="0" xunits="fraction" yunits="fraction"/>
		</IconStyle>
		<LabelStyle>
			<color>ccffffff</color>
			<scale>0.6</scale>
		</LabelStyle>
		<LineStyle>
			<color>cc00ffff</color>
			<colorMode>random</colorMode>
			<width>2.5</width>
		</LineStyle>
		<PolyStyle>
			<colorMode>random</colorMode>
		</PolyStyle>
	</Style>
	<Style id="sn_placemark_circle23">
		<IconStyle>
			<color>ffffff00</color>
			<colorMode>random</colorMode>
			<scale>0.6</scale>
			<Icon>
				<href>http://maps.google.com/mapfiles/kml/shapes/placemark_circle.png</href>
			</Icon>
		</IconStyle>
		<LabelStyle>
			<color>ccffffff</color>
			<scale>0.5</scale>
		</LabelStyle>
		<LineStyle>
			<color>ccffff00</color>
			<colorMode>random</colorMode>
			<width>0.5</width>
		</LineStyle>
		<PolyStyle>
			<colorMode>random</colorMode>
		</PolyStyle>
	</Style>
	<Style id="sn_shaded_dot020">
		<IconStyle>
			<color>ccffffaa</color>
			<scale>0.7</scale>
			<Icon>
				<href>http://maps.google.com/mapfiles/kml/shapes/marina.png</href>
			</Icon>
			<hotSpot x="0.5" y="0" xunits="fraction" yunits="fraction"/>
		</IconStyle>
		<LabelStyle>
			<color>b3ffffff</color>
			<scale>0.4</scale>
		</LabelStyle>
		<LineStyle>
			<color>ffffb205</color>
			<width>1.2</width>
		</LineStyle>
	</Style>
	<Style id="sn_star">
		<IconStyle>
			<color>cc00ff00</color>
			<scale>0.7</scale>
			<Icon>
				<href>http://maps.google.com/mapfiles/kml/shapes/star.png</href>
			</Icon>
		</IconStyle>
		<LabelStyle>
			<color>ccffffff</color>
			<scale>0.7</scale>
		</LabelStyle>
		<BalloonStyle>
		</BalloonStyle>
		<LineStyle>
			<width>2</width>
		</LineStyle>
	</Style>
	<Style id="sn_star5">
		<IconStyle>
			<color>cc00ff00</color>
			<scale>0.7</scale>
			<Icon>
				<href>http://maps.google.com/mapfiles/kml/shapes/star.png</href>
			</Icon>
		</IconStyle>
		<LabelStyle>
			<color>ccffffff</color>
			<scale>0.7</scale>
		</LabelStyle>
		<LineStyle>
			<width>2</width>
		</LineStyle>
	</Style>
	<Style id="sn_target">
		<IconStyle>
			<color>e6ffffff</color>
			<scale>0.7</scale>
			<Icon>
				<href>http://maps.google.com/mapfiles/kml/shapes/target.png</href>
			</Icon>
		</IconStyle>
		<LabelStyle>
			<color>c9ffffff</color>
			<scale>0.6</scale>
		</LabelStyle>
		<LineStyle>
			<color>e6ffffff</color>
			<width>2</width>
		</LineStyle>
	</Style>
	<Style id="sn_triangle">
		<IconStyle>
			<color>e6ffffff</color>
			<scale>0.8</scale>
			<Icon>
				<href>http://maps.google.com/mapfiles/kml/shapes/triangle.png</href>
			</Icon>
		</IconStyle>
		<LabelStyle>
			<color>bfffffff</color>
			<scale>0.5</scale>
		</LabelStyle>
		<LineStyle>
			<color>ccffffff</color>
			<width>1.5</width>
		</LineStyle>
	</Style>
	<Style id="sn_triangle2">
		<IconStyle>
			<color>e6ffffff</color>
			<scale>0.8</scale>
			<Icon>
				<href>http://maps.google.com/mapfiles/kml/shapes/triangle.png</href>
			</Icon>
		</IconStyle>
		<LabelStyle>
			<color>bfffffff</color>
			<scale>0.5</scale>
		</LabelStyle>
		<LineStyle>
			<color>ccffffff</color>
			<width>1.5</width>
		</LineStyle>
	</Style>
	<Folder>
		<name>Pen</name>
		<open>1</open>
		<Placemark>
			<name>P</name>
			<styleUrl>#msn_star3</styleUrl>
			<ExtendedData>
				<SchemaData schemaUrl="#S_centerpnts_SDD0">
					<SimpleData name="LOC">PEN</SimpleData>
					<SimpleData name="LAT">38.871</SimpleData>
					<SimpleData name="LON">-77.056</SimpleData>
				</SchemaData>
			</ExtendedData>
			<Point>
				<extrude>1</extrude>
				<altitudeMode>relativeToGround</altitudeMode>
				<coordinates>-77.05596854698287,38.87100323118176,44</coordinates>
			</Point>
		</Placemark>
		<Placemark>
			<name>PenE</name>
			<LookAt>
				<longitude>-77.05317829751893</longitude>
				<latitude>38.87057323049672</latitude>
				<altitude>0</altitude>
				<heading>-24.2956478443688</heading>
				<tilt>0</tilt>
				<range>57.16476497426996</range>
				<gx:altitudeMode>relativeToSeaFloor</gx:altitudeMode>
			</LookAt>
			<styleUrl>#msn_star3</styleUrl>
			<Point>
				<altitudeMode>relativeToGround</altitudeMode>
				<gx:drawOrder>1</gx:drawOrder>
				<coordinates>-77.05323877107107,38.87062821721818,44</coordinates>
			</Point>
		</Placemark>
		<Placemark>
			<name>PenF</name>
			<LookAt>
				<longitude>-77.05559751607558</longitude>
				<latitude>38.86879800564815</latitude>
				<altitude>0</altitude>
				<heading>7.569528740793999</heading>
				<tilt>22.79998815430008</tilt>
				<range>37.85964490216656</range>
				<gx:altitudeMode>relativeToSeaFloor</gx:altitudeMode>
			</LookAt>
			<styleUrl>#msn_star3</styleUrl>
			<Point>
				<altitudeMode>relativeToGround</altitudeMode>
				<gx:drawOrder>1</gx:drawOrder>
				<coordinates>-77.05555738705385,38.86885600238287,44</coordinates>
			</Point>
		</Placemark>
		<Placemark>
			<name>PenG</name>
			<LookAt>
				<longitude>-77.054682114383</longitude>
				<latitude>38.87293232401468</latitude>
				<altitude>1.633239568214121</altitude>
				<heading>-137.2257484600806</heading>
				<tilt>0.5333348973099946</tilt>
				<range>92.55119254195999</range>
				<gx:altitudeMode>relativeToSeaFloor</gx:altitudeMode>
			</LookAt>
			<styleUrl>#msn_star3</styleUrl>
			<Point>
				<altitudeMode>relativeToGround</altitudeMode>
				<gx:drawOrder>1</gx:drawOrder>
				<coordinates>-77.05466945787724,38.87291816657935,44</coordinates>
			</Point>
		</Placemark>
		<Placemark>
			<name>PenB</name>
			<LookAt>
				<longitude>-77.05634320023228</longitude>
				<latitude>38.87307622922252</latitude>
				<altitude>0</altitude>
				<heading>171.374244848441</heading>
				<tilt>0</tilt>
				<range>305.4805781714179</range>
				<gx:altitudeMode>relativeToSeaFloor</gx:altitudeMode>
			</LookAt>
			<styleUrl>#msn_star</styleUrl>
			<Point>
				<extrude>1</extrude>
				<altitudeMode>relativeToGround</altitudeMode>
				<gx:drawOrder>1</gx:drawOrder>
				<coordinates>-77.05628474196676,38.87273556375202,44</coordinates>
			</Point>
		</Placemark>
		<Placemark>
			<name>PenA</name>
			<LookAt>
				<longitude>-77.05798003913954</longitude>
				<latitude>38.87262288068033</latitude>
				<altitude>0</altitude>
				<heading>133.483238523939</heading>
				<tilt>0</tilt>
				<range>69.60731025292988</range>
				<gx:altitudeMode>relativeToSeaFloor</gx:altitudeMode>
			</LookAt>
			<styleUrl>#msn_star3</styleUrl>
			<Point>
				<altitudeMode>relativeToGround</altitudeMode>
				<gx:drawOrder>1</gx:drawOrder>
				<coordinates>-77.05790028667388,38.872552231854,44</coordinates>
			</Point>
		</Placemark>
		<Placemark>
			<name>PenD</name>
			<Camera>
				<longitude>-77.05845709941696</longitude>
				<latitude>38.8700423776237</latitude>
				<altitude>21.32848442463285</altitude>
				<heading>44.74877841306695</heading>
				<tilt>0.02377339149449738</tilt>
				<roll>10.80711993531959</roll>
				<gx:altitudeMode>relativeToSeaFloor</gx:altitudeMode>
			</Camera>
			<styleUrl>#msn_star3</styleUrl>
			<Point>
				<altitudeMode>relativeToGround</altitudeMode>
				<gx:drawOrder>1</gx:drawOrder>
				<coordinates>-77.05845931790411,38.87004371204871,44</coordinates>
			</Point>
		</Placemark>
		<Placemark>
			<name>PenC</name>
			<LookAt>
				<longitude>-77.05604559034877</longitude>
				<latitude>38.87565543473433</latitude>
				<altitude>0</altitude>
				<heading>169.9889651686078</heading>
				<tilt>0.1361785549977257</tilt>
				<range>520.4833079586078</range>
				<gx:altitudeMode>relativeToSeaFloor</gx:altitudeMode>
			</LookAt>
			<styleUrl>#msn_star</styleUrl>
			<Point>
				<extrude>1</extrude>
				<altitudeMode>relativeToGround</altitudeMode>
				<gx:drawOrder>1</gx:drawOrder>
				<coordinates>-77.05693269848774,38.87621612361609,44</coordinates>
			</Point>
		</Placemark>
		<Placemark>
			<name>K</name>
			<styleUrl>#msn_open-diamond001</styleUrl>
			<ExtendedData>
				<SchemaData schemaUrl="#S_centerpnts_SDD0">
					<SimpleData name="LOC">KEY</SimpleData>
					<SimpleData name="LAT">38.8928</SimpleData>
					<SimpleData name="LON">-77.0514</SimpleData>
				</SchemaData>
			</ExtendedData>
			<Point>
				<extrude>1</extrude>
				<altitudeMode>absolute</altitudeMode>
				<coordinates>-77.051444,38.892751,15</coordinates>
			</Point>
		</Placemark>
		<Placemark>
			<name>J</name>
			<Camera>
				<longitude>-77.03659196640794</longitude>
				<latitude>38.8898082232756</latitude>
				<altitude>15.67543074603685</altitude>
				<heading>-172.646385657433</heading>
				<tilt>0.1276454240040489</tilt>
				<roll>10.36020002336397</roll>
				<gx:altitudeMode>relativeToSeaFloor</gx:altitudeMode>
			</Camera>
			<styleUrl>#msn_target</styleUrl>
			<Point>
				<extrude>1</extrude>
				<altitudeMode>relativeToGround</altitudeMode>
				<gx:drawOrder>1</gx:drawOrder>
				<coordinates>-77.03656908080315,38.88980129959375,9.999999999999998</coordinates>
			</Point>
		</Placemark>
		<Placemark>
			<name>Cap</name>
			<LookAt>
				<longitude>-77.00880523001071</longitude>
				<latitude>38.88990543090053</latitude>
				<altitude>0</altitude>
				<heading>0.007467212844387712</heading>
				<tilt>0</tilt>
				<range>153.6665464494</range>
				<gx:altitudeMode>relativeToSeaFloor</gx:altitudeMode>
			</LookAt>
			<styleUrl>#msn_triangle</styleUrl>
			<Point>
				<extrude>1</extrude>
				<altitudeMode>relativeToGround</altitudeMode>
				<gx:drawOrder>1</gx:drawOrder>
				<coordinates>-77.009227,38.889801,160</coordinates>
			</Point>
		</Placemark>
		<Placemark>
			<name>WH</name>
			<LookAt>
				<longitude>-77.03648887226197</longitude>
				<latitude>38.89792961431181</latitude>
				<altitude>0</altitude>
				<heading>-88.69016022932</heading>
				<tilt>0</tilt>
				<range>117.0005113796477</range>
				<gx:altitudeMode>relativeToSeaFloor</gx:altitudeMode>
			</LookAt>
			<styleUrl>#msn_cross-hairs4</styleUrl>
			<Point>
				<extrude>1</extrude>
				<altitudeMode>relativeToGround</altitudeMode>
				<gx:drawOrder>1</gx:drawOrder>
				<coordinates>-77.036569,38.89778875877805,1</coordinates>
			</Point>
		</Placemark>
		<Placemark>
			<name>M</name>
			<LookAt>
				<longitude>-77.03501869930255</longitude>
				<latitude>38.88956781797305</latitude>
				<altitude>0</altitude>
				<heading>-3.609436577485464e-10</heading>
				<tilt>0</tilt>
				<range>217.0701662614351</range>
				<gx:altitudeMode>relativeToSeaFloor</gx:altitudeMode>
			</LookAt>
			<styleUrl>#msn_placemark_circle15</styleUrl>
			<Point>
				<extrude>1</extrude>
				<altitudeMode>relativeToGround</altitudeMode>
				<gx:drawOrder>1</gx:drawOrder>
				<coordinates>-77.03527800000001,38.889484,169</coordinates>
			</Point>
		</Placemark>
		<Placemark>
			<name>Sc</name>
			<styleUrl>#pointStyleMap2</styleUrl>
			<ExtendedData>
				<SchemaData schemaUrl="#S_trypoints_SDDD0">
					<SimpleData name="LOC">Sc</SimpleData>
					<SimpleData name="LAT">38.8927</SimpleData>
					<SimpleData name="LON">-77.0406</SimpleData>
					<SimpleData name="ALT">15</SimpleData>
				</SchemaData>
			</ExtendedData>
			<Point>
				<extrude>1</extrude>
				<altitudeMode>absolute</altitudeMode>
				<coordinates>-77.04058603,38.89269952,9.999999999999998</coordinates>
			</Point>
		</Placemark>
		<Placemark>
			<name>Ec</name>
			<styleUrl>#pointStyleMap2</styleUrl>
			<ExtendedData>
				<SchemaData schemaUrl="#S_trypoints_SDDD0">
					<SimpleData name="LOC">Ec</SimpleData>
					<SimpleData name="LAT">38.8928</SimpleData>
					<SimpleData name="LON">-77.0407</SimpleData>
					<SimpleData name="ALT">15</SimpleData>
				</SchemaData>
			</ExtendedData>
			<Point>
				<extrude>1</extrude>
				<altitudeMode>absolute</altitudeMode>
				<coordinates>-77.0406797,38.89278669999997,9.999999999999998</coordinates>
			</Point>
		</Placemark>
		<Placemark>
			<name>Nc</name>
			<styleUrl>#pointStyleMap2</styleUrl>
			<ExtendedData>
				<SchemaData schemaUrl="#S_trypoints_SDDD0">
					<SimpleData name="LOC">Nc</SimpleData>
					<SimpleData name="LAT">38.8936</SimpleData>
					<SimpleData name="LON">-77.041</SimpleData>
					<SimpleData name="ALT">15</SimpleData>
				</SchemaData>
			</ExtendedData>
			<Point>
				<extrude>1</extrude>
				<altitudeMode>absolute</altitudeMode>
				<coordinates>-77.04098558,38.89359614000001,9.999999999999998</coordinates>
			</Point>
		</Placemark>
		<Placemark>
			<name>Wc</name>
			<styleUrl>#pointStyleMap2</styleUrl>
			<ExtendedData>
				<SchemaData schemaUrl="#S_trypoints_SDDD0">
					<SimpleData name="LOC">Wc</SimpleData>
					<SimpleData name="LAT">38.8932</SimpleData>
					<SimpleData name="LON">-77.0408</SimpleData>
					<SimpleData name="ALT">15</SimpleData>
				</SchemaData>
			</ExtendedData>
			<Point>
				<extrude>1</extrude>
				<altitudeMode>absolute</altitudeMode>
				<coordinates>-77.04078625,38.89317136999999,9.999999999999998</coordinates>
			</Point>
		</Placemark>
		<Placemark>
			<name>Hk</name>
			<styleUrl>#msn_cross-hairs</styleUrl>
			<ExtendedData>
				<SchemaData schemaUrl="#S_trypoints_SDDD0">
					<SimpleData name="LOC">Hk</SimpleData>
					<SimpleData name="LAT">38.8951</SimpleData>
					<SimpleData name="LON">-77.0514</SimpleData>
					<SimpleData name="ALT">96.77</SimpleData>
				</SchemaData>
			</ExtendedData>
			<Point>
				<extrude>1</extrude>
				<altitudeMode>relativeToGround</altitudeMode>
				<coordinates>-77.051444,38.8951366,1</coordinates>
			</Point>
		</Placemark>
		<Placemark>
			<name>NOa</name>
			<LookAt>
				<longitude>-77.06708911060748</longitude>
				<latitude>38.92156126922538</latitude>
				<altitude>0</altitude>
				<heading>-179.2219842926249</heading>
				<tilt>0</tilt>
				<range>165.4793027074781</range>
				<gx:altitudeMode>relativeToSeaFloor</gx:altitudeMode>
			</LookAt>
			<styleUrl>#msn_shaded_dot17</styleUrl>
			<Point>
				<extrude>1</extrude>
				<altitudeMode>relativeToGround</altitudeMode>
				<gx:drawOrder>1</gx:drawOrder>
				<coordinates>-77.06705128052432,38.92154464050518,66</coordinates>
			</Point>
		</Placemark>
		<Placemark>
			<name>CCnrA</name>
			<Camera>
				<longitude>-77.00856915271443</longitude>
				<latitude>38.88885628366295</latitude>
				<altitude>75.27735535439004</altitude>
				<heading>68.53833396803662</heading>
				<tilt>0.0105534728832411</tilt>
				<roll>85.72211311925396</roll>
				<gx:altitudeMode>relativeToSeaFloor</gx:altitudeMode>
			</Camera>
			<styleUrl>#msn_triangle1</styleUrl>
			<Point>
				<gx:drawOrder>1</gx:drawOrder>
				<coordinates>-77.00861883736764,38.88882152017216,0</coordinates>
			</Point>
		</Placemark>
		<Placemark>
			<name>PO</name>
			<styleUrl>#msn_placemark_circle030</styleUrl>
			<ExtendedData>
				<SchemaData schemaUrl="#S_trypoints_SDDD0">
					<SimpleData name="LOC">PO</SimpleData>
					<SimpleData name="LAT">38.9345</SimpleData>
					<SimpleData name="LON">-77.1199</SimpleData>
					<SimpleData name="ALT">19.02</SimpleData>
				</SchemaData>
			</ExtendedData>
			<Point>
				<extrude>1</extrude>
				<altitudeMode>absolute</altitudeMode>
				<coordinates>-77.1199159,38.93449309999998,9</coordinates>
			</Point>
		</Placemark>
		<Placemark>
			<name>AN</name>
			<styleUrl>#msn_placemark_circle030</styleUrl>
			<ExtendedData>
				<SchemaData schemaUrl="#S_trypoints_SDDD0">
					<SimpleData name="LOC">AN</SimpleData>
					<SimpleData name="LAT">38.9186</SimpleData>
					<SimpleData name="LON">-76.9419</SimpleData>
					<SimpleData name="ALT">-0.39</SimpleData>
				</SchemaData>
			</ExtendedData>
			<Point>
				<extrude>1</extrude>
				<altitudeMode>absolute</altitudeMode>
				<coordinates>-76.94192180000002,38.91858289999999,9</coordinates>
			</Point>
		</Placemark>
		<Placemark>
			<name>RC</name>
			<styleUrl>#msn_placemark_circle030</styleUrl>
			<ExtendedData>
				<SchemaData schemaUrl="#S_trypoints_SDDD0">
					<SimpleData name="LOC">RC</SimpleData>
					<SimpleData name="LAT">38.9873</SimpleData>
					<SimpleData name="LON">-77.0517</SimpleData>
					<SimpleData name="ALT">169.27</SimpleData>
				</SchemaData>
			</ExtendedData>
			<Point>
				<extrude>1</extrude>
				<altitudeMode>absolute</altitudeMode>
				<coordinates>-77.05231894611552,38.98682226543504,9</coordinates>
			</Point>
		</Placemark>
		<atom:link rel="app" href="https://www.google.com/earth/about/versions/#earth-pro" title="Google Earth Pro 7.3.6.10201"></atom:link>
	</Folder>
</Document>
</kml>
