<?xml version="1.0" encoding="UTF-8"?>
<kml xmlns="http://www.opengis.net/kml/2.2" xmlns:gx="http://www.google.com/kml/ext/2.2" xmlns:kml="http://www.opengis.net/kml/2.2" xmlns:atom="http://www.w3.org/2005/Atom">
<Document>
	<name>SelectPnts.kml</name>
	<Schema name="centerpnts" id="S_centerpnts_SDD0">
		<SimpleField type="string" name="LOC"><displayName>&lt;b&gt;LOC&lt;/b&gt;</displayName>
</SimpleField>
		<SimpleField type="double" name="LAT"><displayName>&lt;b&gt;LAT&lt;/b&gt;</displayName>
</SimpleField>
		<SimpleField type="double" name="LON"><displayName>&lt;b&gt;LON&lt;/b&gt;</displayName>
</SimpleField>
	</Schema>
	<Schema name="trypoints" id="S_trypoints_SDDD">
		<SimpleField type="string" name="LOC"><displayName>&lt;b&gt;LOC&lt;/b&gt;</displayName>
</SimpleField>
		<SimpleField type="double" name="LAT"><displayName>&lt;b&gt;LAT&lt;/b&gt;</displayName>
</SimpleField>
		<SimpleField type="double" name="LON"><displayName>&lt;b&gt;LON&lt;/b&gt;</displayName>
</SimpleField>
		<SimpleField type="double" name="ALT"><displayName>&lt;b&gt;ALT&lt;/b&gt;</displayName>
</SimpleField>
	</Schema>
	<Style id="hlightPointStyle0101">
		<IconStyle>
			<color>e0009102</color>
			<scale>0.8</scale>
			<Icon>
				<href>http://maps.google.com/mapfiles/kml/shapes/star.png</href>
			</Icon>
		</IconStyle>
		<LabelStyle>
			<color>ccffffff</color>
			<scale>0.7</scale>
		</LabelStyle>
		<BalloonStyle>
			<text><![CDATA[<table border="0">
  <tr><td><b>LOC</b></td><td>$[centerpnts/LOC]</td></tr>
  <tr><td><b>LAT</b></td><td>$[centerpnts/LAT]</td></tr>
  <tr><td><b>LON</b></td><td>$[centerpnts/LON]</td></tr>
</table>]]></text>
		</BalloonStyle>
		<LineStyle>
			<color>80ceffd1</color>
			<width>5</width>
		</LineStyle>
	</Style>
	<Style id="hlightPointStyle1">
		<IconStyle>
			<color>e60055aa</color>
			<scale>0.8</scale>
			<Icon>
				<href>http://maps.google.com/mapfiles/kml/shapes/open-diamond.png</href>
			</Icon>
		</IconStyle>
		<LabelStyle>
			<scale>0.6</scale>
		</LabelStyle>
		<BalloonStyle>
			<text><![CDATA[<table border="0">
  <tr><td><b>LOC</b></td><td>$[trypoints/LOC]</td></tr>
  <tr><td><b>LAT</b></td><td>$[trypoints/LAT]</td></tr>
  <tr><td><b>LON</b></td><td>$[trypoints/LON]</td></tr>
  <tr><td><b>ALT</b></td><td>$[trypoints/ALT]</td></tr>
</table>]]></text>
		</BalloonStyle>
	</Style>
	<Style id="hlightPointStyle3">
		<IconStyle>
			<color>e67fffff</color>
			<scale>0.5</scale>
			<Icon>
				<href>http://maps.google.com/mapfiles/kml/shapes/square.png</href>
			</Icon>
		</IconStyle>
		<LabelStyle>
			<color>e6ffffff</color>
			<scale>0.5</scale>
		</LabelStyle>
		<BalloonStyle>
			<text><![CDATA[<table border="0">
  <tr><td><b>LOC</b></td><td>$[trypoints/LOC]</td></tr>
  <tr><td><b>LAT</b></td><td>$[trypoints/LAT]</td></tr>
  <tr><td><b>LON</b></td><td>$[trypoints/LON]</td></tr>
  <tr><td><b>ALT</b></td><td>$[trypoints/ALT]</td></tr>
</table>]]></text>
		</BalloonStyle>
		<LineStyle>
			<color>e6d5ffff</color>
			<width>0.5</width>
		</LineStyle>
	</Style>
	<StyleMap id="msn_open-diamond00">
		<Pair>
			<key>normal</key>
			<styleUrl>#sn_open-diamond0</styleUrl>
		</Pair>
		<Pair>
			<key>highlight</key>
			<styleUrl>#sh_open-diamond00</styleUrl>
		</Pair>
	</StyleMap>
	<StyleMap id="msn_placemark_circle">
		<Pair>
			<key>normal</key>
			<styleUrl>#sn_placemark_circle</styleUrl>
		</Pair>
		<Pair>
			<key>highlight</key>
			<styleUrl>#sh_placemark_circle_highlight</styleUrl>
		</Pair>
	</StyleMap>
	<StyleMap id="msn_square">
		<Pair>
			<key>normal</key>
			<styleUrl>#sn_square</styleUrl>
		</Pair>
		<Pair>
			<key>highlight</key>
			<styleUrl>#sh_square</styleUrl>
		</Pair>
	</StyleMap>
	<StyleMap id="msn_star">
		<Pair>
			<key>normal</key>
			<styleUrl>#sn_star5</styleUrl>
		</Pair>
		<Pair>
			<key>highlight</key>
			<styleUrl>#sh_star1</styleUrl>
		</Pair>
	</StyleMap>
	<Style id="normPointStyle">
		<IconStyle>
			<color>e67fffff</color>
			<scale>0.5</scale>
			<Icon>
				<href>http://maps.google.com/mapfiles/kml/shapes/square.png</href>
			</Icon>
		</IconStyle>
		<LabelStyle>
			<color>e6ffffff</color>
			<scale>0.5</scale>
		</LabelStyle>
		<BalloonStyle>
			<text><![CDATA[<table border="0">
  <tr><td><b>LOC</b></td><td>$[trypoints/LOC]</td></tr>
  <tr><td><b>LAT</b></td><td>$[trypoints/LAT]</td></tr>
  <tr><td><b>LON</b></td><td>$[trypoints/LON]</td></tr>
  <tr><td><b>ALT</b></td><td>$[trypoints/ALT]</td></tr>
</table>]]></text>
		</BalloonStyle>
		<LineStyle>
			<color>e6d5ffff</color>
			<width>0.5</width>
		</LineStyle>
	</Style>
	<Style id="normPointStyle0000">
		<IconStyle>
			<color>e0009102</color>
			<scale>0.8</scale>
			<Icon>
				<href>http://maps.google.com/mapfiles/kml/shapes/star.png</href>
			</Icon>
		</IconStyle>
		<LabelStyle>
			<color>ccffffff</color>
			<scale>0.7</scale>
		</LabelStyle>
		<BalloonStyle>
			<text><![CDATA[<table border="0">
  <tr><td><b>LOC</b></td><td>$[centerpnts/LOC]</td></tr>
  <tr><td><b>LAT</b></td><td>$[centerpnts/LAT]</td></tr>
  <tr><td><b>LON</b></td><td>$[centerpnts/LON]</td></tr>
</table>]]></text>
		</BalloonStyle>
		<LineStyle>
			<color>80ceffd1</color>
			<width>5</width>
		</LineStyle>
	</Style>
	<Style id="normPointStyle1">
		<IconStyle>
			<color>e60055aa</color>
			<scale>0.8</scale>
			<Icon>
				<href>http://maps.google.com/mapfiles/kml/shapes/open-diamond.png</href>
			</Icon>
		</IconStyle>
		<LabelStyle>
			<scale>0.6</scale>
		</LabelStyle>
		<BalloonStyle>
			<text><![CDATA[<table border="0">
  <tr><td><b>LOC</b></td><td>$[trypoints/LOC]</td></tr>
  <tr><td><b>LAT</b></td><td>$[trypoints/LAT]</td></tr>
  <tr><td><b>LON</b></td><td>$[trypoints/LON]</td></tr>
  <tr><td><b>ALT</b></td><td>$[trypoints/ALT]</td></tr>
</table>]]></text>
		</BalloonStyle>
	</Style>
	<StyleMap id="pointStyleMap">
		<Pair>
			<key>normal</key>
			<styleUrl>#normPointStyle1</styleUrl>
		</Pair>
		<Pair>
			<key>highlight</key>
			<styleUrl>#hlightPointStyle1</styleUrl>
		</Pair>
	</StyleMap>
	<StyleMap id="pointStyleMap000">
		<Pair>
			<key>normal</key>
			<styleUrl>#normPointStyle0000</styleUrl>
		</Pair>
		<Pair>
			<key>highlight</key>
			<styleUrl>#hlightPointStyle0101</styleUrl>
		</Pair>
	</StyleMap>
	<StyleMap id="pointStyleMap2">
		<Pair>
			<key>normal</key>
			<styleUrl>#normPointStyle</styleUrl>
		</Pair>
		<Pair>
			<key>highlight</key>
			<styleUrl>#hlightPointStyle3</styleUrl>
		</Pair>
	</StyleMap>
	<Style id="sh_open-diamond00">
		<IconStyle>
			<color>e6ffffff</color>
			<scale>0.827273</scale>
			<Icon>
				<href>http://maps.google.com/mapfiles/kml/shapes/target.png</href>
			</Icon>
		</IconStyle>
		<LabelStyle>
			<color>c9ffffff</color>
			<scale>0.6</scale>
		</LabelStyle>
		<LineStyle>
			<color>e6ffffff</color>
			<width>0.5</width>
		</LineStyle>
	</Style>
	<Style id="sh_placemark_circle_highlight">
		<IconStyle>
			<color>ffffff00</color>
			<colorMode>random</colorMode>
			<scale>0.6</scale>
			<Icon>
				<href>http://maps.google.com/mapfiles/kml/shapes/placemark_circle_highlight.png</href>
			</Icon>
		</IconStyle>
		<LabelStyle>
			<color>ccffffff</color>
			<scale>0.5</scale>
		</LabelStyle>
		<LineStyle>
			<color>ccffff00</color>
			<colorMode>random</colorMode>
			<width>0.5</width>
		</LineStyle>
		<PolyStyle>
			<colorMode>random</colorMode>
		</PolyStyle>
	</Style>
	<Style id="sh_square">
		<IconStyle>
			<color>e00000ff</color>
			<scale>0.709091</scale>
			<Icon>
				<href>http://maps.google.com/mapfiles/kml/shapes/cross-hairs_highlight.png</href>
			</Icon>
		</IconStyle>
		<LabelStyle>
			<color>c9ffffff</color>
			<scale>0.5</scale>
		</LabelStyle>
		<LineStyle>
			<color>ccffffff</color>
			<width>0.5</width>
		</LineStyle>
	</Style>
	<Style id="sh_star1">
		<IconStyle>
			<color>cc00ff00</color>
			<scale>0.827273</scale>
			<Icon>
				<href>http://maps.google.com/mapfiles/kml/shapes/star.png</href>
			</Icon>
		</IconStyle>
		<LabelStyle>
			<color>ccffffff</color>
			<scale>0.7</scale>
		</LabelStyle>
	</Style>
	<Style id="sn_open-diamond0">
		<IconStyle>
			<color>e6ffffff</color>
			<scale>0.7</scale>
			<Icon>
				<href>http://maps.google.com/mapfiles/kml/shapes/target.png</href>
			</Icon>
		</IconStyle>
		<LabelStyle>
			<color>c9ffffff</color>
			<scale>0.6</scale>
		</LabelStyle>
		<LineStyle>
			<color>e6ffffff</color>
			<width>0.5</width>
		</LineStyle>
	</Style>
	<Style id="sn_placemark_circle">
		<IconStyle>
			<color>ffffff00</color>
			<colorMode>random</colorMode>
			<scale>0.6</scale>
			<Icon>
				<href>http://maps.google.com/mapfiles/kml/shapes/placemark_circle.png</href>
			</Icon>
		</IconStyle>
		<LabelStyle>
			<color>ccffffff</color>
			<scale>0.5</scale>
		</LabelStyle>
		<LineStyle>
			<color>ccffff00</color>
			<colorMode>random</colorMode>
			<width>0.5</width>
		</LineStyle>
		<PolyStyle>
			<colorMode>random</colorMode>
		</PolyStyle>
	</Style>
	<Style id="sn_square">
		<IconStyle>
			<color>e00000ff</color>
			<scale>0.6</scale>
			<Icon>
				<href>http://maps.google.com/mapfiles/kml/shapes/cross-hairs.png</href>
			</Icon>
		</IconStyle>
		<LabelStyle>
			<color>c9ffffff</color>
			<scale>0.5</scale>
		</LabelStyle>
		<LineStyle>
			<color>ccffffff</color>
			<width>0.5</width>
		</LineStyle>
	</Style>
	<Style id="sn_star5">
		<IconStyle>
			<color>cc00ff00</color>
			<scale>0.7</scale>
			<Icon>
				<href>http://maps.google.com/mapfiles/kml/shapes/star.png</href>
			</Icon>
		</IconStyle>
		<LabelStyle>
			<color>ccffffff</color>
			<scale>0.7</scale>
		</LabelStyle>
	</Style>
	<Folder>
		<name>SelectPnts</name>
		<open>1</open>
		<Placemark>
			<name>HawC</name>
			<styleUrl>#pointStyleMap</styleUrl>
			<ExtendedData>
				<SchemaData schemaUrl="#S_trypoints_SDDD">
					<SimpleData name="LOC">HawC</SimpleData>
					<SimpleData name="LAT">38.889</SimpleData>
					<SimpleData name="LON">-77.0083</SimpleData>
					<SimpleData name="ALT">84.7</SimpleData>
				</SchemaData>
			</ExtendedData>
			<Point>
				<extrude>1</extrude>
				<altitudeMode>relativeToGround</altitudeMode>
				<coordinates>-77.0082622,38.88904009999997,4.999999999999999</coordinates>
			</Point>
		</Placemark>
		<Placemark>
			<name>HawK</name>
			<styleUrl>#pointStyleMap</styleUrl>
			<ExtendedData>
				<SchemaData schemaUrl="#S_trypoints_SDDD">
					<SimpleData name="LOC">HawK</SimpleData>
					<SimpleData name="LAT">38.8924</SimpleData>
					<SimpleData name="LON">-77.0508</SimpleData>
					<SimpleData name="ALT">21.1</SimpleData>
				</SchemaData>
			</ExtendedData>
			<Point>
				<extrude>1</extrude>
				<altitudeMode>relativeToGround</altitudeMode>
				<coordinates>-77.05080599999999,38.89244539999999,4.999999999999999</coordinates>
			</Point>
		</Placemark>
		<Placemark>
			<name>HawW</name>
			<styleUrl>#pointStyleMap</styleUrl>
			<ExtendedData>
				<SchemaData schemaUrl="#S_trypoints_SDDD">
					<SimpleData name="LOC">HawW</SimpleData>
					<SimpleData name="LAT">38.8972</SimpleData>
					<SimpleData name="LON">-77.0349</SimpleData>
					<SimpleData name="ALT">39.97</SimpleData>
				</SchemaData>
			</ExtendedData>
			<Point>
				<extrude>1</extrude>
				<altitudeMode>relativeToGround</altitudeMode>
				<coordinates>-77.03490809999998,38.89723169999997,4.999999999999999</coordinates>
			</Point>
		</Placemark>
		<Placemark>
			<name>Nb</name>
			<styleUrl>#pointStyleMap2</styleUrl>
			<ExtendedData>
				<SchemaData schemaUrl="#S_trypoints_SDDD">
					<SimpleData name="LOC">Nb</SimpleData>
					<SimpleData name="LAT">38.996</SimpleData>
					<SimpleData name="LON">-77.041</SimpleData>
					<SimpleData name="ALT">259</SimpleData>
				</SchemaData>
			</ExtendedData>
			<Point>
				<extrude>1</extrude>
				<altitudeMode>absolute</altitudeMode>
				<coordinates>-77.04098558,38.99595650999999,4</coordinates>
			</Point>
		</Placemark>
		<Placemark>
			<name>Sb</name>
			<styleUrl>#pointStyleMap2</styleUrl>
			<ExtendedData>
				<SchemaData schemaUrl="#S_trypoints_SDDD">
					<SimpleData name="LOC">Sb</SimpleData>
					<SimpleData name="LAT">38.7903</SimpleData>
					<SimpleData name="LON">-77.0406</SimpleData>
					<SimpleData name="ALT">1</SimpleData>
				</SchemaData>
			</ExtendedData>
			<Point>
				<extrude>1</extrude>
				<altitudeMode>absolute</altitudeMode>
				<coordinates>-77.04058603,38.79033915000001,4</coordinates>
			</Point>
		</Placemark>
		<Placemark>
			<name>Wb</name>
			<styleUrl>#pointStyleMap2</styleUrl>
			<ExtendedData>
				<SchemaData schemaUrl="#S_trypoints_SDDD">
					<SimpleData name="LOC">Wb</SimpleData>
					<SimpleData name="LAT">38.8932</SimpleData>
					<SimpleData name="LON">-77.1723</SimpleData>
					<SimpleData name="ALT">343</SimpleData>
				</SchemaData>
			</ExtendedData>
			<Point>
				<extrude>1</extrude>
				<altitudeMode>absolute</altitudeMode>
				<coordinates>-77.17230114000002,38.89324512999998,4</coordinates>
			</Point>
		</Placemark>
		<Placemark>
			<name>Eb</name>
			<styleUrl>#pointStyleMap2</styleUrl>
			<ExtendedData>
				<SchemaData schemaUrl="#S_trypoints_SDDD">
					<SimpleData name="LOC">Eb</SimpleData>
					<SimpleData name="LAT">38.8929</SimpleData>
					<SimpleData name="LON">-76.9092</SimpleData>
					<SimpleData name="ALT">94</SimpleData>
				</SchemaData>
			</ExtendedData>
			<Point>
				<extrude>1</extrude>
				<altitudeMode>absolute</altitudeMode>
				<coordinates>-76.90916553,38.89286049999997,4</coordinates>
			</Point>
		</Placemark>
		<Placemark>
			<name>Nc</name>
			<styleUrl>#pointStyleMap2</styleUrl>
			<ExtendedData>
				<SchemaData schemaUrl="#S_trypoints_SDDD">
					<SimpleData name="LOC">Nc</SimpleData>
					<SimpleData name="LAT">38.8936</SimpleData>
					<SimpleData name="LON">-77.041</SimpleData>
					<SimpleData name="ALT">15</SimpleData>
				</SchemaData>
			</ExtendedData>
			<Point>
				<extrude>1</extrude>
				<altitudeMode>absolute</altitudeMode>
				<coordinates>-77.04098558,38.89359614000001,4</coordinates>
			</Point>
		</Placemark>
		<Placemark>
			<name>Sc</name>
			<styleUrl>#pointStyleMap2</styleUrl>
			<ExtendedData>
				<SchemaData schemaUrl="#S_trypoints_SDDD">
					<SimpleData name="LOC">Sc</SimpleData>
					<SimpleData name="LAT">38.8927</SimpleData>
					<SimpleData name="LON">-77.0406</SimpleData>
					<SimpleData name="ALT">15</SimpleData>
				</SchemaData>
			</ExtendedData>
			<Point>
				<extrude>1</extrude>
				<altitudeMode>absolute</altitudeMode>
				<coordinates>-77.04058603,38.89269952,4</coordinates>
			</Point>
		</Placemark>
		<Placemark>
			<name>Wc</name>
			<styleUrl>#pointStyleMap2</styleUrl>
			<ExtendedData>
				<SchemaData schemaUrl="#S_trypoints_SDDD">
					<SimpleData name="LOC">Wc</SimpleData>
					<SimpleData name="LAT">38.8932</SimpleData>
					<SimpleData name="LON">-77.0408</SimpleData>
					<SimpleData name="ALT">15</SimpleData>
				</SchemaData>
			</ExtendedData>
			<Point>
				<extrude>1</extrude>
				<altitudeMode>absolute</altitudeMode>
				<coordinates>-77.04078625,38.89317136999999,4</coordinates>
			</Point>
		</Placemark>
		<Placemark>
			<name>Ec</name>
			<styleUrl>#pointStyleMap2</styleUrl>
			<ExtendedData>
				<SchemaData schemaUrl="#S_trypoints_SDDD">
					<SimpleData name="LOC">Ec</SimpleData>
					<SimpleData name="LAT">38.8928</SimpleData>
					<SimpleData name="LON">-77.0407</SimpleData>
					<SimpleData name="ALT">15</SimpleData>
				</SchemaData>
			</ExtendedData>
			<Point>
				<extrude>1</extrude>
				<altitudeMode>absolute</altitudeMode>
				<coordinates>-77.0406797,38.89278669999997,4</coordinates>
			</Point>
		</Placemark>
		<Placemark>
			<name>WH</name>
			<Camera>
				<longitude>-77.03659196640794</longitude>
				<latitude>38.8898082232756</latitude>
				<altitude>15.67543074603685</altitude>
				<heading>-172.646385657433</heading>
				<tilt>0.1276454240040489</tilt>
				<roll>10.36020002336397</roll>
				<gx:altitudeMode>relativeToSeaFloor</gx:altitudeMode>
			</Camera>
			<styleUrl>#msn_square</styleUrl>
			<Point>
				<extrude>1</extrude>
				<altitudeMode>absolute</altitudeMode>
				<gx:drawOrder>1</gx:drawOrder>
				<coordinates>-77.03656908080315,38.8978553,2</coordinates>
			</Point>
		</Placemark>
		<Placemark>
			<name>B</name>
			<LookAt>
				<longitude>-77.00917392065172</longitude>
				<latitude>38.89287893334985</latitude>
				<altitude>0</altitude>
				<heading>0.01981962633897311</heading>
				<tilt>0</tilt>
				<range>185.9991905427505</range>
				<gx:altitudeMode>relativeToSeaFloor</gx:altitudeMode>
			</LookAt>
			<styleUrl>#msn_square</styleUrl>
			<Point>
				<altitudeMode>absolute</altitudeMode>
				<gx:drawOrder>1</gx:drawOrder>
				<coordinates>-77.00888999999999,38.892752,2</coordinates>
			</Point>
		</Placemark>
		<Placemark>
			<name>Hk</name>
			<styleUrl>#msn_square</styleUrl>
			<ExtendedData>
				<SchemaData schemaUrl="#S_trypoints_SDDD">
					<SimpleData name="LOC">Hk</SimpleData>
					<SimpleData name="LAT">38.8951</SimpleData>
					<SimpleData name="LON">-77.0514</SimpleData>
					<SimpleData name="ALT">96.77</SimpleData>
				</SchemaData>
			</ExtendedData>
			<Point>
				<extrude>1</extrude>
				<altitudeMode>absolute</altitudeMode>
				<coordinates>-77.051444,38.8951366,2</coordinates>
			</Point>
		</Placemark>
		<Placemark>
			<name>M</name>
			<LookAt>
				<longitude>-77.03501869930255</longitude>
				<latitude>38.88956781797305</latitude>
				<altitude>0</altitude>
				<heading>-3.609436577485464e-10</heading>
				<tilt>0</tilt>
				<range>217.0701662614351</range>
				<gx:altitudeMode>relativeToSeaFloor</gx:altitudeMode>
			</LookAt>
			<styleUrl>#msn_square</styleUrl>
			<Point>
				<extrude>1</extrude>
				<altitudeMode>absolute</altitudeMode>
				<gx:drawOrder>1</gx:drawOrder>
				<coordinates>-77.03527800000001,38.889484,2</coordinates>
			</Point>
		</Placemark>
		<Placemark>
			<name>Cap</name>
			<LookAt>
				<longitude>-77.00880523001071</longitude>
				<latitude>38.88990543090053</latitude>
				<altitude>0</altitude>
				<heading>0.007467212844387712</heading>
				<tilt>0</tilt>
				<range>153.6665464494</range>
				<gx:altitudeMode>relativeToSeaFloor</gx:altitudeMode>
			</LookAt>
			<styleUrl>#msn_square</styleUrl>
			<Point>
				<extrude>1</extrude>
				<altitudeMode>absolute</altitudeMode>
				<gx:drawOrder>1</gx:drawOrder>
				<coordinates>-77.009227,38.889801,2</coordinates>
			</Point>
		</Placemark>
		<Placemark>
			<name>J</name>
			<Camera>
				<longitude>-77.03659196640794</longitude>
				<latitude>38.8898082232756</latitude>
				<altitude>15.67543074603685</altitude>
				<heading>-172.646385657433</heading>
				<tilt>0.1276454240040489</tilt>
				<roll>10.36020002336397</roll>
				<gx:altitudeMode>relativeToSeaFloor</gx:altitudeMode>
			</Camera>
			<styleUrl>#msn_open-diamond00</styleUrl>
			<Point>
				<extrude>1</extrude>
				<altitudeMode>absolute</altitudeMode>
				<gx:drawOrder>1</gx:drawOrder>
				<coordinates>-77.03656908080315,38.88980129959375,15</coordinates>
			</Point>
		</Placemark>
		<Placemark>
			<name>K</name>
			<styleUrl>#msn_open-diamond00</styleUrl>
			<ExtendedData>
				<SchemaData schemaUrl="#S_centerpnts_SDD0">
					<SimpleData name="LOC">KEY</SimpleData>
					<SimpleData name="LAT">38.8928</SimpleData>
					<SimpleData name="LON">-77.0514</SimpleData>
				</SchemaData>
			</ExtendedData>
			<Point>
				<extrude>1</extrude>
				<altitudeMode>absolute</altitudeMode>
				<coordinates>-77.051444,38.892751,15</coordinates>
			</Point>
		</Placemark>
		<Placemark>
			<name>RCrk</name>
			<LookAt>
				<longitude>-77.05698021996132</longitude>
				<latitude>38.89899029358692</latitude>
				<altitude>0</altitude>
				<heading>-0.02263105056239652</heading>
				<tilt>0</tilt>
				<range>822.9833353372475</range>
				<gx:altitudeMode>relativeToSeaFloor</gx:altitudeMode>
			</LookAt>
			<styleUrl>#msn_placemark_circle</styleUrl>
			<Point>
				<altitudeMode>absolute</altitudeMode>
				<gx:drawOrder>1</gx:drawOrder>
				<coordinates>-77.05830775068127,38.90086379440655,9</coordinates>
			</Point>
		</Placemark>
		<Placemark>
			<name>RK</name>
			<styleUrl>#msn_placemark_circle</styleUrl>
			<ExtendedData>
				<SchemaData schemaUrl="#S_trypoints_SDDD">
					<SimpleData name="LOC">RK</SimpleData>
					<SimpleData name="LAT">38.8551</SimpleData>
					<SimpleData name="LON">-77.0236</SimpleData>
					<SimpleData name="ALT">1</SimpleData>
				</SchemaData>
			</ExtendedData>
			<Point>
				<extrude>1</extrude>
				<altitudeMode>absolute</altitudeMode>
				<coordinates>-77.02356040000001,38.85513800000002,9</coordinates>
			</Point>
		</Placemark>
		<Placemark>
			<name>PO</name>
			<styleUrl>#msn_placemark_circle</styleUrl>
			<ExtendedData>
				<SchemaData schemaUrl="#S_trypoints_SDDD">
					<SimpleData name="LOC">PO</SimpleData>
					<SimpleData name="LAT">38.9345</SimpleData>
					<SimpleData name="LON">-77.1199</SimpleData>
					<SimpleData name="ALT">19.02</SimpleData>
				</SchemaData>
			</ExtendedData>
			<Point>
				<extrude>1</extrude>
				<altitudeMode>absolute</altitudeMode>
				<coordinates>-77.1199159,38.93449309999998,9</coordinates>
			</Point>
		</Placemark>
		<Placemark>
			<name>RC</name>
			<styleUrl>#msn_placemark_circle</styleUrl>
			<ExtendedData>
				<SchemaData schemaUrl="#S_trypoints_SDDD">
					<SimpleData name="LOC">RC</SimpleData>
					<SimpleData name="LAT">38.9873</SimpleData>
					<SimpleData name="LON">-77.0517</SimpleData>
					<SimpleData name="ALT">169.27</SimpleData>
				</SchemaData>
			</ExtendedData>
			<Point>
				<extrude>1</extrude>
				<altitudeMode>absolute</altitudeMode>
				<coordinates>-77.05231894611552,38.98682226543504,9</coordinates>
			</Point>
		</Placemark>
		<Placemark>
			<name>AN</name>
			<styleUrl>#msn_placemark_circle</styleUrl>
			<ExtendedData>
				<SchemaData schemaUrl="#S_trypoints_SDDD">
					<SimpleData name="LOC">AN</SimpleData>
					<SimpleData name="LAT">38.9186</SimpleData>
					<SimpleData name="LON">-76.9419</SimpleData>
					<SimpleData name="ALT">-0.39</SimpleData>
				</SchemaData>
			</ExtendedData>
			<Point>
				<extrude>1</extrude>
				<altitudeMode>absolute</altitudeMode>
				<coordinates>-76.94192180000002,38.91858289999999,9</coordinates>
			</Point>
		</Placemark>
		<Placemark>
			<name>PenA</name>
			<LookAt>
				<longitude>-77.05734143759395</longitude>
				<latitude>38.87239733512456</latitude>
				<altitude>0</altitude>
				<heading>-0.02275359557892797</heading>
				<tilt>0</tilt>
				<range>173.4572102928906</range>
				<gx:altitudeMode>relativeToSeaFloor</gx:altitudeMode>
			</LookAt>
			<styleUrl>#msn_star</styleUrl>
			<Point>
				<gx:drawOrder>1</gx:drawOrder>
				<coordinates>-77.05786528091933,38.87262722628098,0</coordinates>
			</Point>
		</Placemark>
		<Placemark>
			<name>PenD</name>
			<LookAt>
				<longitude>-77.05807008460445</longitude>
				<latitude>38.87007085903708</latitude>
				<altitude>0</altitude>
				<heading>-0.02321082542517045</heading>
				<tilt>0</tilt>
				<range>158.1508926378977</range>
				<gx:altitudeMode>relativeToSeaFloor</gx:altitudeMode>
			</LookAt>
			<styleUrl>#msn_star</styleUrl>
			<Point>
				<gx:drawOrder>1</gx:drawOrder>
				<coordinates>-77.05841808191346,38.87014746169203,0</coordinates>
			</Point>
		</Placemark>
		<Placemark>
			<name>PenE</name>
			<LookAt>
				<longitude>-77.05362227031316</longitude>
				<latitude>38.87072868085453</latitude>
				<altitude>0</altitude>
				<heading>-0.008076625907632012</heading>
				<tilt>0</tilt>
				<range>98.28342044977292</range>
				<gx:altitudeMode>relativeToSeaFloor</gx:altitudeMode>
			</LookAt>
			<styleUrl>#msn_star</styleUrl>
			<Point>
				<gx:drawOrder>1</gx:drawOrder>
				<coordinates>-77.05324434344904,38.87072872172274,0</coordinates>
			</Point>
		</Placemark>
		<Placemark>
			<name>PenF</name>
			<LookAt>
				<longitude>-77.05580753398471</longitude>
				<latitude>38.86907066220041</latitude>
				<altitude>0</altitude>
				<heading>-0.02179096704225352</heading>
				<tilt>0</tilt>
				<range>97.87794870118847</range>
				<gx:altitudeMode>relativeToSeaFloor</gx:altitudeMode>
			</LookAt>
			<styleUrl>#msn_star</styleUrl>
			<Point>
				<gx:drawOrder>1</gx:drawOrder>
				<coordinates>-77.05556655805725,38.8689747836158,0</coordinates>
			</Point>
		</Placemark>
		<Placemark>
			<name>PenG</name>
			<LookAt>
				<longitude>-77.05511716585596</longitude>
				<latitude>38.87224138202482</latitude>
				<altitude>0</altitude>
				<heading>-0.02135768129425947</heading>
				<tilt>0</tilt>
				<range>323.4183599820038</range>
				<gx:altitudeMode>relativeToSeaFloor</gx:altitudeMode>
			</LookAt>
			<styleUrl>#msn_star</styleUrl>
			<Point>
				<gx:drawOrder>1</gx:drawOrder>
				<coordinates>-77.05466801451274,38.87298421406125,0</coordinates>
			</Point>
		</Placemark>
		<Placemark>
			<name>P</name>
			<styleUrl>#pointStyleMap000</styleUrl>
			<ExtendedData>
				<SchemaData schemaUrl="#S_centerpnts_SDD0">
					<SimpleData name="LOC">PEN</SimpleData>
					<SimpleData name="LAT">38.871</SimpleData>
					<SimpleData name="LON">-77.056</SimpleData>
				</SchemaData>
			</ExtendedData>
			<Point>
				<extrude>1</extrude>
				<altitudeMode>absolute</altitudeMode>
				<coordinates>-77.05598519142683,38.8710236073416,50.00000000000001</coordinates>
			</Point>
		</Placemark>
		<atom:link rel="app" href="https://www.google.com/earth/about/versions/#earth-pro" title="Google Earth Pro 7.3.6.10201"></atom:link>
	</Folder>
</Document>
</kml>
