<?xml version="1.0" encoding="UTF-8"?>
<kml xmlns="http://www.opengis.net/kml/2.2" xmlns:gx="http://www.google.com/kml/ext/2.2" xmlns:kml="http://www.opengis.net/kml/2.2" xmlns:atom="http://www.w3.org/2005/Atom">
<Document>
	<name>SquarePnts.kml</name>
	<StyleMap id="msn_placemark_square0">
		<Pair>
			<key>normal</key>
			<styleUrl>#sn_placemark_square</styleUrl>
		</Pair>
		<Pair>
			<key>highlight</key>
			<styleUrl>#sh_placemark_square_highlight1</styleUrl>
		</Pair>
	</StyleMap>
	<StyleMap id="msn_placemark_square7">
		<Pair>
			<key>normal</key>
			<styleUrl>#sn_placemark_square1</styleUrl>
		</Pair>
		<Pair>
			<key>highlight</key>
			<styleUrl>#sh_placemark_square_highlight6</styleUrl>
		</Pair>
	</StyleMap>
	<Style id="sh_placemark_square_highlight1">
		<IconStyle>
			<color>990000aa</color>
			<scale>0.590909</scale>
			<Icon>
				<href>http://maps.google.com/mapfiles/kml/shapes/placemark_square_highlight.png</href>
			</Icon>
		</IconStyle>
		<LabelStyle>
			<color>99ffffff</color>
			<scale>0.5</scale>
		</LabelStyle>
	</Style>
	<Style id="sh_placemark_square_highlight6">
		<IconStyle>
			<color>990000aa</color>
			<scale>0.590909</scale>
			<Icon>
				<href>http://maps.google.com/mapfiles/kml/shapes/placemark_square_highlight.png</href>
			</Icon>
		</IconStyle>
		<LabelStyle>
			<color>99ffffff</color>
			<scale>0.5</scale>
		</LabelStyle>
	</Style>
	<Style id="sn_placemark_square">
		<IconStyle>
			<color>990000aa</color>
			<scale>0.5</scale>
			<Icon>
				<href>http://maps.google.com/mapfiles/kml/shapes/placemark_square.png</href>
			</Icon>
		</IconStyle>
		<LabelStyle>
			<color>99ffffff</color>
			<scale>0.5</scale>
		</LabelStyle>
	</Style>
	<Style id="sn_placemark_square1">
		<IconStyle>
			<color>990000aa</color>
			<scale>0.5</scale>
			<Icon>
				<href>http://maps.google.com/mapfiles/kml/shapes/placemark_square.png</href>
			</Icon>
		</IconStyle>
		<LabelStyle>
			<color>99ffffff</color>
			<scale>0.5</scale>
		</LabelStyle>
	</Style>
	<Folder>
		<name>SquarePnts</name>
		<Placemark>
			<name>LP1</name>
			<LookAt>
				<longitude>-76.99112287859867</longitude>
				<latitude>38.8892665928345</latitude>
				<altitude>0</altitude>
				<heading>0.01870199010674073</heading>
				<tilt>0</tilt>
				<range>156.6179326710279</range>
				<gx:altitudeMode>relativeToSeaFloor</gx:altitudeMode>
			</LookAt>
			<styleUrl>#msn_placemark_square7</styleUrl>
			<Point>
				<gx:drawOrder>1</gx:drawOrder>
				<coordinates>-76.99157892959356,38.88923864095456,0</coordinates>
			</Point>
		</Placemark>
		<Placemark>
			<name>LP2</name>
			<LookAt>
				<longitude>-76.99122994691808</longitude>
				<latitude>38.89040454904693</latitude>
				<altitude>0</altitude>
				<heading>0.01863477510309835</heading>
				<tilt>0</tilt>
				<range>158.3117788861648</range>
				<gx:altitudeMode>relativeToSeaFloor</gx:altitudeMode>
			</LookAt>
			<styleUrl>#msn_placemark_square7</styleUrl>
			<Point>
				<gx:drawOrder>1</gx:drawOrder>
				<coordinates>-76.99154729252672,38.89035456355001,0</coordinates>
			</Point>
		</Placemark>
		<Placemark>
			<name>LP3</name>
			<LookAt>
				<longitude>-76.99044095119508</longitude>
				<latitude>38.89033755626279</latitude>
				<altitude>0</altitude>
				<heading>0.0191301293625027</heading>
				<tilt>0</tilt>
				<range>158.3117788873666</range>
				<gx:altitudeMode>relativeToSeaFloor</gx:altitudeMode>
			</LookAt>
			<styleUrl>#msn_placemark_square7</styleUrl>
			<Point>
				<gx:drawOrder>1</gx:drawOrder>
				<coordinates>-76.99025653831602,38.89038757358379,0</coordinates>
			</Point>
		</Placemark>
		<Placemark>
			<name>LP4</name>
			<LookAt>
				<longitude>-76.98957478352267</longitude>
				<latitude>38.88956725724915</latitude>
				<altitude>0</altitude>
				<heading>0.01967391562049302</heading>
				<tilt>0</tilt>
				<range>302.8329174706425</range>
				<gx:altitudeMode>relativeToSeaFloor</gx:altitudeMode>
			</LookAt>
			<styleUrl>#msn_placemark_square7</styleUrl>
			<Point>
				<gx:drawOrder>1</gx:drawOrder>
				<coordinates>-76.98834042191467,38.88924130332222,0</coordinates>
			</Point>
		</Placemark>
		<Placemark>
			<name>LP5</name>
			<LookAt>
				<longitude>-76.99003204472587</longitude>
				<latitude>38.88924085449988</latitude>
				<altitude>0</altitude>
				<heading>0.01938684403043399</heading>
				<tilt>0</tilt>
				<range>122.4911953207837</range>
				<gx:altitudeMode>relativeToSeaFloor</gx:altitudeMode>
			</LookAt>
			<styleUrl>#msn_placemark_square7</styleUrl>
			<Point>
				<gx:drawOrder>1</gx:drawOrder>
				<coordinates>-76.99026429764902,38.88923316797894,0</coordinates>
			</Point>
		</Placemark>
		<Placemark>
			<name>LPj</name>
			<LookAt>
				<longitude>-76.99041296889465</longitude>
				<latitude>38.89688979588094</latitude>
				<altitude>0</altitude>
				<heading>0.03158937361625713</heading>
				<tilt>0</tilt>
				<range>254.2424906608779</range>
				<gx:altitudeMode>relativeToSeaFloor</gx:altitudeMode>
			</LookAt>
			<styleUrl>#msn_placemark_square7</styleUrl>
			<Point>
				<gx:drawOrder>1</gx:drawOrder>
				<coordinates>-76.99025770441209,38.89731318550335,0</coordinates>
			</Point>
		</Placemark>
		<Placemark>
			<name>LPh</name>
			<LookAt>
				<longitude>-77.00574366039257</longitude>
				<latitude>38.88333961955934</latitude>
				<altitude>0</altitude>
				<heading>0.02196785073146312</heading>
				<tilt>0</tilt>
				<range>177.6187866160399</range>
				<gx:altitudeMode>relativeToSeaFloor</gx:altitudeMode>
			</LookAt>
			<styleUrl>#msn_placemark_square7</styleUrl>
			<Point>
				<gx:drawOrder>1</gx:drawOrder>
				<coordinates>-77.00590246272063,38.88323668641331,0</coordinates>
			</Point>
		</Placemark>
		<Placemark>
			<name>LPf</name>
			<LookAt>
				<longitude>-76.99061444474543</longitude>
				<latitude>38.87769425144292</latitude>
				<altitude>0</altitude>
				<heading>-0.1329694845760788</heading>
				<tilt>14.8677275288377</tilt>
				<range>372.4841498955762</range>
				<gx:altitudeMode>relativeToSeaFloor</gx:altitudeMode>
			</LookAt>
			<styleUrl>#msn_placemark_square7</styleUrl>
			<Point>
				<gx:drawOrder>1</gx:drawOrder>
				<coordinates>-76.99027010704363,38.87840215042549,0</coordinates>
			</Point>
		</Placemark>
		<Placemark>
			<name>LPc</name>
			<LookAt>
				<longitude>-76.97841973258348</longitude>
				<latitude>38.89308491772684</latitude>
				<altitude>0</altitude>
				<heading>0.02668505997265561</heading>
				<tilt>0</tilt>
				<range>453.2823592584924</range>
				<gx:altitudeMode>relativeToSeaFloor</gx:altitudeMode>
			</LookAt>
			<styleUrl>#msn_placemark_square7</styleUrl>
			<Point>
				<gx:drawOrder>1</gx:drawOrder>
				<coordinates>-76.97726541931276,38.89330429505766,0</coordinates>
			</Point>
		</Placemark>
		<Placemark>
			<name>LPb</name>
			<LookAt>
				<longitude>-76.98065179056556</longitude>
				<latitude>38.89336503321223</latitude>
				<altitude>0</altitude>
				<heading>0.02528360620350354</heading>
				<tilt>0</tilt>
				<range>493.9381079610455</range>
				<gx:altitudeMode>relativeToSeaFloor</gx:altitudeMode>
			</LookAt>
			<styleUrl>#msn_placemark_square7</styleUrl>
			<Point>
				<gx:drawOrder>1</gx:drawOrder>
				<coordinates>-76.98076554831526,38.89331300365942,0</coordinates>
			</Point>
		</Placemark>
		<Placemark>
			<name>Corner001</name>
			<LookAt>
				<longitude>-77.00054161177812</longitude>
				<latitude>38.89401254173959</latitude>
				<altitude>0</altitude>
				<heading>0.0127888369357295</heading>
				<tilt>0</tilt>
				<range>77.0371441825731</range>
				<gx:altitudeMode>relativeToSeaFloor</gx:altitudeMode>
			</LookAt>
			<styleUrl>#msn_placemark_square7</styleUrl>
			<Point>
				<gx:drawOrder>1</gx:drawOrder>
				<coordinates>-77.00060732167846,38.89409782241215,0</coordinates>
			</Point>
		</Placemark>
		<Placemark>
			<name>Corner002</name>
			<LookAt>
				<longitude>-77.00077721582846</longitude>
				<latitude>38.89317987416024</latitude>
				<altitude>0</altitude>
				<heading>0.01264092118709109</heading>
				<tilt>0</tilt>
				<range>221.5016083129389</range>
				<gx:altitudeMode>relativeToSeaFloor</gx:altitudeMode>
			</LookAt>
			<styleUrl>#msn_placemark_square7</styleUrl>
			<Point>
				<gx:drawOrder>1</gx:drawOrder>
				<coordinates>-77.00059123580992,38.89310745822788,0</coordinates>
			</Point>
		</Placemark>
		<Placemark>
			<name>Corner003</name>
			<LookAt>
				<longitude>-76.9990534997646</longitude>
				<latitude>38.89386153306609</latitude>
				<altitude>0</altitude>
				<heading>0.01372319826688671</heading>
				<tilt>0</tilt>
				<range>141.3908780602752</range>
				<gx:altitudeMode>relativeToSeaFloor</gx:altitudeMode>
			</LookAt>
			<styleUrl>#msn_placemark_square7</styleUrl>
			<Point>
				<gx:drawOrder>1</gx:drawOrder>
				<coordinates>-76.99846743761528,38.89407456052869,0</coordinates>
			</Point>
		</Placemark>
		<Placemark>
			<name>Corner004</name>
			<LookAt>
				<longitude>-76.9989505081525</longitude>
				<latitude>38.89336984448327</latitude>
				<altitude>0</altitude>
				<heading>0.01378786362180513</heading>
				<tilt>0</tilt>
				<range>134.6818637572051</range>
				<gx:altitudeMode>relativeToSeaFloor</gx:altitudeMode>
			</LookAt>
			<styleUrl>#msn_placemark_square7</styleUrl>
			<Point>
				<gx:drawOrder>1</gx:drawOrder>
				<coordinates>-76.99846720473887,38.89307728378991,0</coordinates>
			</Point>
		</Placemark>
		<Placemark>
			<name>Corner005</name>
			<LookAt>
				<longitude>-77.02143404792662</longitude>
				<latitude>38.90249014996714</latitude>
				<altitude>0</altitude>
				<heading>-0.0003286923603000227</heading>
				<tilt>0</tilt>
				<range>397.2088732605454</range>
				<gx:altitudeMode>relativeToSeaFloor</gx:altitudeMode>
			</LookAt>
			<styleUrl>#msn_placemark_square7</styleUrl>
			<Point>
				<gx:drawOrder>1</gx:drawOrder>
				<coordinates>-77.02194518967288,38.90213004854986,0</coordinates>
			</Point>
		</Placemark>
		<Placemark>
			<name>Corner006</name>
			<LookAt>
				<longitude>-77.00586992938307</longitude>
				<latitude>38.89182112331527</latitude>
				<altitude>0</altitude>
				<heading>0.009443140828905273</heading>
				<tilt>0</tilt>
				<range>185.7891496583413</range>
				<gx:altitudeMode>relativeToSeaFloor</gx:altitudeMode>
			</LookAt>
			<styleUrl>#msn_placemark_square7</styleUrl>
			<Point>
				<gx:drawOrder>1</gx:drawOrder>
				<coordinates>-77.00589253693444,38.89200522517135,0</coordinates>
			</Point>
		</Placemark>
		<Placemark>
			<name>Corner030</name>
			<LookAt>
				<longitude>-77.03820813714285</longitude>
				<latitude>38.90798586606174</latitude>
				<altitude>0</altitude>
				<heading>0.001561074468781606</heading>
				<tilt>0</tilt>
				<range>222.8756148908671</range>
				<gx:altitudeMode>relativeToSeaFloor</gx:altitudeMode>
			</LookAt>
			<styleUrl>#msn_placemark_square7</styleUrl>
			<Point>
				<gx:drawOrder>1</gx:drawOrder>
				<coordinates>-77.03851006450998,38.90791303920879,0</coordinates>
			</Point>
		</Placemark>
		<Placemark>
			<name>Corner031</name>
			<LookAt>
				<longitude>-77.02366122302298</longitude>
				<latitude>38.90311256415463</latitude>
				<altitude>0</altitude>
				<heading>-0.001728811006087756</heading>
				<tilt>0</tilt>
				<range>177.180941656298</range>
				<gx:altitudeMode>relativeToSeaFloor</gx:altitudeMode>
			</LookAt>
			<styleUrl>#msn_placemark_square7</styleUrl>
			<Point>
				<gx:drawOrder>1</gx:drawOrder>
				<coordinates>-77.02400202595585,38.90295006083038,0</coordinates>
			</Point>
		</Placemark>
		<Placemark>
			<name>Corner032</name>
			<LookAt>
				<longitude>-77.03354705352814</longitude>
				<latitude>38.89882295634693</latitude>
				<altitude>0</altitude>
				<heading>-0.007935939977010687</heading>
				<tilt>0</tilt>
				<range>220.6226383101301</range>
				<gx:altitudeMode>relativeToSeaFloor</gx:altitudeMode>
			</LookAt>
			<styleUrl>#msn_placemark_square7</styleUrl>
			<Point>
				<gx:drawOrder>1</gx:drawOrder>
				<coordinates>-77.0336456705604,38.8988322484627,0</coordinates>
			</Point>
		</Placemark>
		<Placemark>
			<name>Corner033</name>
			<LookAt>
				<longitude>-77.02278011751206</longitude>
				<latitude>38.90329770015408</latitude>
				<altitude>0</altitude>
				<heading>-0.001175472463889161</heading>
				<tilt>0</tilt>
				<range>202.6671638841893</range>
				<gx:altitudeMode>relativeToSeaFloor</gx:altitudeMode>
			</LookAt>
			<styleUrl>#msn_placemark_square7</styleUrl>
			<Point>
				<gx:drawOrder>1</gx:drawOrder>
				<coordinates>-77.02192906423633,38.90294520057011,0</coordinates>
			</Point>
		</Placemark>
		<Placemark>
			<name>Corner034</name>
			<LookAt>
				<longitude>-77.03565140883833</longitude>
				<latitude>38.89661957247412</latitude>
				<altitude>0</altitude>
				<heading>-0.009257498588245774</heading>
				<tilt>0</tilt>
				<range>149.2511550312475</range>
				<gx:altitudeMode>relativeToSeaFloor</gx:altitudeMode>
			</LookAt>
			<styleUrl>#msn_placemark_square7</styleUrl>
			<Point>
				<gx:drawOrder>1</gx:drawOrder>
				<coordinates>-77.03509543832921,38.89640409407185,0</coordinates>
			</Point>
		</Placemark>
		<Placemark>
			<name>Corner035</name>
			<LookAt>
				<longitude>-77.00030979832215</longitude>
				<latitude>38.8860483163673</latitude>
				<altitude>0</altitude>
				<heading>0.01294263056757962</heading>
				<tilt>0</tilt>
				<range>258.0114090069497</range>
				<gx:altitudeMode>relativeToSeaFloor</gx:altitudeMode>
			</LookAt>
			<styleUrl>#msn_placemark_square7</styleUrl>
			<Point>
				<gx:drawOrder>1</gx:drawOrder>
				<coordinates>-77.00058219964971,38.88654609360574,0</coordinates>
			</Point>
		</Placemark>
		<Placemark>
			<name>Corner036</name>
			<LookAt>
				<longitude>-76.9987869919937</longitude>
				<latitude>38.88576055758055</latitude>
				<altitude>0</altitude>
				<heading>0.01389859337904987</heading>
				<tilt>0</tilt>
				<range>369.9604960241301</range>
				<gx:altitudeMode>relativeToSeaFloor</gx:altitudeMode>
			</LookAt>
			<styleUrl>#msn_placemark_square7</styleUrl>
			<Point>
				<gx:drawOrder>1</gx:drawOrder>
				<coordinates>-76.99846108479001,38.88652878597046,0</coordinates>
			</Point>
		</Placemark>
		<Placemark>
			<name>Corner037</name>
			<LookAt>
				<longitude>-77.00068209876579</longitude>
				<latitude>38.88577091069842</latitude>
				<altitude>0</altitude>
				<heading>0.01270890878384729</heading>
				<tilt>0</tilt>
				<range>209.7658360599956</range>
				<gx:altitudeMode>relativeToSeaFloor</gx:altitudeMode>
			</LookAt>
			<styleUrl>#msn_placemark_square7</styleUrl>
			<Point>
				<gx:drawOrder>1</gx:drawOrder>
				<coordinates>-77.00058273841211,38.88553871220947,0</coordinates>
			</Point>
		</Placemark>
		<Placemark>
			<name>Corner038</name>
			<LookAt>
				<longitude>-76.9987386348859</longitude>
				<latitude>38.88560040814578</latitude>
				<altitude>0</altitude>
				<heading>0.01392895045023989</heading>
				<tilt>0</tilt>
				<range>149.5329488179432</range>
				<gx:altitudeMode>relativeToSeaFloor</gx:altitudeMode>
			</LookAt>
			<styleUrl>#msn_placemark_square7</styleUrl>
			<Point>
				<gx:drawOrder>1</gx:drawOrder>
				<coordinates>-76.99848350044182,38.88552942588917,0</coordinates>
			</Point>
		</Placemark>
		<Placemark>
			<name>Corner0039</name>
			<open>1</open>
			<LookAt>
				<longitude>-77.00557362347267</longitude>
				<latitude>38.88820627874773</latitude>
				<altitude>0</altitude>
				<heading>-0.1418369182690417</heading>
				<tilt>14.86763883045328</tilt>
				<range>245.7152778582052</range>
				<gx:altitudeMode>relativeToSeaFloor</gx:altitudeMode>
			</LookAt>
			<styleUrl>#msn_placemark_square0</styleUrl>
			<Point>
				<gx:drawOrder>1</gx:drawOrder>
				<coordinates>-77.00595013324998,38.88760736348051,0</coordinates>
			</Point>
		</Placemark>
		<Placemark>
			<name>Corner0040</name>
			<open>1</open>
			<LookAt>
				<longitude>-77.01085849955258</longitude>
				<latitude>38.89163261261718</latitude>
				<altitude>0</altitude>
				<heading>-0.1451551801292049</heading>
				<tilt>14.86801535852935</tilt>
				<range>409.0694922407619</range>
				<gx:altitudeMode>relativeToSeaFloor</gx:altitudeMode>
			</LookAt>
			<styleUrl>#msn_placemark_square0</styleUrl>
			<Point>
				<gx:drawOrder>1</gx:drawOrder>
				<coordinates>-77.01218363619725,38.89206306055534,0</coordinates>
			</Point>
		</Placemark>
		<Placemark>
			<name>Corner0041</name>
			<open>1</open>
			<LookAt>
				<longitude>-77.01102153209899</longitude>
				<latitude>38.88831754563219</latitude>
				<altitude>0</altitude>
				<heading>0.00620945557875368</heading>
				<tilt>0</tilt>
				<range>355.2794392662303</range>
				<gx:altitudeMode>relativeToSeaFloor</gx:altitudeMode>
			</LookAt>
			<styleUrl>#msn_placemark_square0</styleUrl>
			<Point>
				<gx:drawOrder>1</gx:drawOrder>
				<coordinates>-77.01218602826414,38.88756110809855,0</coordinates>
			</Point>
		</Placemark>
		<Placemark>
			<name>Corner0042</name>
			<open>1</open>
			<LookAt>
				<longitude>-77.00302813226914</longitude>
				<latitude>38.88797602519647</latitude>
				<altitude>0</altitude>
				<heading>0.01122815577514662</heading>
				<tilt>0</tilt>
				<range>272.3703256795011</range>
				<gx:altitudeMode>relativeToSeaFloor</gx:altitudeMode>
			</LookAt>
			<styleUrl>#msn_placemark_square0</styleUrl>
			<Point>
				<gx:drawOrder>1</gx:drawOrder>
				<coordinates>-77.00355201883274,38.88760859046827,0</coordinates>
			</Point>
		</Placemark>
		<atom:link rel="app" href="https://www.google.com/earth/about/versions/#earth-pro" title="Google Earth Pro 7.3.6.10201"></atom:link>
	</Folder>
</Document>
</kml>
