<?xml version="1.0" encoding="UTF-8"?>
<kml xmlns="http://www.opengis.net/kml/2.2" xmlns:gx="http://www.google.com/kml/ext/2.2" xmlns:kml="http://www.opengis.net/kml/2.2" xmlns:atom="http://www.w3.org/2005/Atom">
<Document>
	<name>Xion_Center.kml</name>
	<StyleMap id="msn_placemark_circle1320">
		<Pair>
			<key>normal</key>
			<styleUrl>#sn_placemark_circle1042</styleUrl>
		</Pair>
		<Pair>
			<key>highlight</key>
			<styleUrl>#sh_placemark_circle_highlight15620</styleUrl>
		</Pair>
	</StyleMap>
	<Style id="sh_placemark_circle_highlight15620">
		<IconStyle>
			<color>a600ffff</color>
			<scale>0.4</scale>
			<Icon>
				<href>http://maps.google.com/mapfiles/kml/shapes/polygon.png</href>
			</Icon>
		</IconStyle>
		<LabelStyle>
			<color>99ffffff</color>
			<scale>0.5</scale>
		</LabelStyle>
		<LineStyle>
			<color>ffffaad2</color>
			<width>0.5</width>
		</LineStyle>
		<PolyStyle>
			<color>ffffaad2</color>
		</PolyStyle>
	</Style>
	<Style id="sn_placemark_circle1042">
		<IconStyle>
			<color>a600ffff</color>
			<scale>0.4</scale>
			<Icon>
				<href>http://maps.google.com/mapfiles/kml/shapes/polygon.png</href>
			</Icon>
		</IconStyle>
		<LabelStyle>
			<color>99ffffff</color>
			<scale>0.5</scale>
		</LabelStyle>
		<LineStyle>
			<color>ffffaad2</color>
			<width>0.5</width>
		</LineStyle>
		<PolyStyle>
			<color>ffffaad2</color>
		</PolyStyle>
	</Style>
	<Folder>
		<name>Xion_Center</name>
		<visibility>0</visibility>
		<Placemark>
			<name>Intsct005</name>
			<visibility>0</visibility>
			<LookAt>
				<longitude>-77.01693523065049</longitude>
				<latitude>38.91105541585161</latitude>
				<altitude>0</altitude>
				<heading>0.002356197952692487</heading>
				<tilt>0</tilt>
				<range>1841.90953469577</range>
				<gx:altitudeMode>relativeToSeaFloor</gx:altitudeMode>
			</LookAt>
			<styleUrl>#msn_placemark_circle1320</styleUrl>
			<Point>
				<gx:drawOrder>1</gx:drawOrder>
				<coordinates>-77.01770865052809,38.9141232636027,0</coordinates>
			</Point>
		</Placemark>
		<Placemark>
			<name>Intsct006</name>
			<visibility>0</visibility>
			<LookAt>
				<longitude>-77.0411608945161</longitude>
				<latitude>38.91349606948864</latitude>
				<altitude>0</altitude>
				<heading>-0.01283789370620098</heading>
				<tilt>0</tilt>
				<range>1558.331665923884</range>
				<gx:altitudeMode>relativeToSeaFloor</gx:altitudeMode>
			</LookAt>
			<styleUrl>#msn_placemark_circle1320</styleUrl>
			<Point>
				<gx:drawOrder>1</gx:drawOrder>
				<coordinates>-77.04620702352959,38.91433287563066,0</coordinates>
			</Point>
		</Placemark>
		<Placemark>
			<name>Intsct007</name>
			<visibility>0</visibility>
			<LookAt>
				<longitude>-77.04886142489509</longitude>
				<latitude>38.91136702846659</latitude>
				<altitude>0</altitude>
				<heading>-0.01769339265125373</heading>
				<tilt>0</tilt>
				<range>739.3087464189913</range>
				<gx:altitudeMode>relativeToSeaFloor</gx:altitudeMode>
			</LookAt>
			<styleUrl>#msn_placemark_circle1320</styleUrl>
			<Point>
				<gx:drawOrder>1</gx:drawOrder>
				<coordinates>-77.05068462541493,38.91214592234368,0</coordinates>
			</Point>
		</Placemark>
		<Placemark>
			<name>Intsct008</name>
			<visibility>0</visibility>
			<LookAt>
				<longitude>-77.04928837439259</longitude>
				<latitude>38.9035865551196</latitude>
				<altitude>0</altitude>
				<heading>-0.01796118641433139</heading>
				<tilt>0</tilt>
				<range>471.9971500231773</range>
				<gx:altitudeMode>relativeToSeaFloor</gx:altitudeMode>
			</LookAt>
			<styleUrl>#msn_placemark_circle1320</styleUrl>
			<Point>
				<gx:drawOrder>1</gx:drawOrder>
				<coordinates>-77.05013189771242,38.90252157183857,0</coordinates>
			</Point>
		</Placemark>
		<Placemark>
			<name>Intsct009</name>
			<visibility>0</visibility>
			<LookAt>
				<longitude>-77.04414104151931</longitude>
				<latitude>38.90901746043443</latitude>
				<altitude>0</altitude>
				<heading>-0.0147286078565961</heading>
				<tilt>0</tilt>
				<range>882.9803587597979</range>
				<gx:altitudeMode>relativeToSeaFloor</gx:altitudeMode>
			</LookAt>
			<styleUrl>#msn_placemark_circle1320</styleUrl>
			<Point>
				<gx:drawOrder>1</gx:drawOrder>
				<coordinates>-77.04345942253296,38.90964122798432,0</coordinates>
			</Point>
		</Placemark>
		<Placemark>
			<name>Intsct010</name>
			<visibility>0</visibility>
			<LookAt>
				<longitude>-77.03651621621127</longitude>
				<latitude>38.89865209193258</latitude>
				<altitude>0</altitude>
				<heading>-0.00993814937381826</heading>
				<tilt>0</tilt>
				<range>139.6073395455507</range>
				<gx:altitudeMode>relativeToSeaFloor</gx:altitudeMode>
			</LookAt>
			<styleUrl>#msn_placemark_circle1320</styleUrl>
			<Point>
				<gx:drawOrder>1</gx:drawOrder>
				<coordinates>-77.03657097283033,38.89828563763562,0</coordinates>
			</Point>
		</Placemark>
		<Placemark>
			<name>Intsct011</name>
			<visibility>0</visibility>
			<LookAt>
				<longitude>-77.03428442710702</longitude>
				<latitude>38.91952230514288</latitude>
				<altitude>0</altitude>
				<heading>-0.008541044557152794</heading>
				<tilt>0</tilt>
				<range>368.3128533471936</range>
				<gx:altitudeMode>relativeToSeaFloor</gx:altitudeMode>
			</LookAt>
			<styleUrl>#msn_placemark_circle1320</styleUrl>
			<Point>
				<gx:drawOrder>1</gx:drawOrder>
				<coordinates>-77.03460872018429,38.91914177446829,0</coordinates>
			</Point>
		</Placemark>
		<Placemark>
			<name>Intsct012</name>
			<visibility>0</visibility>
			<LookAt>
				<longitude>-77.0365128710098</longitude>
				<latitude>38.90773342613412</latitude>
				<altitude>0</altitude>
				<heading>-0.009937356300987334</heading>
				<tilt>0</tilt>
				<range>450.5202921932534</range>
				<gx:altitudeMode>relativeToSeaFloor</gx:altitudeMode>
			</LookAt>
			<styleUrl>#msn_placemark_circle1320</styleUrl>
			<Point>
				<gx:drawOrder>1</gx:drawOrder>
				<coordinates>-77.03653717204568,38.90723476009851,0</coordinates>
			</Point>
		</Placemark>
		<Placemark>
			<name>Intsct013</name>
			<visibility>0</visibility>
			<LookAt>
				<longitude>-77.02892009177438</longitude>
				<latitude>38.90846846739001</latitude>
				<altitude>0</altitude>
				<heading>-0.005166598087071913</heading>
				<tilt>0</tilt>
				<range>514.4267429734073</range>
				<gx:altitudeMode>relativeToSeaFloor</gx:altitudeMode>
			</LookAt>
			<styleUrl>#msn_placemark_circle1320</styleUrl>
			<Point>
				<gx:drawOrder>1</gx:drawOrder>
				<coordinates>-77.02962409767211,38.90963432958821,0</coordinates>
			</Point>
		</Placemark>
		<Placemark>
			<name>Intsct014</name>
			<visibility>0</visibility>
			<LookAt>
				<longitude>-77.03184836970844</longitude>
				<latitude>38.906394377704</latitude>
				<altitude>0</altitude>
				<heading>-0.007005763925216083</heading>
				<tilt>0</tilt>
				<range>390.7980475662044</range>
				<gx:altitudeMode>relativeToSeaFloor</gx:altitudeMode>
			</LookAt>
			<styleUrl>#msn_placemark_circle1320</styleUrl>
			<Point>
				<gx:drawOrder>1</gx:drawOrder>
				<coordinates>-77.03197530601018,38.90564871624386,0</coordinates>
			</Point>
		</Placemark>
		<Placemark>
			<name>Intsct015</name>
			<visibility>0</visibility>
			<LookAt>
				<longitude>-77.04138687039114</longitude>
				<latitude>38.92187917313969</latitude>
				<altitude>0</altitude>
				<heading>-0.01300127590681159</heading>
				<tilt>0</tilt>
				<range>396.7652775473794</range>
				<gx:altitudeMode>relativeToSeaFloor</gx:altitudeMode>
			</LookAt>
			<styleUrl>#msn_placemark_circle1320</styleUrl>
			<Point>
				<gx:drawOrder>1</gx:drawOrder>
				<coordinates>-77.04269348864223,38.92270707513952,0</coordinates>
			</Point>
		</Placemark>
		<Placemark>
			<name>Intsct016</name>
			<visibility>0</visibility>
			<LookAt>
				<longitude>-77.04282317034772</longitude>
				<latitude>38.91787604742556</latitude>
				<altitude>0</altitude>
				<heading>-0.01390294124091353</heading>
				<tilt>0</tilt>
				<range>570.8101758327851</range>
				<gx:altitudeMode>relativeToSeaFloor</gx:altitudeMode>
			</LookAt>
			<styleUrl>#msn_placemark_circle1320</styleUrl>
			<Point>
				<gx:drawOrder>1</gx:drawOrder>
				<coordinates>-77.0448188981081,38.91909113698802,0</coordinates>
			</Point>
		</Placemark>
		<Placemark>
			<name>Intsct019</name>
			<visibility>0</visibility>
			<LookAt>
				<longitude>-77.04661208857516</longitude>
				<latitude>38.92008392010536</latitude>
				<altitude>0</altitude>
				<heading>-0.01628034725408043</heading>
				<tilt>0</tilt>
				<range>348.2539396431127</range>
				<gx:altitudeMode>relativeToSeaFloor</gx:altitudeMode>
			</LookAt>
			<styleUrl>#msn_placemark_circle1320</styleUrl>
			<Point>
				<gx:drawOrder>1</gx:drawOrder>
				<coordinates>-77.0469052896632,38.92052920174116,0</coordinates>
			</Point>
		</Placemark>
		<Placemark>
			<name>Intsct020</name>
			<visibility>0</visibility>
			<LookAt>
				<longitude>-77.04595348116112</longitude>
				<latitude>38.91664303510822</latitude>
				<altitude>0</altitude>
				<heading>-0.01586608914353613</heading>
				<tilt>0</tilt>
				<range>421.3102534685805</range>
				<gx:altitudeMode>relativeToSeaFloor</gx:altitudeMode>
			</LookAt>
			<styleUrl>#msn_placemark_circle1320</styleUrl>
			<Point>
				<gx:drawOrder>1</gx:drawOrder>
				<coordinates>-77.0464033512485,38.91627565832813,0</coordinates>
			</Point>
		</Placemark>
		<Placemark>
			<name>Intsct074</name>
			<visibility>0</visibility>
			<LookAt>
				<longitude>-77.00979200165678</longitude>
				<latitude>38.89989717021994</latitude>
				<altitude>0</altitude>
				<heading>0.006848244827437898</heading>
				<tilt>0</tilt>
				<range>1583.572263457207</range>
				<gx:altitudeMode>relativeToSeaFloor</gx:altitudeMode>
			</LookAt>
			<styleUrl>#msn_placemark_circle1320</styleUrl>
			<Point>
				<gx:drawOrder>1</gx:drawOrder>
				<coordinates>-77.01235282769433,38.89878546878008,0</coordinates>
			</Point>
		</Placemark>
		<Placemark>
			<name>Intsct075</name>
			<visibility>0</visibility>
			<LookAt>
				<longitude>-77.00743563432628</longitude>
				<latitude>38.90998911733739</latitude>
				<altitude>0</altitude>
				<heading>0.008312223358952492</heading>
				<tilt>0</tilt>
				<range>1142.614909363527</range>
				<gx:altitudeMode>relativeToSeaFloor</gx:altitudeMode>
			</LookAt>
			<styleUrl>#msn_placemark_circle1320</styleUrl>
			<Point>
				<gx:drawOrder>1</gx:drawOrder>
				<coordinates>-77.00910409527349,38.91083809419791,0</coordinates>
			</Point>
		</Placemark>
		<Placemark>
			<name>Intsct078</name>
			<visibility>0</visibility>
			<LookAt>
				<longitude>-77.01220283308317</longitude>
				<latitude>38.89533992541264</latitude>
				<altitude>0</altitude>
				<heading>0.005315136562151246</heading>
				<tilt>0</tilt>
				<range>4405.195343303359</range>
				<gx:altitudeMode>relativeToSeaFloor</gx:altitudeMode>
			</LookAt>
			<styleUrl>#msn_placemark_circle1320</styleUrl>
			<Point>
				<gx:drawOrder>1</gx:drawOrder>
				<coordinates>-77.02297408574574,38.90261744671308,0</coordinates>
			</Point>
		</Placemark>
		<Placemark>
			<name>Intsct079</name>
			<visibility>0</visibility>
			<LookAt>
				<longitude>-77.02086396319493</longitude>
				<latitude>38.8962415090258</latitude>
				<altitude>0</altitude>
				<heading>-0.0001251500227725022</heading>
				<tilt>0</tilt>
				<range>1728.132275094673</range>
				<gx:altitudeMode>relativeToSeaFloor</gx:altitudeMode>
			</LookAt>
			<styleUrl>#msn_placemark_circle1320</styleUrl>
			<Point>
				<gx:drawOrder>1</gx:drawOrder>
				<coordinates>-77.02295020167529,38.89363293216059,0</coordinates>
			</Point>
		</Placemark>
		<Placemark>
			<name>Intsct080</name>
			<visibility>0</visibility>
			<LookAt>
				<longitude>-77.04332898681113</longitude>
				<latitude>38.89541442123066</latitude>
				<altitude>0</altitude>
				<heading>-0.0142182851953147</heading>
				<tilt>0</tilt>
				<range>4404.312904657409</range>
				<gx:altitudeMode>relativeToSeaFloor</gx:altitudeMode>
			</LookAt>
			<styleUrl>#msn_placemark_circle1320</styleUrl>
			<Point>
				<gx:drawOrder>1</gx:drawOrder>
				<coordinates>-77.05360031341959,38.89898261126365,0</coordinates>
			</Point>
		</Placemark>
		<Placemark>
			<name>Intsct090</name>
			<visibility>0</visibility>
			<LookAt>
				<longitude>-77.01461099596169</longitude>
				<latitude>38.89114360742695</latitude>
				<altitude>0</altitude>
				<heading>0.00377604303746315</heading>
				<tilt>0</tilt>
				<range>515.7671430302139</range>
				<gx:altitudeMode>relativeToSeaFloor</gx:altitudeMode>
			</LookAt>
			<styleUrl>#msn_placemark_circle1320</styleUrl>
			<Point>
				<gx:drawOrder>1</gx:drawOrder>
				<coordinates>-77.01233780635461,38.89064033307322,0</coordinates>
			</Point>
		</Placemark>
		<Placemark>
			<name>Intsct091</name>
			<visibility>0</visibility>
			<LookAt>
				<longitude>-77.03557084158666</longitude>
				<latitude>38.91584435853698</latitude>
				<altitude>0</altitude>
				<heading>-0.009376096199393589</heading>
				<tilt>0</tilt>
				<range>2001.22724207025</range>
				<gx:altitudeMode>relativeToSeaFloor</gx:altitudeMode>
			</LookAt>
			<styleUrl>#msn_placemark_circle1320</styleUrl>
			<Point>
				<gx:drawOrder>1</gx:drawOrder>
				<coordinates>-77.02450570244964,38.91839622446161,0</coordinates>
			</Point>
		</Placemark>
		<atom:link rel="app" href="https://www.google.com/earth/about/versions/#earth-pro" title="Google Earth Pro 7.3.6.10201"></atom:link>
	</Folder>
</Document>
</kml>
