<?xml version="1.0" encoding="UTF-8"?>
<kml xmlns="http://www.opengis.net/kml/2.2" xmlns:gx="http://www.google.com/kml/ext/2.2" xmlns:kml="http://www.opengis.net/kml/2.2" xmlns:atom="http://www.w3.org/2005/Atom">
<Document>
	<name>Xion_North.kml</name>
	<StyleMap id="msn_placemark_circle1310">
		<Pair>
			<key>normal</key>
			<styleUrl>#sn_placemark_circle1024</styleUrl>
		</Pair>
		<Pair>
			<key>highlight</key>
			<styleUrl>#sh_placemark_circle_highlight154</styleUrl>
		</Pair>
	</StyleMap>
	<StyleMap id="msn_placemark_circle1311">
		<Pair>
			<key>normal</key>
			<styleUrl>#sn_placemark_circle1011</styleUrl>
		</Pair>
		<Pair>
			<key>highlight</key>
			<styleUrl>#sh_placemark_circle_highlight157</styleUrl>
		</Pair>
	</StyleMap>
	<StyleMap id="msn_placemark_circle1314">
		<Pair>
			<key>normal</key>
			<styleUrl>#sn_placemark_circle1017</styleUrl>
		</Pair>
		<Pair>
			<key>highlight</key>
			<styleUrl>#sh_placemark_circle_highlight1518</styleUrl>
		</Pair>
	</StyleMap>
	<StyleMap id="msn_placemark_circle1315">
		<Pair>
			<key>normal</key>
			<styleUrl>#sn_placemark_circle105</styleUrl>
		</Pair>
		<Pair>
			<key>highlight</key>
			<styleUrl>#sh_placemark_circle_highlight1512</styleUrl>
		</Pair>
	</StyleMap>
	<StyleMap id="msn_placemark_circle1319">
		<Pair>
			<key>normal</key>
			<styleUrl>#sn_placemark_circle1010</styleUrl>
		</Pair>
		<Pair>
			<key>highlight</key>
			<styleUrl>#sh_placemark_circle_highlight151</styleUrl>
		</Pair>
	</StyleMap>
	<StyleMap id="msn_placemark_circle132">
		<Pair>
			<key>normal</key>
			<styleUrl>#sn_placemark_circle1043</styleUrl>
		</Pair>
		<Pair>
			<key>highlight</key>
			<styleUrl>#sh_placemark_circle_highlight1561</styleUrl>
		</Pair>
	</StyleMap>
	<StyleMap id="msn_placemark_circle13200">
		<Pair>
			<key>normal</key>
			<styleUrl>#sn_placemark_circle1015</styleUrl>
		</Pair>
		<Pair>
			<key>highlight</key>
			<styleUrl>#sh_placemark_circle_highlight1511</styleUrl>
		</Pair>
	</StyleMap>
	<StyleMap id="msn_placemark_circle13201">
		<Pair>
			<key>normal</key>
			<styleUrl>#sn_placemark_circle10420</styleUrl>
		</Pair>
		<Pair>
			<key>highlight</key>
			<styleUrl>#sh_placemark_circle_highlight1562</styleUrl>
		</Pair>
	</StyleMap>
	<StyleMap id="msn_placemark_circle1321">
		<Pair>
			<key>normal</key>
			<styleUrl>#sn_placemark_circle1044</styleUrl>
		</Pair>
		<Pair>
			<key>highlight</key>
			<styleUrl>#sh_placemark_circle_highlight1564</styleUrl>
		</Pair>
	</StyleMap>
	<StyleMap id="msn_placemark_circle1324">
		<Pair>
			<key>normal</key>
			<styleUrl>#sn_placemark_circle10231</styleUrl>
		</Pair>
		<Pair>
			<key>highlight</key>
			<styleUrl>#sh_placemark_circle_highlight1522</styleUrl>
		</Pair>
	</StyleMap>
	<StyleMap id="msn_placemark_circle13240">
		<Pair>
			<key>normal</key>
			<styleUrl>#sn_placemark_circle10232</styleUrl>
		</Pair>
		<Pair>
			<key>highlight</key>
			<styleUrl>#sh_placemark_circle_highlight15220</styleUrl>
		</Pair>
	</StyleMap>
	<StyleMap id="msn_placemark_circle13241">
		<Pair>
			<key>normal</key>
			<styleUrl>#sn_placemark_circle1023</styleUrl>
		</Pair>
		<Pair>
			<key>highlight</key>
			<styleUrl>#sh_placemark_circle_highlight15223</styleUrl>
		</Pair>
	</StyleMap>
	<StyleMap id="msn_placemark_circle13242">
		<Pair>
			<key>normal</key>
			<styleUrl>#sn_placemark_circle10233</styleUrl>
		</Pair>
		<Pair>
			<key>highlight</key>
			<styleUrl>#sh_placemark_circle_highlight15221</styleUrl>
		</Pair>
	</StyleMap>
	<StyleMap id="msn_placemark_circle13243">
		<Pair>
			<key>normal</key>
			<styleUrl>#sn_placemark_circle10230</styleUrl>
		</Pair>
		<Pair>
			<key>highlight</key>
			<styleUrl>#sh_placemark_circle_highlight15222</styleUrl>
		</Pair>
	</StyleMap>
	<StyleMap id="msn_placemark_circle1325">
		<Pair>
			<key>normal</key>
			<styleUrl>#sn_placemark_circle10</styleUrl>
		</Pair>
		<Pair>
			<key>highlight</key>
			<styleUrl>#sh_placemark_circle_highlight1519</styleUrl>
		</Pair>
	</StyleMap>
	<StyleMap id="msn_placemark_circle1326">
		<Pair>
			<key>normal</key>
			<styleUrl>#sn_placemark_circle1040</styleUrl>
		</Pair>
		<Pair>
			<key>highlight</key>
			<styleUrl>#sh_placemark_circle_highlight1566</styleUrl>
		</Pair>
	</StyleMap>
	<StyleMap id="msn_placemark_circle1327">
		<Pair>
			<key>normal</key>
			<styleUrl>#sn_placemark_circle104</styleUrl>
		</Pair>
		<Pair>
			<key>highlight</key>
			<styleUrl>#sh_placemark_circle_highlight1560</styleUrl>
		</Pair>
	</StyleMap>
	<StyleMap id="msn_placemark_circle1328">
		<Pair>
			<key>normal</key>
			<styleUrl>#sn_placemark_circle1046</styleUrl>
		</Pair>
		<Pair>
			<key>highlight</key>
			<styleUrl>#sh_placemark_circle_highlight1563</styleUrl>
		</Pair>
	</StyleMap>
	<StyleMap id="msn_placemark_circle134">
		<Pair>
			<key>normal</key>
			<styleUrl>#sn_placemark_circle109</styleUrl>
		</Pair>
		<Pair>
			<key>highlight</key>
			<styleUrl>#sh_placemark_circle_highlight1523</styleUrl>
		</Pair>
	</StyleMap>
	<StyleMap id="msn_placemark_circle135">
		<Pair>
			<key>normal</key>
			<styleUrl>#sn_placemark_circle100</styleUrl>
		</Pair>
		<Pair>
			<key>highlight</key>
			<styleUrl>#sh_placemark_circle_highlight1517</styleUrl>
		</Pair>
	</StyleMap>
	<StyleMap id="msn_placemark_circle137">
		<Pair>
			<key>normal</key>
			<styleUrl>#sn_placemark_circle1019</styleUrl>
		</Pair>
		<Pair>
			<key>highlight</key>
			<styleUrl>#sh_placemark_circle_highlight1514</styleUrl>
		</Pair>
	</StyleMap>
	<Style id="sh_placemark_circle_highlight151">
		<IconStyle>
			<color>a600ff00</color>
			<scale>0.4</scale>
			<Icon>
				<href>http://maps.google.com/mapfiles/kml/shapes/polygon.png</href>
			</Icon>
		</IconStyle>
		<LabelStyle>
			<color>99ffffff</color>
			<scale>0.5</scale>
		</LabelStyle>
		<LineStyle>
			<color>ffffaad2</color>
			<width>0.5</width>
		</LineStyle>
		<PolyStyle>
			<color>ffffaad2</color>
		</PolyStyle>
	</Style>
	<Style id="sh_placemark_circle_highlight1511">
		<IconStyle>
			<color>a600ff00</color>
			<scale>0.4</scale>
			<Icon>
				<href>http://maps.google.com/mapfiles/kml/shapes/polygon.png</href>
			</Icon>
		</IconStyle>
		<LabelStyle>
			<color>99ffffff</color>
			<scale>0.5</scale>
		</LabelStyle>
		<LineStyle>
			<color>ffffaad2</color>
			<width>0.5</width>
		</LineStyle>
		<PolyStyle>
			<color>ffffaad2</color>
		</PolyStyle>
	</Style>
	<Style id="sh_placemark_circle_highlight1512">
		<IconStyle>
			<color>a600ff00</color>
			<scale>0.4</scale>
			<Icon>
				<href>http://maps.google.com/mapfiles/kml/shapes/polygon.png</href>
			</Icon>
		</IconStyle>
		<LabelStyle>
			<color>99ffffff</color>
			<scale>0.5</scale>
		</LabelStyle>
		<LineStyle>
			<color>ffffaad2</color>
			<width>0.5</width>
		</LineStyle>
		<PolyStyle>
			<color>ffffaad2</color>
		</PolyStyle>
	</Style>
	<Style id="sh_placemark_circle_highlight1514">
		<IconStyle>
			<color>a600ff00</color>
			<scale>0.4</scale>
			<Icon>
				<href>http://maps.google.com/mapfiles/kml/shapes/polygon.png</href>
			</Icon>
		</IconStyle>
		<LabelStyle>
			<color>99ffffff</color>
			<scale>0.5</scale>
		</LabelStyle>
		<LineStyle>
			<color>ffffaad2</color>
			<width>0.5</width>
		</LineStyle>
		<PolyStyle>
			<color>ffffaad2</color>
		</PolyStyle>
	</Style>
	<Style id="sh_placemark_circle_highlight1517">
		<IconStyle>
			<color>a600ff00</color>
			<scale>0.4</scale>
			<Icon>
				<href>http://maps.google.com/mapfiles/kml/shapes/polygon.png</href>
			</Icon>
		</IconStyle>
		<LabelStyle>
			<color>99ffffff</color>
			<scale>0.5</scale>
		</LabelStyle>
		<LineStyle>
			<color>ffffaad2</color>
			<width>0.5</width>
		</LineStyle>
		<PolyStyle>
			<color>ffffaad2</color>
		</PolyStyle>
	</Style>
	<Style id="sh_placemark_circle_highlight1518">
		<IconStyle>
			<color>a600ff00</color>
			<scale>0.4</scale>
			<Icon>
				<href>http://maps.google.com/mapfiles/kml/shapes/polygon.png</href>
			</Icon>
		</IconStyle>
		<LabelStyle>
			<color>99ffffff</color>
			<scale>0.5</scale>
		</LabelStyle>
		<LineStyle>
			<color>ffffaad2</color>
			<width>0.5</width>
		</LineStyle>
		<PolyStyle>
			<color>ffffaad2</color>
		</PolyStyle>
	</Style>
	<Style id="sh_placemark_circle_highlight1519">
		<IconStyle>
			<color>a600ff00</color>
			<scale>0.4</scale>
			<Icon>
				<href>http://maps.google.com/mapfiles/kml/shapes/polygon.png</href>
			</Icon>
		</IconStyle>
		<LabelStyle>
			<color>99ffffff</color>
			<scale>0.5</scale>
		</LabelStyle>
		<LineStyle>
			<color>ffffaad2</color>
			<width>0.5</width>
		</LineStyle>
		<PolyStyle>
			<color>ffffaad2</color>
		</PolyStyle>
	</Style>
	<Style id="sh_placemark_circle_highlight1522">
		<IconStyle>
			<color>a600ff00</color>
			<scale>0.4</scale>
			<Icon>
				<href>http://maps.google.com/mapfiles/kml/shapes/polygon.png</href>
			</Icon>
		</IconStyle>
		<LabelStyle>
			<color>99ffffff</color>
			<scale>0.5</scale>
		</LabelStyle>
		<LineStyle>
			<color>ffffaad2</color>
			<width>0.5</width>
		</LineStyle>
		<PolyStyle>
			<color>ffffaad2</color>
		</PolyStyle>
	</Style>
	<Style id="sh_placemark_circle_highlight15220">
		<IconStyle>
			<color>a600ff00</color>
			<scale>0.4</scale>
			<Icon>
				<href>http://maps.google.com/mapfiles/kml/shapes/polygon.png</href>
			</Icon>
		</IconStyle>
		<LabelStyle>
			<color>99ffffff</color>
			<scale>0.5</scale>
		</LabelStyle>
		<LineStyle>
			<color>ffffaad2</color>
			<width>0.5</width>
		</LineStyle>
		<PolyStyle>
			<color>ffffaad2</color>
		</PolyStyle>
	</Style>
	<Style id="sh_placemark_circle_highlight15221">
		<IconStyle>
			<color>a600ff00</color>
			<scale>0.4</scale>
			<Icon>
				<href>http://maps.google.com/mapfiles/kml/shapes/polygon.png</href>
			</Icon>
		</IconStyle>
		<LabelStyle>
			<color>99ffffff</color>
			<scale>0.5</scale>
		</LabelStyle>
		<LineStyle>
			<color>ffffaad2</color>
			<width>0.5</width>
		</LineStyle>
		<PolyStyle>
			<color>ffffaad2</color>
		</PolyStyle>
	</Style>
	<Style id="sh_placemark_circle_highlight15222">
		<IconStyle>
			<color>a600ff00</color>
			<scale>0.4</scale>
			<Icon>
				<href>http://maps.google.com/mapfiles/kml/shapes/polygon.png</href>
			</Icon>
		</IconStyle>
		<LabelStyle>
			<color>99ffffff</color>
			<scale>0.5</scale>
		</LabelStyle>
		<LineStyle>
			<color>ffffaad2</color>
			<width>0.5</width>
		</LineStyle>
		<PolyStyle>
			<color>ffffaad2</color>
		</PolyStyle>
	</Style>
	<Style id="sh_placemark_circle_highlight15223">
		<IconStyle>
			<color>a600ff00</color>
			<scale>0.4</scale>
			<Icon>
				<href>http://maps.google.com/mapfiles/kml/shapes/polygon.png</href>
			</Icon>
		</IconStyle>
		<LabelStyle>
			<color>99ffffff</color>
			<scale>0.5</scale>
		</LabelStyle>
		<LineStyle>
			<color>ffffaad2</color>
			<width>0.5</width>
		</LineStyle>
		<PolyStyle>
			<color>ffffaad2</color>
		</PolyStyle>
	</Style>
	<Style id="sh_placemark_circle_highlight1523">
		<IconStyle>
			<color>a600ff00</color>
			<scale>0.4</scale>
			<Icon>
				<href>http://maps.google.com/mapfiles/kml/shapes/polygon.png</href>
			</Icon>
		</IconStyle>
		<LabelStyle>
			<color>99ffffff</color>
			<scale>0.5</scale>
		</LabelStyle>
		<LineStyle>
			<color>ffffaad2</color>
			<width>0.5</width>
		</LineStyle>
		<PolyStyle>
			<color>ffffaad2</color>
		</PolyStyle>
	</Style>
	<Style id="sh_placemark_circle_highlight154">
		<IconStyle>
			<color>a600ff00</color>
			<scale>0.4</scale>
			<Icon>
				<href>http://maps.google.com/mapfiles/kml/shapes/polygon.png</href>
			</Icon>
		</IconStyle>
		<LabelStyle>
			<color>99ffffff</color>
			<scale>0.5</scale>
		</LabelStyle>
		<LineStyle>
			<color>ffffaad2</color>
			<width>0.5</width>
		</LineStyle>
		<PolyStyle>
			<color>ffffaad2</color>
		</PolyStyle>
	</Style>
	<Style id="sh_placemark_circle_highlight1560">
		<IconStyle>
			<color>a600ff00</color>
			<scale>0.4</scale>
			<Icon>
				<href>http://maps.google.com/mapfiles/kml/shapes/polygon.png</href>
			</Icon>
		</IconStyle>
		<LabelStyle>
			<color>99ffffff</color>
			<scale>0.5</scale>
		</LabelStyle>
		<LineStyle>
			<color>ffffaad2</color>
			<width>0.5</width>
		</LineStyle>
		<PolyStyle>
			<color>ffffaad2</color>
		</PolyStyle>
	</Style>
	<Style id="sh_placemark_circle_highlight1561">
		<IconStyle>
			<color>a600ff00</color>
			<scale>0.4</scale>
			<Icon>
				<href>http://maps.google.com/mapfiles/kml/shapes/polygon.png</href>
			</Icon>
		</IconStyle>
		<LabelStyle>
			<color>99ffffff</color>
			<scale>0.5</scale>
		</LabelStyle>
		<LineStyle>
			<color>ffffaad2</color>
			<width>0.5</width>
		</LineStyle>
		<PolyStyle>
			<color>ffffaad2</color>
		</PolyStyle>
	</Style>
	<Style id="sh_placemark_circle_highlight1562">
		<IconStyle>
			<color>a600ff00</color>
			<scale>0.4</scale>
			<Icon>
				<href>http://maps.google.com/mapfiles/kml/shapes/polygon.png</href>
			</Icon>
		</IconStyle>
		<LabelStyle>
			<color>99ffffff</color>
			<scale>0.5</scale>
		</LabelStyle>
		<LineStyle>
			<color>ffffaad2</color>
			<width>0.5</width>
		</LineStyle>
		<PolyStyle>
			<color>ffffaad2</color>
		</PolyStyle>
	</Style>
	<Style id="sh_placemark_circle_highlight1563">
		<IconStyle>
			<color>a600ff00</color>
			<scale>0.4</scale>
			<Icon>
				<href>http://maps.google.com/mapfiles/kml/shapes/polygon.png</href>
			</Icon>
		</IconStyle>
		<LabelStyle>
			<color>99ffffff</color>
			<scale>0.5</scale>
		</LabelStyle>
		<LineStyle>
			<color>ffffaad2</color>
			<width>0.5</width>
		</LineStyle>
		<PolyStyle>
			<color>ffffaad2</color>
		</PolyStyle>
	</Style>
	<Style id="sh_placemark_circle_highlight1564">
		<IconStyle>
			<color>a600ff00</color>
			<scale>0.4</scale>
			<Icon>
				<href>http://maps.google.com/mapfiles/kml/shapes/polygon.png</href>
			</Icon>
		</IconStyle>
		<LabelStyle>
			<color>99ffffff</color>
			<scale>0.5</scale>
		</LabelStyle>
		<LineStyle>
			<color>ffffaad2</color>
			<width>0.5</width>
		</LineStyle>
		<PolyStyle>
			<color>ffffaad2</color>
		</PolyStyle>
	</Style>
	<Style id="sh_placemark_circle_highlight1566">
		<IconStyle>
			<color>a600ff00</color>
			<scale>0.4</scale>
			<Icon>
				<href>http://maps.google.com/mapfiles/kml/shapes/polygon.png</href>
			</Icon>
		</IconStyle>
		<LabelStyle>
			<color>99ffffff</color>
			<scale>0.5</scale>
		</LabelStyle>
		<LineStyle>
			<color>ffffaad2</color>
			<width>0.5</width>
		</LineStyle>
		<PolyStyle>
			<color>ffffaad2</color>
		</PolyStyle>
	</Style>
	<Style id="sh_placemark_circle_highlight157">
		<IconStyle>
			<color>a600ff00</color>
			<scale>0.4</scale>
			<Icon>
				<href>http://maps.google.com/mapfiles/kml/shapes/polygon.png</href>
			</Icon>
		</IconStyle>
		<LabelStyle>
			<color>99ffffff</color>
			<scale>0.5</scale>
		</LabelStyle>
		<LineStyle>
			<color>ffffaad2</color>
			<width>0.5</width>
		</LineStyle>
		<PolyStyle>
			<color>ffffaad2</color>
		</PolyStyle>
	</Style>
	<Style id="sn_placemark_circle10">
		<IconStyle>
			<color>a600ff00</color>
			<scale>0.4</scale>
			<Icon>
				<href>http://maps.google.com/mapfiles/kml/shapes/polygon.png</href>
			</Icon>
		</IconStyle>
		<LabelStyle>
			<color>99ffffff</color>
			<scale>0.5</scale>
		</LabelStyle>
		<LineStyle>
			<color>ffffaad2</color>
			<width>0.5</width>
		</LineStyle>
		<PolyStyle>
			<color>ffffaad2</color>
		</PolyStyle>
	</Style>
	<Style id="sn_placemark_circle100">
		<IconStyle>
			<color>a600ff00</color>
			<scale>0.4</scale>
			<Icon>
				<href>http://maps.google.com/mapfiles/kml/shapes/polygon.png</href>
			</Icon>
		</IconStyle>
		<LabelStyle>
			<color>99ffffff</color>
			<scale>0.5</scale>
		</LabelStyle>
		<LineStyle>
			<color>ffffaad2</color>
			<width>0.5</width>
		</LineStyle>
		<PolyStyle>
			<color>ffffaad2</color>
		</PolyStyle>
	</Style>
	<Style id="sn_placemark_circle1010">
		<IconStyle>
			<color>a600ff00</color>
			<scale>0.4</scale>
			<Icon>
				<href>http://maps.google.com/mapfiles/kml/shapes/polygon.png</href>
			</Icon>
		</IconStyle>
		<LabelStyle>
			<color>99ffffff</color>
			<scale>0.5</scale>
		</LabelStyle>
		<LineStyle>
			<color>ffffaad2</color>
			<width>0.5</width>
		</LineStyle>
		<PolyStyle>
			<color>ffffaad2</color>
		</PolyStyle>
	</Style>
	<Style id="sn_placemark_circle1011">
		<IconStyle>
			<color>a600ff00</color>
			<scale>0.4</scale>
			<Icon>
				<href>http://maps.google.com/mapfiles/kml/shapes/polygon.png</href>
			</Icon>
		</IconStyle>
		<LabelStyle>
			<color>99ffffff</color>
			<scale>0.5</scale>
		</LabelStyle>
		<LineStyle>
			<color>ffffaad2</color>
			<width>0.5</width>
		</LineStyle>
		<PolyStyle>
			<color>ffffaad2</color>
		</PolyStyle>
	</Style>
	<Style id="sn_placemark_circle1015">
		<IconStyle>
			<color>a600ff00</color>
			<scale>0.4</scale>
			<Icon>
				<href>http://maps.google.com/mapfiles/kml/shapes/polygon.png</href>
			</Icon>
		</IconStyle>
		<LabelStyle>
			<color>99ffffff</color>
			<scale>0.5</scale>
		</LabelStyle>
		<LineStyle>
			<color>ffffaad2</color>
			<width>0.5</width>
		</LineStyle>
		<PolyStyle>
			<color>ffffaad2</color>
		</PolyStyle>
	</Style>
	<Style id="sn_placemark_circle1017">
		<IconStyle>
			<color>a600ff00</color>
			<scale>0.4</scale>
			<Icon>
				<href>http://maps.google.com/mapfiles/kml/shapes/polygon.png</href>
			</Icon>
		</IconStyle>
		<LabelStyle>
			<color>99ffffff</color>
			<scale>0.5</scale>
		</LabelStyle>
		<LineStyle>
			<color>ffffaad2</color>
			<width>0.5</width>
		</LineStyle>
		<PolyStyle>
			<color>ffffaad2</color>
		</PolyStyle>
	</Style>
	<Style id="sn_placemark_circle1019">
		<IconStyle>
			<color>a600ff00</color>
			<scale>0.4</scale>
			<Icon>
				<href>http://maps.google.com/mapfiles/kml/shapes/polygon.png</href>
			</Icon>
		</IconStyle>
		<LabelStyle>
			<color>99ffffff</color>
			<scale>0.5</scale>
		</LabelStyle>
		<LineStyle>
			<color>ffffaad2</color>
			<width>0.5</width>
		</LineStyle>
		<PolyStyle>
			<color>ffffaad2</color>
		</PolyStyle>
	</Style>
	<Style id="sn_placemark_circle1023">
		<IconStyle>
			<color>a600ff00</color>
			<scale>0.4</scale>
			<Icon>
				<href>http://maps.google.com/mapfiles/kml/shapes/polygon.png</href>
			</Icon>
		</IconStyle>
		<LabelStyle>
			<color>99ffffff</color>
			<scale>0.5</scale>
		</LabelStyle>
		<LineStyle>
			<color>ffffaad2</color>
			<width>0.5</width>
		</LineStyle>
		<PolyStyle>
			<color>ffffaad2</color>
		</PolyStyle>
	</Style>
	<Style id="sn_placemark_circle10230">
		<IconStyle>
			<color>a600ff00</color>
			<scale>0.4</scale>
			<Icon>
				<href>http://maps.google.com/mapfiles/kml/shapes/polygon.png</href>
			</Icon>
		</IconStyle>
		<LabelStyle>
			<color>99ffffff</color>
			<scale>0.5</scale>
		</LabelStyle>
		<LineStyle>
			<color>ffffaad2</color>
			<width>0.5</width>
		</LineStyle>
		<PolyStyle>
			<color>ffffaad2</color>
		</PolyStyle>
	</Style>
	<Style id="sn_placemark_circle10231">
		<IconStyle>
			<color>a600ff00</color>
			<scale>0.4</scale>
			<Icon>
				<href>http://maps.google.com/mapfiles/kml/shapes/polygon.png</href>
			</Icon>
		</IconStyle>
		<LabelStyle>
			<color>99ffffff</color>
			<scale>0.5</scale>
		</LabelStyle>
		<LineStyle>
			<color>ffffaad2</color>
			<width>0.5</width>
		</LineStyle>
		<PolyStyle>
			<color>ffffaad2</color>
		</PolyStyle>
	</Style>
	<Style id="sn_placemark_circle10232">
		<IconStyle>
			<color>a600ff00</color>
			<scale>0.4</scale>
			<Icon>
				<href>http://maps.google.com/mapfiles/kml/shapes/polygon.png</href>
			</Icon>
		</IconStyle>
		<LabelStyle>
			<color>99ffffff</color>
			<scale>0.5</scale>
		</LabelStyle>
		<LineStyle>
			<color>ffffaad2</color>
			<width>0.5</width>
		</LineStyle>
		<PolyStyle>
			<color>ffffaad2</color>
		</PolyStyle>
	</Style>
	<Style id="sn_placemark_circle10233">
		<IconStyle>
			<color>a600ff00</color>
			<scale>0.4</scale>
			<Icon>
				<href>http://maps.google.com/mapfiles/kml/shapes/polygon.png</href>
			</Icon>
		</IconStyle>
		<LabelStyle>
			<color>99ffffff</color>
			<scale>0.5</scale>
		</LabelStyle>
		<LineStyle>
			<color>ffffaad2</color>
			<width>0.5</width>
		</LineStyle>
		<PolyStyle>
			<color>ffffaad2</color>
		</PolyStyle>
	</Style>
	<Style id="sn_placemark_circle1024">
		<IconStyle>
			<color>a600ff00</color>
			<scale>0.4</scale>
			<Icon>
				<href>http://maps.google.com/mapfiles/kml/shapes/polygon.png</href>
			</Icon>
		</IconStyle>
		<LabelStyle>
			<color>99ffffff</color>
			<scale>0.5</scale>
		</LabelStyle>
		<LineStyle>
			<color>ffffaad2</color>
			<width>0.5</width>
		</LineStyle>
		<PolyStyle>
			<color>ffffaad2</color>
		</PolyStyle>
	</Style>
	<Style id="sn_placemark_circle104">
		<IconStyle>
			<color>a600ff00</color>
			<scale>0.4</scale>
			<Icon>
				<href>http://maps.google.com/mapfiles/kml/shapes/polygon.png</href>
			</Icon>
		</IconStyle>
		<LabelStyle>
			<color>99ffffff</color>
			<scale>0.5</scale>
		</LabelStyle>
		<LineStyle>
			<color>ffffaad2</color>
			<width>0.5</width>
		</LineStyle>
		<PolyStyle>
			<color>ffffaad2</color>
		</PolyStyle>
	</Style>
	<Style id="sn_placemark_circle1040">
		<IconStyle>
			<color>a600ff00</color>
			<scale>0.4</scale>
			<Icon>
				<href>http://maps.google.com/mapfiles/kml/shapes/polygon.png</href>
			</Icon>
		</IconStyle>
		<LabelStyle>
			<color>99ffffff</color>
			<scale>0.5</scale>
		</LabelStyle>
		<LineStyle>
			<color>ffffaad2</color>
			<width>0.5</width>
		</LineStyle>
		<PolyStyle>
			<color>ffffaad2</color>
		</PolyStyle>
	</Style>
	<Style id="sn_placemark_circle10420">
		<IconStyle>
			<color>a600ff00</color>
			<scale>0.4</scale>
			<Icon>
				<href>http://maps.google.com/mapfiles/kml/shapes/polygon.png</href>
			</Icon>
		</IconStyle>
		<LabelStyle>
			<color>99ffffff</color>
			<scale>0.5</scale>
		</LabelStyle>
		<LineStyle>
			<color>ffffaad2</color>
			<width>0.5</width>
		</LineStyle>
		<PolyStyle>
			<color>ffffaad2</color>
		</PolyStyle>
	</Style>
	<Style id="sn_placemark_circle1043">
		<IconStyle>
			<color>a600ff00</color>
			<scale>0.4</scale>
			<Icon>
				<href>http://maps.google.com/mapfiles/kml/shapes/polygon.png</href>
			</Icon>
		</IconStyle>
		<LabelStyle>
			<color>99ffffff</color>
			<scale>0.5</scale>
		</LabelStyle>
		<LineStyle>
			<color>ffffaad2</color>
			<width>0.5</width>
		</LineStyle>
		<PolyStyle>
			<color>ffffaad2</color>
		</PolyStyle>
	</Style>
	<Style id="sn_placemark_circle1044">
		<IconStyle>
			<color>a600ff00</color>
			<scale>0.4</scale>
			<Icon>
				<href>http://maps.google.com/mapfiles/kml/shapes/polygon.png</href>
			</Icon>
		</IconStyle>
		<LabelStyle>
			<color>99ffffff</color>
			<scale>0.5</scale>
		</LabelStyle>
		<LineStyle>
			<color>ffffaad2</color>
			<width>0.5</width>
		</LineStyle>
		<PolyStyle>
			<color>ffffaad2</color>
		</PolyStyle>
	</Style>
	<Style id="sn_placemark_circle1046">
		<IconStyle>
			<color>a600ff00</color>
			<scale>0.4</scale>
			<Icon>
				<href>http://maps.google.com/mapfiles/kml/shapes/polygon.png</href>
			</Icon>
		</IconStyle>
		<LabelStyle>
			<color>99ffffff</color>
			<scale>0.5</scale>
		</LabelStyle>
		<LineStyle>
			<color>ffffaad2</color>
			<width>0.5</width>
		</LineStyle>
		<PolyStyle>
			<color>ffffaad2</color>
		</PolyStyle>
	</Style>
	<Style id="sn_placemark_circle105">
		<IconStyle>
			<color>a600ff00</color>
			<scale>0.4</scale>
			<Icon>
				<href>http://maps.google.com/mapfiles/kml/shapes/polygon.png</href>
			</Icon>
		</IconStyle>
		<LabelStyle>
			<color>99ffffff</color>
			<scale>0.5</scale>
		</LabelStyle>
		<LineStyle>
			<color>ffffaad2</color>
			<width>0.5</width>
		</LineStyle>
		<PolyStyle>
			<color>ffffaad2</color>
		</PolyStyle>
	</Style>
	<Style id="sn_placemark_circle109">
		<IconStyle>
			<color>a600ff00</color>
			<scale>0.4</scale>
			<Icon>
				<href>http://maps.google.com/mapfiles/kml/shapes/polygon.png</href>
			</Icon>
		</IconStyle>
		<LabelStyle>
			<color>99ffffff</color>
			<scale>0.5</scale>
		</LabelStyle>
		<LineStyle>
			<color>ffffaad2</color>
			<width>0.5</width>
		</LineStyle>
		<PolyStyle>
			<color>ffffaad2</color>
		</PolyStyle>
	</Style>
	<Folder>
		<name>Xion_North</name>
		<visibility>0</visibility>
		<Placemark>
			<name>Intsct001</name>
			<visibility>0</visibility>
			<LookAt>
				<longitude>-77.02673217379096</longitude>
				<latitude>38.94265750252863</latitude>
				<altitude>0</altitude>
				<heading>-0.0093213650222386</heading>
				<tilt>0</tilt>
				<range>409.7953840037057</range>
				<gx:altitudeMode>relativeToSeaFloor</gx:altitudeMode>
			</LookAt>
			<styleUrl>#msn_placemark_circle1327</styleUrl>
			<Point>
				<gx:drawOrder>1</gx:drawOrder>
				<coordinates>-77.02564349128788,38.94229044600678,0</coordinates>
			</Point>
		</Placemark>
		<Placemark>
			<name>Intsct002</name>
			<visibility>0</visibility>
			<LookAt>
				<longitude>-77.02230078225682</longitude>
				<latitude>38.94623912529858</latitude>
				<altitude>0</altitude>
				<heading>-0.001001904250158988</heading>
				<tilt>0</tilt>
				<range>339.9368319882371</range>
				<gx:altitudeMode>relativeToSeaFloor</gx:altitudeMode>
			</LookAt>
			<styleUrl>#msn_placemark_circle13201</styleUrl>
			<Point>
				<gx:drawOrder>1</gx:drawOrder>
				<coordinates>-77.02189994315107,38.94732133567169,0</coordinates>
			</Point>
		</Placemark>
		<Placemark>
			<name>Intsct003</name>
			<visibility>0</visibility>
			<LookAt>
				<longitude>-77.0191200386904</longitude>
				<latitude>38.94334626822091</latitude>
				<altitude>0</altitude>
				<heading>0.0009974161133709325</heading>
				<tilt>0</tilt>
				<range>308.187495392231</range>
				<gx:altitudeMode>relativeToSeaFloor</gx:altitudeMode>
			</LookAt>
			<styleUrl>#msn_placemark_circle13201</styleUrl>
			<Point>
				<gx:drawOrder>1</gx:drawOrder>
				<coordinates>-77.01925788564746,38.94311235900818,0</coordinates>
			</Point>
		</Placemark>
		<Placemark>
			<name>Intsct004</name>
			<visibility>0</visibility>
			<LookAt>
				<longitude>-77.02434816876664</longitude>
				<latitude>38.93625378228922</latitude>
				<altitude>0</altitude>
				<heading>-0.002288034917937747</heading>
				<tilt>0</tilt>
				<range>476.6840598799204</range>
				<gx:altitudeMode>relativeToSeaFloor</gx:altitudeMode>
			</LookAt>
			<styleUrl>#msn_placemark_circle13201</styleUrl>
			<Point>
				<gx:drawOrder>1</gx:drawOrder>
				<coordinates>-77.02430295127219,38.93631910832696,0</coordinates>
			</Point>
		</Placemark>
		<Placemark>
			<name>Intsct018</name>
			<visibility>0</visibility>
			<LookAt>
				<longitude>-77.04289072594617</longitude>
				<latitude>38.91661269591993</latitude>
				<altitude>0</altitude>
				<heading>-0.01394257350964237</heading>
				<tilt>0</tilt>
				<range>1167.924411170569</range>
				<gx:altitudeMode>relativeToSeaFloor</gx:altitudeMode>
			</LookAt>
			<styleUrl>#msn_placemark_circle1325</styleUrl>
			<Point>
				<gx:drawOrder>1</gx:drawOrder>
				<coordinates>-77.04346585941386,38.91590345098422,0</coordinates>
			</Point>
		</Placemark>
		<Placemark>
			<name>Intsct021</name>
			<visibility>0</visibility>
			<LookAt>
				<longitude>-77.02856420249051</longitude>
				<latitude>38.95774612449867</latitude>
				<altitude>0</altitude>
				<heading>-0.00498807392715134</heading>
				<tilt>0</tilt>
				<range>570.1353794677069</range>
				<gx:altitudeMode>relativeToSeaFloor</gx:altitudeMode>
			</LookAt>
			<styleUrl>#msn_placemark_circle135</styleUrl>
			<Point>
				<gx:drawOrder>1</gx:drawOrder>
				<coordinates>-77.02828814455441,38.95774420894102,0</coordinates>
			</Point>
		</Placemark>
		<Placemark>
			<name>Intsct022</name>
			<visibility>0</visibility>
			<LookAt>
				<longitude>-77.01666023603893</longitude>
				<latitude>38.95733919403415</latitude>
				<altitude>0</altitude>
				<heading>0.002496534923328409</heading>
				<tilt>0</tilt>
				<range>856.4592098986734</range>
				<gx:altitudeMode>relativeToSeaFloor</gx:altitudeMode>
			</LookAt>
			<styleUrl>#msn_placemark_circle134</styleUrl>
			<Point>
				<gx:drawOrder>1</gx:drawOrder>
				<coordinates>-77.01496041933852,38.9566796552525,0</coordinates>
			</Point>
		</Placemark>
		<Placemark>
			<name>Intsct023</name>
			<visibility>0</visibility>
			<LookAt>
				<longitude>-77.01009150005999</longitude>
				<latitude>38.95449010150332</latitude>
				<altitude>0</altitude>
				<heading>0.006673244847875751</heading>
				<tilt>0</tilt>
				<range>1108.928008807577</range>
				<gx:altitudeMode>relativeToSeaFloor</gx:altitudeMode>
			</LookAt>
			<styleUrl>#msn_placemark_circle137</styleUrl>
			<Point>
				<gx:drawOrder>1</gx:drawOrder>
				<coordinates>-77.00907050221514,38.95675069279367,0</coordinates>
			</Point>
		</Placemark>
		<Placemark>
			<name>Intsct024</name>
			<visibility>0</visibility>
			<LookAt>
				<longitude>-77.06518474732839</longitude>
				<latitude>38.96055475715038</latitude>
				<altitude>0</altitude>
				<heading>-0.02796067818943195</heading>
				<tilt>0</tilt>
				<range>440.9941464898458</range>
				<gx:altitudeMode>relativeToSeaFloor</gx:altitudeMode>
			</LookAt>
			<styleUrl>#msn_placemark_circle1310</styleUrl>
			<Point>
				<gx:drawOrder>1</gx:drawOrder>
				<coordinates>-77.06621039192564,38.96099564561381,0</coordinates>
			</Point>
		</Placemark>
		<Placemark>
			<name>Intsct025</name>
			<visibility>0</visibility>
			<LookAt>
				<longitude>-77.06123674497398</longitude>
				<latitude>38.9665125532289</latitude>
				<altitude>0</altitude>
				<heading>-0.02547831702760879</heading>
				<tilt>0</tilt>
				<range>651.3401046399052</range>
				<gx:altitudeMode>relativeToSeaFloor</gx:altitudeMode>
			</LookAt>
			<styleUrl>#msn_placemark_circle1314</styleUrl>
			<Point>
				<gx:drawOrder>1</gx:drawOrder>
				<coordinates>-77.06091028980671,38.96708931164586,0</coordinates>
			</Point>
		</Placemark>
		<Placemark>
			<name>Intsct026</name>
			<visibility>0</visibility>
			<LookAt>
				<longitude>-77.07560629664013</longitude>
				<latitude>38.96608865816089</latitude>
				<altitude>0</altitude>
				<heading>-0.03451209751342933</heading>
				<tilt>0</tilt>
				<range>735.5426056985109</range>
				<gx:altitudeMode>relativeToSeaFloor</gx:altitudeMode>
			</LookAt>
			<styleUrl>#msn_placemark_circle1324</styleUrl>
			<Point>
				<gx:drawOrder>1</gx:drawOrder>
				<coordinates>-77.07715100120731,38.96760738015197,0</coordinates>
			</Point>
		</Placemark>
		<Placemark>
			<name>Intsct027</name>
			<visibility>0</visibility>
			<LookAt>
				<longitude>-77.07729998793523</longitude>
				<latitude>38.94632651254649</latitude>
				<altitude>0</altitude>
				<heading>-0.03557433560428598</heading>
				<tilt>0</tilt>
				<range>538.4855534145817</range>
				<gx:altitudeMode>relativeToSeaFloor</gx:altitudeMode>
			</LookAt>
			<styleUrl>#msn_placemark_circle1315</styleUrl>
			<Point>
				<gx:drawOrder>1</gx:drawOrder>
				<coordinates>-77.07876308712449,38.94625090761831,0</coordinates>
			</Point>
		</Placemark>
		<Placemark>
			<name>Intsct028</name>
			<visibility>0</visibility>
			<LookAt>
				<longitude>-77.09936603119844</longitude>
				<latitude>38.94828623393188</latitude>
				<altitude>0</altitude>
				<heading>-0.04944585337940056</heading>
				<tilt>0</tilt>
				<range>2059.579212679821</range>
				<gx:altitudeMode>relativeToSeaFloor</gx:altitudeMode>
			</LookAt>
			<styleUrl>#msn_placemark_circle13200</styleUrl>
			<Point>
				<gx:drawOrder>1</gx:drawOrder>
				<coordinates>-77.1009746858736,38.94890691318262,0</coordinates>
			</Point>
		</Placemark>
		<Placemark>
			<name>Intsct029</name>
			<visibility>0</visibility>
			<LookAt>
				<longitude>-77.08590732624985</longitude>
				<latitude>38.93835908880445</latitude>
				<altitude>0</altitude>
				<heading>-0.04098856808106521</heading>
				<tilt>0</tilt>
				<range>489.8299423900768</range>
				<gx:altitudeMode>relativeToSeaFloor</gx:altitudeMode>
			</LookAt>
			<styleUrl>#msn_placemark_circle1311</styleUrl>
			<Point>
				<gx:drawOrder>1</gx:drawOrder>
				<coordinates>-77.08591332655433,38.93791545891371,0</coordinates>
			</Point>
		</Placemark>
		<Placemark>
			<name>Intsct030</name>
			<visibility>0</visibility>
			<LookAt>
				<longitude>-77.07683884729271</longitude>
				<latitude>38.93090660621009</latitude>
				<altitude>0</altitude>
				<heading>-0.03528906332887607</heading>
				<tilt>0</tilt>
				<range>541.6319816202789</range>
				<gx:altitudeMode>relativeToSeaFloor</gx:altitudeMode>
			</LookAt>
			<styleUrl>#msn_placemark_circle1319</styleUrl>
			<Point>
				<gx:drawOrder>1</gx:drawOrder>
				<coordinates>-77.07704000565165,38.93141909888435,0</coordinates>
			</Point>
		</Placemark>
		<Placemark>
			<name>Intsct044</name>
			<visibility>0</visibility>
			<LookAt>
				<longitude>-77.02752512282255</longitude>
				<latitude>38.93947570878202</latitude>
				<altitude>0</altitude>
				<heading>-0.009820086184003441</heading>
				<tilt>0</tilt>
				<range>830.2075967641352</range>
				<gx:altitudeMode>relativeToSeaFloor</gx:altitudeMode>
			</LookAt>
			<styleUrl>#msn_placemark_circle1321</styleUrl>
			<Point>
				<gx:drawOrder>1</gx:drawOrder>
				<coordinates>-77.02467829619785,38.9386884004513,0</coordinates>
			</Point>
		</Placemark>
		<Placemark>
			<name>Intsct045</name>
			<visibility>0</visibility>
			<LookAt>
				<longitude>-77.0313414430107</longitude>
				<latitude>38.94579616514383</latitude>
				<altitude>0</altitude>
				<heading>-0.01221824544043691</heading>
				<tilt>0</tilt>
				<range>658.6851382188522</range>
				<gx:altitudeMode>relativeToSeaFloor</gx:altitudeMode>
			</LookAt>
			<styleUrl>#msn_placemark_circle1326</styleUrl>
			<Point>
				<gx:drawOrder>1</gx:drawOrder>
				<coordinates>-77.03082403465564,38.94732383413034,0</coordinates>
			</Point>
		</Placemark>
		<Placemark>
			<name>Intsct046</name>
			<visibility>0</visibility>
			<LookAt>
				<longitude>-77.02513583159678</longitude>
				<latitude>38.9432112817578</latitude>
				<altitude>0</altitude>
				<heading>-0.008317179193851682</heading>
				<tilt>0</tilt>
				<range>250.9694293108192</range>
				<gx:altitudeMode>relativeToSeaFloor</gx:altitudeMode>
			</LookAt>
			<styleUrl>#msn_placemark_circle132</styleUrl>
			<Point>
				<gx:drawOrder>1</gx:drawOrder>
				<coordinates>-77.02512898068386,38.9429546594432,0</coordinates>
			</Point>
		</Placemark>
		<Placemark>
			<name>Intsct047</name>
			<visibility>0</visibility>
			<LookAt>
				<longitude>-77.02805984344674</longitude>
				<latitude>38.9455861650878</latitude>
				<altitude>0</altitude>
				<heading>-0.01015496301000473</heading>
				<tilt>0</tilt>
				<range>447.7422959026653</range>
				<gx:altitudeMode>relativeToSeaFloor</gx:altitudeMode>
			</LookAt>
			<styleUrl>#msn_placemark_circle1328</styleUrl>
			<Point>
				<gx:drawOrder>1</gx:drawOrder>
				<coordinates>-77.02663987642144,38.94611970066513,0</coordinates>
			</Point>
		</Placemark>
		<Placemark>
			<name>Intsct060</name>
			<visibility>0</visibility>
			<LookAt>
				<longitude>-77.07067104432424</longitude>
				<latitude>38.95549846900813</latitude>
				<altitude>0</altitude>
				<heading>-0.03692944457767641</heading>
				<tilt>0</tilt>
				<range>607.04306956854</range>
				<gx:altitudeMode>relativeToSeaFloor</gx:altitudeMode>
			</LookAt>
			<styleUrl>#msn_placemark_circle13242</styleUrl>
			<Point>
				<gx:drawOrder>1</gx:drawOrder>
				<coordinates>-77.07042460736741,38.95602332325418,0</coordinates>
			</Point>
		</Placemark>
		<Placemark>
			<name>Intsct061</name>
			<visibility>0</visibility>
			<LookAt>
				<longitude>-77.08414154868602</longitude>
				<latitude>38.96012924660931</latitude>
				<altitude>0</altitude>
				<heading>-0.03988090447462153</heading>
				<tilt>0</tilt>
				<range>619.4826287610252</range>
				<gx:altitudeMode>relativeToSeaFloor</gx:altitudeMode>
			</LookAt>
			<styleUrl>#msn_placemark_circle13241</styleUrl>
			<Point>
				<gx:drawOrder>1</gx:drawOrder>
				<coordinates>-77.08572303514397,38.96078609168632,0</coordinates>
			</Point>
		</Placemark>
		<Placemark>
			<name>Intsct062</name>
			<visibility>0</visibility>
			<LookAt>
				<longitude>-77.06645860827997</longitude>
				<latitude>38.97495564144583</latitude>
				<altitude>0</altitude>
				<heading>-0.02875778545265125</heading>
				<tilt>0</tilt>
				<range>413.8446270308294</range>
				<gx:altitudeMode>relativeToSeaFloor</gx:altitudeMode>
			</LookAt>
			<styleUrl>#msn_placemark_circle13243</styleUrl>
			<Point>
				<gx:drawOrder>1</gx:drawOrder>
				<coordinates>-77.06640321945628,38.97586671592201,0</coordinates>
			</Point>
		</Placemark>
		<Placemark>
			<name>Intsct063</name>
			<visibility>0</visibility>
			<LookAt>
				<longitude>-77.09021598055014</longitude>
				<latitude>38.9561823581381</latitude>
				<altitude>0</altitude>
				<heading>-0.04369605332673008</heading>
				<tilt>0</tilt>
				<range>751.0114967149993</range>
				<gx:altitudeMode>relativeToSeaFloor</gx:altitudeMode>
			</LookAt>
			<styleUrl>#msn_placemark_circle13240</styleUrl>
			<Point>
				<gx:drawOrder>1</gx:drawOrder>
				<coordinates>-77.09124163684234,38.95646960864397,0</coordinates>
			</Point>
		</Placemark>
		<atom:link rel="app" href="https://www.google.com/earth/about/versions/#earth-pro" title="Google Earth Pro 7.3.6.10201"></atom:link>
	</Folder>
</Document>
</kml>
