<?xml version="1.0" encoding="UTF-8"?>
<kml xmlns="http://www.opengis.net/kml/2.2" xmlns:gx="http://www.google.com/kml/ext/2.2" xmlns:kml="http://www.opengis.net/kml/2.2" xmlns:atom="http://www.w3.org/2005/Atom">
<Document>
	<name>Xion_East.kml</name>
	<StyleMap id="msn_placemark_circle130">
		<Pair>
			<key>normal</key>
			<styleUrl>#sn_placemark_circle10210</styleUrl>
		</Pair>
		<Pair>
			<key>highlight</key>
			<styleUrl>#sh_placemark_circle_highlight15211</styleUrl>
		</Pair>
	</StyleMap>
	<Style id="sh_placemark_circle_highlight15211">
		<IconStyle>
			<color>a6ffff00</color>
			<scale>0.5</scale>
			<Icon>
				<href>http://maps.google.com/mapfiles/kml/shapes/polygon.png</href>
			</Icon>
		</IconStyle>
		<LabelStyle>
			<color>99ffffff</color>
			<scale>0.5</scale>
		</LabelStyle>
		<LineStyle>
			<color>ffffaad2</color>
			<width>0.5</width>
		</LineStyle>
		<PolyStyle>
			<color>ffffaad2</color>
		</PolyStyle>
	</Style>
	<Style id="sn_placemark_circle10210">
		<IconStyle>
			<color>a6ffff00</color>
			<scale>0.5</scale>
			<Icon>
				<href>http://maps.google.com/mapfiles/kml/shapes/polygon.png</href>
			</Icon>
		</IconStyle>
		<LabelStyle>
			<color>99ffffff</color>
			<scale>0.5</scale>
		</LabelStyle>
		<LineStyle>
			<color>ffffaad2</color>
			<width>0.5</width>
		</LineStyle>
		<PolyStyle>
			<color>ffffaad2</color>
		</PolyStyle>
	</Style>
	<Folder>
		<name>Xion_East</name>
		<visibility>0</visibility>
		<Placemark>
			<name>Intsct064</name>
			<visibility>0</visibility>
			<LookAt>
				<longitude>-76.98308931552711</longitude>
				<latitude>38.90044882060263</latitude>
				<altitude>0</altitude>
				<heading>0.02360019919420667</heading>
				<tilt>0</tilt>
				<range>690.6362270682617</range>
				<gx:altitudeMode>relativeToSeaFloor</gx:altitudeMode>
			</LookAt>
			<styleUrl>#msn_placemark_circle130</styleUrl>
			<Point>
				<gx:drawOrder>1</gx:drawOrder>
				<coordinates>-76.9834356610381,38.90012330071623,0</coordinates>
			</Point>
		</Placemark>
		<Placemark>
			<name>Intsct031</name>
			<visibility>0</visibility>
			<LookAt>
				<longitude>-76.99362704988354</longitude>
				<latitude>38.90479659950582</latitude>
				<altitude>0</altitude>
				<heading>0.03592846947795957</heading>
				<tilt>0</tilt>
				<range>738.6879572159903</range>
				<gx:altitudeMode>relativeToSeaFloor</gx:altitudeMode>
			</LookAt>
			<styleUrl>#msn_placemark_circle130</styleUrl>
			<Point>
				<gx:drawOrder>1</gx:drawOrder>
				<coordinates>-76.99311840621226,38.90399889348302,0</coordinates>
			</Point>
		</Placemark>
		<Placemark>
			<name>Intsct032</name>
			<visibility>0</visibility>
			<LookAt>
				<longitude>-76.979502865016</longitude>
				<latitude>38.91715601093649</latitude>
				<altitude>0</altitude>
				<heading>0.0448009581082249</heading>
				<tilt>0</tilt>
				<range>438.4276690524561</range>
				<gx:altitudeMode>relativeToSeaFloor</gx:altitudeMode>
			</LookAt>
			<styleUrl>#msn_placemark_circle130</styleUrl>
			<Point>
				<gx:drawOrder>1</gx:drawOrder>
				<coordinates>-76.97819269366335,38.91723219050648,0</coordinates>
			</Point>
		</Placemark>
		<Placemark>
			<name>Intsct033</name>
			<visibility>0</visibility>
			<LookAt>
				<longitude>-76.99061178853216</longitude>
				<latitude>38.89737401473467</latitude>
				<altitude>0</altitude>
				<heading>0.01887713573907479</heading>
				<tilt>0</tilt>
				<range>417.724887852021</range>
				<gx:altitudeMode>relativeToSeaFloor</gx:altitudeMode>
			</LookAt>
			<styleUrl>#msn_placemark_circle130</styleUrl>
			<Point>
				<gx:drawOrder>1</gx:drawOrder>
				<coordinates>-76.99026100358863,38.89733317505476,0</coordinates>
			</Point>
		</Placemark>
		<Placemark>
			<name>Intsct034</name>
			<visibility>0</visibility>
			<LookAt>
				<longitude>-77.01128702172285</longitude>
				<latitude>38.89017973084491</latitude>
				<altitude>0</altitude>
				<heading>0.005894847486607505</heading>
				<tilt>0</tilt>
				<range>1685.731008929209</range>
				<gx:altitudeMode>relativeToSeaFloor</gx:altitudeMode>
			</LookAt>
			<styleUrl>#msn_placemark_circle130</styleUrl>
			<Point>
				<gx:drawOrder>1</gx:drawOrder>
				<coordinates>-77.00906872063872,38.88982871858197,0</coordinates>
			</Point>
		</Placemark>
		<Placemark>
			<name>Intsct069</name>
			<visibility>0</visibility>
			<LookAt>
				<longitude>-77.00409121952762</longitude>
				<latitude>38.89636916990001</latitude>
				<altitude>0</altitude>
				<heading>0.01041080920622772</heading>
				<tilt>0</tilt>
				<range>956.0382889136117</range>
				<gx:altitudeMode>relativeToSeaFloor</gx:altitudeMode>
			</LookAt>
			<styleUrl>#msn_placemark_circle130</styleUrl>
			<Point>
				<gx:drawOrder>1</gx:drawOrder>
				<coordinates>-77.00583688474308,38.89738444005945,0</coordinates>
			</Point>
		</Placemark>
		<Placemark>
			<name>Intsct017</name>
			<visibility>0</visibility>
			<LookAt>
				<longitude>-76.98689808001328</longitude>
				<latitude>38.88984373920624</latitude>
				<altitude>0</altitude>
				<heading>0.02122524510963937</heading>
				<tilt>0</tilt>
				<range>2865.68154150422</range>
				<gx:altitudeMode>relativeToSeaFloor</gx:altitudeMode>
			</LookAt>
			<styleUrl>#msn_placemark_circle130</styleUrl>
			<Point>
				<gx:drawOrder>1</gx:drawOrder>
				<coordinates>-76.97594889393882,38.88405616456036,0</coordinates>
			</Point>
		</Placemark>
		<Placemark>
			<name>Intsct050</name>
			<visibility>0</visibility>
			<LookAt>
				<longitude>-76.97825990840396</longitude>
				<latitude>38.87428857625743</latitude>
				<altitude>0</altitude>
				<heading>0.02665695173219428</heading>
				<tilt>0</tilt>
				<range>2427.188101969998</range>
				<gx:altitudeMode>relativeToSeaFloor</gx:altitudeMode>
			</LookAt>
			<styleUrl>#msn_placemark_circle130</styleUrl>
			<Point>
				<gx:drawOrder>1</gx:drawOrder>
				<coordinates>-76.98072166352279,38.87838133334684,0</coordinates>
			</Point>
		</Placemark>
		<Placemark>
			<name>Intsct067</name>
			<visibility>0</visibility>
			<LookAt>
				<longitude>-76.99951079855511</longitude>
				<latitude>38.89328908326723</latitude>
				<altitude>0</altitude>
				<heading>0.01328909160753895</heading>
				<tilt>0</tilt>
				<range>345.7227408180286</range>
				<gx:altitudeMode>relativeToSeaFloor</gx:altitudeMode>
			</LookAt>
			<styleUrl>#msn_placemark_circle130</styleUrl>
			<Point>
				<gx:drawOrder>1</gx:drawOrder>
				<coordinates>-76.99952125931438,38.89357874324944,0</coordinates>
			</Point>
		</Placemark>
		<Placemark>
			<name>Intsct060</name>
			<visibility>0</visibility>
			<LookAt>
				<longitude>-77.00010077333231</longitude>
				<latitude>38.8855821984699</latitude>
				<altitude>0</altitude>
				<heading>0.01292019825753551</heading>
				<tilt>0</tilt>
				<range>335.7325893928639</range>
				<gx:altitudeMode>relativeToSeaFloor</gx:altitudeMode>
			</LookAt>
			<styleUrl>#msn_placemark_circle130</styleUrl>
			<Point>
				<gx:drawOrder>1</gx:drawOrder>
				<coordinates>-76.99954322427776,38.88604332093504,0</coordinates>
			</Point>
		</Placemark>
		<Placemark>
			<name>Intsct062</name>
			<visibility>0</visibility>
			<LookAt>
				<longitude>-76.9897280550594</longitude>
				<latitude>38.8897825533662</latitude>
				<altitude>0</altitude>
				<heading>0.01943146707106274</heading>
				<tilt>0</tilt>
				<range>418.4198685019479</range>
				<gx:altitudeMode>relativeToSeaFloor</gx:altitudeMode>
			</LookAt>
			<styleUrl>#msn_placemark_circle130</styleUrl>
			<Point>
				<gx:drawOrder>1</gx:drawOrder>
				<coordinates>-76.99025502597063,38.88980114214431,0</coordinates>
			</Point>
		</Placemark>
		<Placemark>
			<name>Intsct073</name>
			<visibility>0</visibility>
			<LookAt>
				<longitude>-76.98689808001328</longitude>
				<latitude>38.88984373920624</latitude>
				<altitude>0</altitude>
				<heading>0.02122524510963937</heading>
				<tilt>0</tilt>
				<range>2865.68154150422</range>
				<gx:altitudeMode>relativeToSeaFloor</gx:altitudeMode>
			</LookAt>
			<styleUrl>#msn_placemark_circle130</styleUrl>
			<Point>
				<gx:drawOrder>1</gx:drawOrder>
				<coordinates>-76.98728690433322,38.88627641171033,0</coordinates>
			</Point>
		</Placemark>
		<Placemark>
			<name>Intsct065</name>
			<visibility>0</visibility>
			<LookAt>
				<longitude>-76.99418757501219</longitude>
				<latitude>38.88322906329666</latitude>
				<altitude>0</altitude>
				<heading>0.01663103448079971</heading>
				<tilt>0</tilt>
				<range>2808.704055506662</range>
				<gx:altitudeMode>relativeToSeaFloor</gx:altitudeMode>
			</LookAt>
			<styleUrl>#msn_placemark_circle130</styleUrl>
			<Point>
				<gx:drawOrder>1</gx:drawOrder>
				<coordinates>-76.99158281042443,38.87788360928428,0</coordinates>
			</Point>
		</Placemark>
		<Placemark>
			<name>Intsct063</name>
			<visibility>0</visibility>
			<LookAt>
				<longitude>-76.98436029517268</longitude>
				<latitude>38.89704850902326</latitude>
				<altitude>0</altitude>
				<heading>0.02280175869073849</heading>
				<tilt>0</tilt>
				<range>208.1208571637756</range>
				<gx:altitudeMode>relativeToSeaFloor</gx:altitudeMode>
			</LookAt>
			<styleUrl>#msn_placemark_circle130</styleUrl>
			<Point>
				<gx:drawOrder>1</gx:drawOrder>
				<coordinates>-76.98376414490676,38.89743589217142,0</coordinates>
			</Point>
		</Placemark>
		<Placemark>
			<name>Intsct064</name>
			<visibility>0</visibility>
			<LookAt>
				<longitude>-76.98308931552711</longitude>
				<latitude>38.90044882060263</latitude>
				<altitude>0</altitude>
				<heading>0.02360019919420667</heading>
				<tilt>0</tilt>
				<range>690.6362270682617</range>
				<gx:altitudeMode>relativeToSeaFloor</gx:altitudeMode>
			</LookAt>
			<styleUrl>#msn_placemark_circle130</styleUrl>
			<Point>
				<gx:drawOrder>1</gx:drawOrder>
				<coordinates>-76.9834356610381,38.90012330071623,0</coordinates>
			</Point>
		</Placemark>
		<Placemark>
			<name>Intsct051</name>
			<visibility>0</visibility>
			<LookAt>
				<longitude>-76.98202881927641</longitude>
				<latitude>38.8822443873798</latitude>
				<altitude>0</altitude>
				<heading>0.02429582558640283</heading>
				<tilt>0</tilt>
				<range>665.3335542662918</range>
				<gx:altitudeMode>relativeToSeaFloor</gx:altitudeMode>
			</LookAt>
			<styleUrl>#msn_placemark_circle130</styleUrl>
			<Point>
				<gx:drawOrder>1</gx:drawOrder>
				<coordinates>-76.98552565100998,38.88033775286354,0</coordinates>
			</Point>
		</Placemark>
		<Placemark>
			<name>Intsct052</name>
			<visibility>0</visibility>
			<LookAt>
				<longitude>-76.98291319500811</longitude>
				<latitude>38.88147917673419</latitude>
				<altitude>0</altitude>
				<heading>0.02374068439366566</heading>
				<tilt>0</tilt>
				<range>216.0153843429591</range>
				<gx:altitudeMode>relativeToSeaFloor</gx:altitudeMode>
			</LookAt>
			<styleUrl>#msn_placemark_circle130</styleUrl>
			<Point>
				<gx:drawOrder>1</gx:drawOrder>
				<coordinates>-76.98318242042795,38.88128115290582,0</coordinates>
			</Point>
		</Placemark>
		<Placemark>
			<name>Intsct053</name>
			<visibility>0</visibility>
			<LookAt>
				<longitude>-76.99761444641886</longitude>
				<latitude>38.88526829043948</latitude>
				<altitude>0</altitude>
				<heading>0.01451134494041618</heading>
				<tilt>0</tilt>
				<range>3239.656948255094</range>
				<gx:altitudeMode>relativeToSeaFloor</gx:altitudeMode>
			</LookAt>
			<styleUrl>#msn_placemark_circle130</styleUrl>
			<Point>
				<gx:drawOrder>1</gx:drawOrder>
				<coordinates>-77.00599512135395,38.88141052569306,0</coordinates>
			</Point>
		</Placemark>
		<Placemark>
			<name>Intsct054</name>
			<visibility>0</visibility>
			<LookAt>
				<longitude>-76.95195908000962</longitude>
				<latitude>38.88974098229494</latitude>
				<altitude>0</altitude>
				<heading>0.04316521768446108</heading>
				<tilt>0</tilt>
				<range>917.9569613633455</range>
				<gx:altitudeMode>relativeToSeaFloor</gx:altitudeMode>
			</LookAt>
			<styleUrl>#msn_placemark_circle130</styleUrl>
			<Point>
				<gx:drawOrder>1</gx:drawOrder>
				<coordinates>-76.95309039068846,38.88976099356584,0</coordinates>
			</Point>
		</Placemark>
		<Placemark>
			<name>Intsct055</name>
			<visibility>0</visibility>
			<LookAt>
				<longitude>-76.96173936834155</longitude>
				<latitude>38.87877232397334</latitude>
				<altitude>0</altitude>
				<heading>0.03702495404686647</heading>
				<tilt>0</tilt>
				<range>315.8682106490289</range>
				<gx:altitudeMode>relativeToSeaFloor</gx:altitudeMode>
			</LookAt>
			<styleUrl>#msn_placemark_circle130</styleUrl>
			<Point>
				<gx:drawOrder>1</gx:drawOrder>
				<coordinates>-76.9614875714194,38.87809959050269,0</coordinates>
			</Point>
		</Placemark>
		<Placemark>
			<name>Intsct056</name>
			<visibility>0</visibility>
			<LookAt>
				<longitude>-76.97067552194854</longitude>
				<latitude>38.87379662925061</latitude>
				<altitude>0</altitude>
				<heading>0.03141512356295564</heading>
				<tilt>0</tilt>
				<range>356.2186793097771</range>
				<gx:altitudeMode>relativeToSeaFloor</gx:altitudeMode>
			</LookAt>
			<styleUrl>#msn_placemark_circle130</styleUrl>
			<Point>
				<gx:drawOrder>1</gx:drawOrder>
				<coordinates>-76.97070467583606,38.87349247971915,0</coordinates>
			</Point>
		</Placemark>
		<Placemark>
			<name>Intsct057</name>
			<visibility>0</visibility>
			<LookAt>
				<longitude>-76.98496655361798</longitude>
				<latitude>38.88340836824066</latitude>
				<altitude>0</altitude>
				<heading>0.0224198197510483</heading>
				<tilt>0</tilt>
				<range>235.3911681049898</range>
				<gx:altitudeMode>relativeToSeaFloor</gx:altitudeMode>
			</LookAt>
			<styleUrl>#msn_placemark_circle130</styleUrl>
			<Point>
				<gx:drawOrder>1</gx:drawOrder>
				<coordinates>-76.98553999503207,38.88410581119781,0</coordinates>
			</Point>
		</Placemark>
		<Placemark>
			<name>Intsct058</name>
			<visibility>0</visibility>
			<LookAt>
				<longitude>-76.9938006145406</longitude>
				<latitude>38.88431535468891</latitude>
				<altitude>0</altitude>
				<heading>0.01687424631509656</heading>
				<tilt>0</tilt>
				<range>274.9854659418411</range>
				<gx:altitudeMode>relativeToSeaFloor</gx:altitudeMode>
			</LookAt>
			<styleUrl>#msn_placemark_circle130</styleUrl>
			<Point>
				<gx:drawOrder>1</gx:drawOrder>
				<coordinates>-76.99499976259511,38.88420836887803,0</coordinates>
			</Point>
		</Placemark>
		<Placemark>
			<name>Intsct061</name>
			<visibility>0</visibility>
			<LookAt>
				<longitude>-77.00355166915512</longitude>
				<latitude>38.87639092295607</latitude>
				<altitude>0</altitude>
				<heading>0.01075382607660082</heading>
				<tilt>0</tilt>
				<range>244.6899220967634</range>
				<gx:altitudeMode>relativeToSeaFloor</gx:altitudeMode>
			</LookAt>
			<styleUrl>#msn_placemark_circle130</styleUrl>
			<Point>
				<gx:drawOrder>1</gx:drawOrder>
				<coordinates>-77.00419666779833,38.8764814852439,0</coordinates>
			</Point>
		</Placemark>
		<Placemark>
			<name>Intsct068</name>
			<visibility>0</visibility>
			<LookAt>
				<longitude>-77.00734433032147</longitude>
				<latitude>38.89540414006468</latitude>
				<altitude>0</altitude>
				<heading>0.00837058311421366</heading>
				<tilt>0</tilt>
				<range>1410.219770823911</range>
				<gx:altitudeMode>relativeToSeaFloor</gx:altitudeMode>
			</LookAt>
			<styleUrl>#msn_placemark_circle130</styleUrl>
			<Point>
				<gx:drawOrder>1</gx:drawOrder>
				<coordinates>-77.00585067211077,38.89606887058728,0</coordinates>
			</Point>
		</Placemark>
		<Placemark>
			<name>Intsct070</name>
			<visibility>0</visibility>
			<LookAt>
				<longitude>-76.94688742111288</longitude>
				<latitude>38.89206276763999</latitude>
				<altitude>0</altitude>
				<heading>0.04632859342650768</heading>
				<tilt>0</tilt>
				<range>1667.46239964501</range>
				<gx:altitudeMode>relativeToSeaFloor</gx:altitudeMode>
			</LookAt>
			<styleUrl>#msn_placemark_circle130</styleUrl>
			<Point>
				<gx:drawOrder>1</gx:drawOrder>
				<coordinates>-76.93756625289609,38.88978835941021,0</coordinates>
			</Point>
		</Placemark>
		<Placemark>
			<name>Intsct071</name>
			<visibility>0</visibility>
			<LookAt>
				<longitude>-77.00469176749721</longitude>
				<latitude>38.8825751322469</latitude>
				<altitude>0</altitude>
				<heading>0.01005081292546608</heading>
				<tilt>0</tilt>
				<range>1898.816835135705</range>
				<gx:altitudeMode>relativeToSeaFloor</gx:altitudeMode>
			</LookAt>
			<styleUrl>#msn_placemark_circle130</styleUrl>
			<Point>
				<gx:drawOrder>1</gx:drawOrder>
				<coordinates>-77.0066360573784,38.88323879096329,0</coordinates>
			</Point>
		</Placemark>
		<Placemark>
			<name>Intsct072</name>
			<visibility>0</visibility>
			<LookAt>
				<longitude>-77.02116180296439</longitude>
				<latitude>38.88818313426638</latitude>
				<altitude>0</altitude>
				<heading>-0.000287874296578226</heading>
				<tilt>0</tilt>
				<range>998.842957081579</range>
				<gx:altitudeMode>relativeToSeaFloor</gx:altitudeMode>
			</LookAt>
			<styleUrl>#msn_placemark_circle130</styleUrl>
			<Point>
				<gx:drawOrder>1</gx:drawOrder>
				<coordinates>-77.0229942828103,38.88610618676247,0</coordinates>
			</Point>
		</Placemark>
		<Placemark>
			<name>Intsct076</name>
			<visibility>0</visibility>
			<LookAt>
				<longitude>-76.97054072179455</longitude>
				<latitude>38.90593564076488</latitude>
				<altitude>0</altitude>
				<heading>0.03147890777528339</heading>
				<tilt>0</tilt>
				<range>624.5013781334172</range>
				<gx:altitudeMode>relativeToSeaFloor</gx:altitudeMode>
			</LookAt>
			<styleUrl>#msn_placemark_circle130</styleUrl>
			<Point>
				<gx:drawOrder>1</gx:drawOrder>
				<coordinates>-76.96995567470593,38.90562823083018,0</coordinates>
			</Point>
		</Placemark>
		<Placemark>
			<name>Intsct077</name>
			<visibility>0</visibility>
			<LookAt>
				<longitude>-77.01250518177429</longitude>
				<latitude>38.87724486509574</latitude>
				<altitude>0</altitude>
				<heading>0.005129794060087151</heading>
				<tilt>0</tilt>
				<range>463.0621417614382</range>
				<gx:altitudeMode>relativeToSeaFloor</gx:altitudeMode>
			</LookAt>
			<styleUrl>#msn_placemark_circle130</styleUrl>
			<Point>
				<gx:drawOrder>1</gx:drawOrder>
				<coordinates>-77.01398016238869,38.87646430552218,0</coordinates>
			</Point>
		</Placemark>
		<Placemark>
			<name>Intsct082</name>
			<visibility>0</visibility>
			<LookAt>
				<longitude>-77.00894087812381</longitude>
				<latitude>38.87088924136681</latitude>
				<altitude>0</altitude>
				<heading>0.007375442641764845</heading>
				<tilt>0</tilt>
				<range>300.8748368801351</range>
				<gx:altitudeMode>relativeToSeaFloor</gx:altitudeMode>
			</LookAt>
			<styleUrl>#msn_placemark_circle130</styleUrl>
			<Point>
				<gx:drawOrder>1</gx:drawOrder>
				<coordinates>-77.0090785493361,38.87069432450439,0</coordinates>
			</Point>
		</Placemark>
		<Placemark>
			<name>Intsct080</name>
			<visibility>0</visibility>
			<LookAt>
				<longitude>-77.0295774685826</longitude>
				<latitude>38.88469550649484</latitude>
				<altitude>0</altitude>
				<heading>-0.005600561654737764</heading>
				<tilt>0</tilt>
				<range>1293.175247098543</range>
				<gx:altitudeMode>relativeToSeaFloor</gx:altitudeMode>
			</LookAt>
			<styleUrl>#msn_placemark_circle130</styleUrl>
			<Point>
				<gx:drawOrder>1</gx:drawOrder>
				<coordinates>-77.03200606491326,38.88355041608855,0</coordinates>
			</Point>
		</Placemark>
		<Placemark>
			<name>Intsct081</name>
			<visibility>0</visibility>
			<LookAt>
				<longitude>-76.98576630700104</longitude>
				<latitude>38.8665194277642</latitude>
				<altitude>0</altitude>
				<heading>0.02191775553439318</heading>
				<tilt>0</tilt>
				<range>854.2513211134824</range>
				<gx:altitudeMode>relativeToSeaFloor</gx:altitudeMode>
			</LookAt>
			<styleUrl>#msn_placemark_circle130</styleUrl>
			<Point>
				<gx:drawOrder>1</gx:drawOrder>
				<coordinates>-76.98440786221666,38.86665520514831,0</coordinates>
			</Point>
		</Placemark>
		<Placemark>
			<name>Intsct083</name>
			<visibility>0</visibility>
			<LookAt>
				<longitude>-76.96599949798832</longitude>
				<latitude>38.86403336699408</latitude>
				<altitude>0</altitude>
				<heading>0.03432222017700242</heading>
				<tilt>0</tilt>
				<range>2358.736246296384</range>
				<gx:altitudeMode>relativeToSeaFloor</gx:altitudeMode>
			</LookAt>
			<styleUrl>#msn_placemark_circle130</styleUrl>
			<Point>
				<gx:drawOrder>1</gx:drawOrder>
				<coordinates>-76.95902409071122,38.86197363998543,0</coordinates>
			</Point>
		</Placemark>
		<Placemark>
			<name>Intsct084</name>
			<visibility>0</visibility>
			<LookAt>
				<longitude>-76.97696049632674</longitude>
				<latitude>38.87022016195262</latitude>
				<altitude>0</altitude>
				<heading>0.02744340723399351</heading>
				<tilt>0</tilt>
				<range>1289.403169867034</range>
				<gx:altitudeMode>relativeToSeaFloor</gx:altitudeMode>
			</LookAt>
			<styleUrl>#msn_placemark_circle130</styleUrl>
			<Point>
				<gx:drawOrder>1</gx:drawOrder>
				<coordinates>-76.97498797962025,38.87135220237067,0</coordinates>
			</Point>
		</Placemark>
		<Placemark>
			<name>Intsct085</name>
			<visibility>0</visibility>
			<LookAt>
				<longitude>-77.00855309247331</longitude>
				<latitude>38.88467648158865</latitude>
				<altitude>0</altitude>
				<heading>0.007613297872624941</heading>
				<tilt>0</tilt>
				<range>1066.78802236454</range>
				<gx:altitudeMode>relativeToSeaFloor</gx:altitudeMode>
			</LookAt>
			<styleUrl>#msn_placemark_circle130</styleUrl>
			<Point>
				<gx:drawOrder>1</gx:drawOrder>
				<coordinates>-77.01087273630439,38.88507836278518,0</coordinates>
			</Point>
		</Placemark>
		<Placemark>
			<name>Intsct086</name>
			<visibility>0</visibility>
			<LookAt>
				<longitude>-76.95477563099287</longitude>
				<latitude>38.86496352328957</latitude>
				<altitude>0</altitude>
				<heading>0.04139334231353962</heading>
				<tilt>0</tilt>
				<range>1381.904316162972</range>
				<gx:altitudeMode>relativeToSeaFloor</gx:altitudeMode>
			</LookAt>
			<styleUrl>#msn_placemark_circle130</styleUrl>
			<Point>
				<gx:drawOrder>1</gx:drawOrder>
				<coordinates>-76.95220403607136,38.86596985874893,0</coordinates>
			</Point>
		</Placemark>
		<atom:link rel="app" href="https://www.google.com/earth/about/versions/#earth-pro" title="Google Earth Pro 7.3.6.10201"></atom:link>
	</Folder>
</Document>
</kml>
