<?xml version="1.0" encoding="UTF-8"?>
<kml xmlns="http://www.opengis.net/kml/2.2" xmlns:gx="http://www.google.com/kml/ext/2.2">
    <Document id="1">
        <Style id="4">
            <LineStyle id="5">
                <color>FF0000FF</color>
                <colorMode>normal</colorMode>
                <width>1.5</width>
            </LineStyle>
        </Style>
        <Style id="8">
            <LineStyle id="9">
                <color>FF00FF00</color>
                <colorMode>normal</colorMode>
                <width>1.5</width>
            </LineStyle>
        </Style>
        <Style id="12">
            <LineStyle id="13">
                <color>FFFF0000</color>
                <colorMode>normal</colorMode>
                <width>1.5</width>
            </LineStyle>
        </Style>
        <Style id="16">
            <LineStyle id="17">
                <color>FFFFFF00</color>
                <colorMode>normal</colorMode>
                <width>1.5</width>
            </LineStyle>
        </Style>
        <Style id="20">
            <LineStyle id="21">
                <color>FF00FFFF</color>
                <colorMode>normal</colorMode>
                <width>1.5</width>
            </LineStyle>
        </Style>
        <Style id="24">
            <LineStyle id="25">
                <color>FF00FFFF</color>
                <colorMode>normal</colorMode>
                <width>1.5</width>
            </LineStyle>
        </Style>
        <Style id="28">
            <LineStyle id="29">
                <color>FF00FFFF</color>
                <colorMode>normal</colorMode>
                <width>1.5</width>
            </LineStyle>
        </Style>
        <Style id="32">
            <LineStyle id="33">
                <color>FFFF00FF</color>
                <colorMode>normal</colorMode>
                <width>1.5</width>
            </LineStyle>
        </Style>
        <Style id="36">
            <LineStyle id="37">
                <color>FF0000FF</color>
                <colorMode>normal</colorMode>
                <width>1.5</width>
            </LineStyle>
        </Style>
        <Style id="40">
            <LineStyle id="41">
                <color>FF00FF00</color>
                <colorMode>normal</colorMode>
                <width>1.5</width>
            </LineStyle>
        </Style>
        <Style id="44">
            <LineStyle id="45">
                <color>FFFF0000</color>
                <colorMode>normal</colorMode>
                <width>1.5</width>
            </LineStyle>
        </Style>
        <Style id="48">
            <LineStyle id="49">
                <color>FFFFFF00</color>
                <colorMode>normal</colorMode>
                <width>1.5</width>
            </LineStyle>
        </Style>
        <Style id="52">
            <LineStyle id="53">
                <color>FFFFFF00</color>
                <colorMode>normal</colorMode>
                <width>1.5</width>
            </LineStyle>
        </Style>
        <Style id="56">
            <LineStyle id="57">
                <color>FF00FFFF</color>
                <colorMode>normal</colorMode>
                <width>1.5</width>
            </LineStyle>
        </Style>
        <Style id="60">
            <LineStyle id="61">
                <color>FFFF00FF</color>
                <colorMode>normal</colorMode>
                <width>1.5</width>
            </LineStyle>
        </Style>
        <Style id="64">
            <LineStyle id="65">
                <color>FF0000FF</color>
                <colorMode>normal</colorMode>
                <width>1.5</width>
            </LineStyle>
        </Style>
        <Style id="68">
            <LineStyle id="69">
                <color>FF00FF00</color>
                <colorMode>normal</colorMode>
                <width>1.5</width>
            </LineStyle>
        </Style>
        <Style id="72">
            <LineStyle id="73">
                <color>FFFF0000</color>
                <colorMode>normal</colorMode>
                <width>1.5</width>
            </LineStyle>
        </Style>
        <Style id="76">
            <LineStyle id="77">
                <color>FF00FFFF</color>
                <colorMode>normal</colorMode>
                <width>1.5</width>
            </LineStyle>
        </Style>
        <Style id="80">
            <LineStyle id="81">
                <color>FFFFFF00</color>
                <colorMode>normal</colorMode>
                <width>1.5</width>
            </LineStyle>
        </Style>
        <Style id="84">
            <LineStyle id="85">
                <color>FF00FFFF</color>
                <colorMode>normal</colorMode>
                <width>1.5</width>
            </LineStyle>
        </Style>
        <Style id="88">
            <LineStyle id="89">
                <color>FFFF00FF</color>
                <colorMode>normal</colorMode>
                <width>1.5</width>
            </LineStyle>
        </Style>
        <Style id="92">
            <LineStyle id="93">
                <color>FF0000FF</color>
                <colorMode>normal</colorMode>
                <width>1.5</width>
            </LineStyle>
        </Style>
        <Style id="96">
            <LineStyle id="97">
                <color>FFFF00FF</color>
                <colorMode>normal</colorMode>
                <width>1.5</width>
            </LineStyle>
        </Style>
        <Style id="100">
            <LineStyle id="101">
                <color>FF00FF00</color>
                <colorMode>normal</colorMode>
                <width>1.5</width>
            </LineStyle>
        </Style>
        <Style id="104">
            <LineStyle id="105">
                <color>FFFF0000</color>
                <colorMode>normal</colorMode>
                <width>1.5</width>
            </LineStyle>
        </Style>
        <Style id="108">
            <LineStyle id="109">
                <color>FFFF0000</color>
                <colorMode>normal</colorMode>
                <width>1.5</width>
            </LineStyle>
        </Style>
        <Style id="112">
            <LineStyle id="113">
                <color>FFFFFF00</color>
                <colorMode>normal</colorMode>
                <width>1.5</width>
            </LineStyle>
        </Style>
        <Style id="116">
            <LineStyle id="117">
                <color>FF00FFFF</color>
                <colorMode>normal</colorMode>
                <width>1.5</width>
            </LineStyle>
        </Style>
        <Style id="120">
            <LineStyle id="121">
                <color>FF0000FF</color>
                <colorMode>normal</colorMode>
                <width>1.5</width>
            </LineStyle>
        </Style>
        <Style id="124">
            <LineStyle id="125">
                <color>FF00FF00</color>
                <colorMode>normal</colorMode>
                <width>1.5</width>
            </LineStyle>
        </Style>
        <Style id="128">
            <LineStyle id="129">
                <color>FF00FFFF</color>
                <colorMode>normal</colorMode>
                <width>1.5</width>
            </LineStyle>
        </Style>
        <Style id="132">
            <LineStyle id="133">
                <color>FF00FFFF</color>
                <colorMode>normal</colorMode>
                <width>1.5</width>
            </LineStyle>
        </Style>
        <Style id="136">
            <LineStyle id="137">
                <color>FFFF00FF</color>
                <colorMode>normal</colorMode>
                <width>1.5</width>
            </LineStyle>
        </Style>
        <Style id="140">
            <LineStyle id="141">
                <color>FF0000FF</color>
                <colorMode>normal</colorMode>
                <width>1.5</width>
            </LineStyle>
        </Style>
        <Style id="144">
            <LineStyle id="145">
                <color>FFFF0000</color>
                <colorMode>normal</colorMode>
                <width>1.5</width>
            </LineStyle>
        </Style>
        <Style id="148">
            <LineStyle id="149">
                <color>FF0000FF</color>
                <colorMode>normal</colorMode>
                <width>1.5</width>
            </LineStyle>
        </Style>
        <Style id="152">
            <LineStyle id="153">
                <color>FF0000FF</color>
                <colorMode>normal</colorMode>
                <width>1.5</width>
            </LineStyle>
        </Style>
        <Style id="156">
            <LineStyle id="157">
                <color>FF00FF00</color>
                <colorMode>normal</colorMode>
                <width>1.5</width>
            </LineStyle>
        </Style>
        <Style id="160">
            <LineStyle id="161">
                <color>FFFF0000</color>
                <colorMode>normal</colorMode>
                <width>1.5</width>
            </LineStyle>
        </Style>
        <Style id="164">
            <LineStyle id="165">
                <color>FFFFFF00</color>
                <colorMode>normal</colorMode>
                <width>1.5</width>
            </LineStyle>
        </Style>
        <Style id="168">
            <LineStyle id="169">
                <color>FF00FFFF</color>
                <colorMode>normal</colorMode>
                <width>1.5</width>
            </LineStyle>
        </Style>
        <Style id="172">
            <LineStyle id="173">
                <color>FFFFFF00</color>
                <colorMode>normal</colorMode>
                <width>1.5</width>
            </LineStyle>
        </Style>
        <Style id="176">
            <LineStyle id="177">
                <color>FFFF00FF</color>
                <colorMode>normal</colorMode>
                <width>1.5</width>
            </LineStyle>
        </Style>
        <Style id="180">
            <LineStyle id="181">
                <color>FF00FF00</color>
                <colorMode>normal</colorMode>
                <width>1.5</width>
            </LineStyle>
        </Style>
        <Style id="184">
            <LineStyle id="185">
                <color>FF00FF00</color>
                <colorMode>normal</colorMode>
                <width>1.5</width>
            </LineStyle>
        </Style>
        <Style id="188">
            <LineStyle id="189">
                <color>FF00FF00</color>
                <colorMode>normal</colorMode>
                <width>1.5</width>
            </LineStyle>
        </Style>
        <Style id="192">
            <LineStyle id="193">
                <color>FFFF00FF</color>
                <colorMode>normal</colorMode>
                <width>1.5</width>
            </LineStyle>
        </Style>
        <Style id="196">
            <LineStyle id="197">
                <color>FF0000FF</color>
                <colorMode>normal</colorMode>
                <width>1.5</width>
            </LineStyle>
        </Style>
        <Style id="200">
            <LineStyle id="201">
                <color>FF00FF00</color>
                <colorMode>normal</colorMode>
                <width>1.5</width>
            </LineStyle>
        </Style>
        <Style id="204">
            <LineStyle id="205">
                <color>FF00FF00</color>
                <colorMode>normal</colorMode>
                <width>1.5</width>
            </LineStyle>
        </Style>
        <Style id="208">
            <LineStyle id="209">
                <color>FFFF0000</color>
                <colorMode>normal</colorMode>
                <width>1.5</width>
            </LineStyle>
        </Style>
        <Style id="212">
            <LineStyle id="213">
                <color>FF0000FF</color>
                <colorMode>normal</colorMode>
                <width>1.5</width>
            </LineStyle>
        </Style>
        <Style id="216">
            <LineStyle id="217">
                <color>FF00FF00</color>
                <colorMode>normal</colorMode>
                <width>1.5</width>
            </LineStyle>
        </Style>
        <Style id="220">
            <LineStyle id="221">
                <color>FFFF0000</color>
                <colorMode>normal</colorMode>
                <width>1.5</width>
            </LineStyle>
        </Style>
        <Style id="224">
            <LineStyle id="225">
                <color>FFFFFF00</color>
                <colorMode>normal</colorMode>
                <width>1.5</width>
            </LineStyle>
        </Style>
        <Style id="228">
            <LineStyle id="229">
                <color>FF00FFFF</color>
                <colorMode>normal</colorMode>
                <width>1.5</width>
            </LineStyle>
        </Style>
        <Style id="232">
            <LineStyle id="233">
                <color>FFFFFF00</color>
                <colorMode>normal</colorMode>
                <width>1.5</width>
            </LineStyle>
        </Style>
        <Style id="236">
            <LineStyle id="237">
                <color>FFFF0000</color>
                <colorMode>normal</colorMode>
                <width>1.5</width>
            </LineStyle>
        </Style>
        <Style id="240">
            <LineStyle id="241">
                <color>FFFFFF00</color>
                <colorMode>normal</colorMode>
                <width>1.5</width>
            </LineStyle>
        </Style>
        <Style id="244">
            <LineStyle id="245">
                <color>FFFFFF00</color>
                <colorMode>normal</colorMode>
                <width>1.5</width>
            </LineStyle>
        </Style>
        <Style id="248">
            <LineStyle id="249">
                <color>FFFF0000</color>
                <colorMode>normal</colorMode>
                <width>1.5</width>
            </LineStyle>
        </Style>
        <Style id="252">
            <LineStyle id="253">
                <color>FF00FFFF</color>
                <colorMode>normal</colorMode>
                <width>1.5</width>
            </LineStyle>
        </Style>
        <Style id="256">
            <LineStyle id="257">
                <color>FFFF00FF</color>
                <colorMode>normal</colorMode>
                <width>1.5</width>
            </LineStyle>
        </Style>
        <Style id="260">
            <LineStyle id="261">
                <color>FF0000FF</color>
                <colorMode>normal</colorMode>
                <width>1.5</width>
            </LineStyle>
        </Style>
        <Style id="264">
            <LineStyle id="265">
                <color>FF00FF00</color>
                <colorMode>normal</colorMode>
                <width>1.5</width>
            </LineStyle>
        </Style>
        <Style id="268">
            <LineStyle id="269">
                <color>FFFFFF00</color>
                <colorMode>normal</colorMode>
                <width>1.5</width>
            </LineStyle>
        </Style>
        <Style id="272">
            <LineStyle id="273">
                <color>FFFF0000</color>
                <colorMode>normal</colorMode>
                <width>1.5</width>
            </LineStyle>
        </Style>
        <Style id="276">
            <LineStyle id="277">
                <color>FF00FFFF</color>
                <colorMode>normal</colorMode>
                <width>1.5</width>
            </LineStyle>
        </Style>
        <Style id="280">
            <LineStyle id="281">
                <color>FFFFFF00</color>
                <colorMode>normal</colorMode>
                <width>1.5</width>
            </LineStyle>
        </Style>
        <Style id="284">
            <LineStyle id="285">
                <color>FF00FFFF</color>
                <colorMode>normal</colorMode>
                <width>1.5</width>
            </LineStyle>
        </Style>
        <Style id="288">
            <LineStyle id="289">
                <color>FFFF0000</color>
                <colorMode>normal</colorMode>
                <width>1.5</width>
            </LineStyle>
        </Style>
        <Style id="292">
            <LineStyle id="293">
                <color>FFFF00FF</color>
                <colorMode>normal</colorMode>
                <width>1.5</width>
            </LineStyle>
        </Style>
        <Style id="296">
            <LineStyle id="297">
                <color>FFFF0000</color>
                <colorMode>normal</colorMode>
                <width>1.5</width>
            </LineStyle>
        </Style>
        <Style id="300">
            <LineStyle id="301">
                <color>FF0000FF</color>
                <colorMode>normal</colorMode>
                <width>1.5</width>
            </LineStyle>
        </Style>
        <Style id="304">
            <LineStyle id="305">
                <color>FF0000FF</color>
                <colorMode>normal</colorMode>
                <width>1.5</width>
            </LineStyle>
        </Style>
        <Style id="308">
            <LineStyle id="309">
                <color>FF0000FF</color>
                <colorMode>normal</colorMode>
                <width>1.5</width>
            </LineStyle>
        </Style>
        <Style id="312">
            <LineStyle id="313">
                <color>FF00FF00</color>
                <colorMode>normal</colorMode>
                <width>1.5</width>
            </LineStyle>
        </Style>
        <Style id="316">
            <LineStyle id="317">
                <color>FF0000FF</color>
                <colorMode>normal</colorMode>
                <width>1.5</width>
            </LineStyle>
        </Style>
        <Style id="320">
            <LineStyle id="321">
                <color>FFFF0000</color>
                <colorMode>normal</colorMode>
                <width>1.5</width>
            </LineStyle>
        </Style>
        <Style id="324">
            <LineStyle id="325">
                <color>FF00FFFF</color>
                <colorMode>normal</colorMode>
                <width>1.5</width>
            </LineStyle>
        </Style>
        <Style id="328">
            <LineStyle id="329">
                <color>FF0000FF</color>
                <colorMode>normal</colorMode>
                <width>1.5</width>
            </LineStyle>
        </Style>
        <Style id="332">
            <LineStyle id="333">
                <color>FFFFFF00</color>
                <colorMode>normal</colorMode>
                <width>1.5</width>
            </LineStyle>
        </Style>
        <Style id="336">
            <LineStyle id="337">
                <color>FF0000FF</color>
                <colorMode>normal</colorMode>
                <width>1.5</width>
            </LineStyle>
        </Style>
        <Style id="340">
            <LineStyle id="341">
                <color>FF0000FF</color>
                <colorMode>normal</colorMode>
                <width>1.5</width>
            </LineStyle>
        </Style>
        <Style id="344">
            <LineStyle id="345">
                <color>FFFFFF00</color>
                <colorMode>normal</colorMode>
                <width>1.5</width>
            </LineStyle>
        </Style>
        <Style id="348">
            <LineStyle id="349">
                <color>FFFFFF00</color>
                <colorMode>normal</colorMode>
                <width>1.5</width>
            </LineStyle>
        </Style>
        <Style id="352">
            <LineStyle id="353">
                <color>FFFF00FF</color>
                <colorMode>normal</colorMode>
                <width>1.5</width>
            </LineStyle>
        </Style>
        <Style id="356">
            <LineStyle id="357">
                <color>FF00FFFF</color>
                <colorMode>normal</colorMode>
                <width>1.5</width>
            </LineStyle>
        </Style>
        <name>Filtered Lines</name>
        <description>Lines generated using Spherical calculations.</description>
        <Placemark id="3">
            <name>Intsct067 → Intsct053</name>
            <description>
                
        
<![CDATA[
          <b>RefPnt:</b> Intsct067<br>
          <b>Pnt:</b> Intsct053<br>
          <hr>
          <b>Azimuth (RefPnt→Pnt):</b> 202.498°<br>
          <b>Distance:</b> 0.910 miles<br>
          <b>Back Azimuth (Pnt→RefPnt):</b> 22.493°<br>
          <hr>
          <b>Filter Reason(s):</b> Az Half<br>
          <hr>
          <i>Calculation Method: Spherical</i>
        ]]>                
        
            </description>
            <styleUrl>#4</styleUrl>
            <LineString id="2">
                <coordinates>-76.99952125931438,38.89357874324944,0.0 -77.00599512135395,38.88141052569306,0.0</coordinates>
            </LineString>
        </Placemark>
        <Placemark id="7">
            <name>Intsct003 → Intsct053</name>
            <description>
                
        
<![CDATA[
          <b>RefPnt:</b> Intsct003<br>
          <b>Pnt:</b> Intsct053<br>
          <hr>
          <b>Azimuth (RefPnt→Pnt):</b> 170.501°<br>
          <b>Distance:</b> 4.322 miles<br>
          <b>Back Azimuth (Pnt→RefPnt):</b> 350.509°<br>
          <hr>
          <b>Filter Reason(s):</b> Az Half<br>
          <hr>
          <i>Calculation Method: Spherical</i>
        ]]>                
        
            </description>
            <styleUrl>#8</styleUrl>
            <LineString id="6">
                <coordinates>-77.01925788564746,38.94311235900818,0.0 -77.00599512135395,38.88141052569306,0.0</coordinates>
            </LineString>
        </Placemark>
        <Placemark id="11">
            <name>Intsct024 → Intsct053</name>
            <description>
                
        
<![CDATA[
          <b>RefPnt:</b> Intsct024<br>
          <b>Pnt:</b> Intsct053<br>
          <hr>
          <b>Azimuth (RefPnt→Pnt):</b> 149.498°<br>
          <b>Distance:</b> 6.380 miles<br>
          <b>Back Azimuth (Pnt→RefPnt):</b> 329.536°<br>
          <hr>
          <b>Filter Reason(s):</b> Az Half<br>
          <hr>
          <i>Calculation Method: Spherical</i>
        ]]>                
        
            </description>
            <styleUrl>#12</styleUrl>
            <LineString id="10">
                <coordinates>-77.06621039192564,38.96099564561381,0.0 -77.00599512135395,38.88141052569306,0.0</coordinates>
            </LineString>
        </Placemark>
        <Placemark id="15">
            <name>Intsct062 → Intsct017</name>
            <description>
                
        
<![CDATA[
          <b>RefPnt:</b> Intsct062<br>
          <b>Pnt:</b> Intsct017<br>
          <hr>
          <b>Azimuth (RefPnt→Pnt):</b> 142.504°<br>
          <b>Distance:</b> 7.991 miles<br>
          <b>Back Azimuth (Pnt→RefPnt):</b> 322.561°<br>
          <hr>
          <b>Filter Reason(s):</b> Az Half<br>
          <hr>
          <i>Calculation Method: Spherical</i>
        ]]>                
        
            </description>
            <styleUrl>#16</styleUrl>
            <LineString id="14">
                <coordinates>-77.06640321945628,38.97586671592201,0.0 -76.97594889393882,38.88405616456036,0.0</coordinates>
            </LineString>
        </Placemark>
        <Placemark id="19">
            <name>Intsct017 → Intsct013</name>
            <description>
                
        
<![CDATA[
          <b>RefPnt:</b> Intsct017<br>
          <b>Pnt:</b> Intsct013<br>
          <hr>
          <b>Azimuth (RefPnt→Pnt):</b> 301.496°<br>
          <b>Distance:</b> 3.384 miles<br>
          <b>Back Azimuth (Pnt→RefPnt):</b> 121.462°<br>
          <hr>
          <b>Filter Reason(s):</b> Az Half<br>
          <hr>
          <i>Calculation Method: Spherical</i>
        ]]>                
        
            </description>
            <styleUrl>#20</styleUrl>
            <LineString id="18">
                <coordinates>-76.97594889393882,38.88405616456036,0.0 -77.02962409767211,38.90963432958821,0.0</coordinates>
            </LineString>
        </Placemark>
        <Placemark id="23">
            <name>Intsct017 → Intsct045</name>
            <description>
                
        
<![CDATA[
          <b>RefPnt:</b> Intsct017<br>
          <b>Pnt:</b> Intsct045<br>
          <hr>
          <b>Azimuth (RefPnt→Pnt):</b> 326.003°<br>
          <b>Distance:</b> 5.273 miles<br>
          <b>Back Azimuth (Pnt→RefPnt):</b> 145.969°<br>
          <hr>
          <b>Filter Reason(s):</b> Az Whole<br>
          <hr>
          <i>Calculation Method: Spherical</i>
        ]]>                
        
            </description>
            <styleUrl>#24</styleUrl>
            <LineString id="22">
                <coordinates>-76.97594889393882,38.88405616456036,0.0 -77.03082403465564,38.94732383413034,0.0</coordinates>
            </LineString>
        </Placemark>
        <Placemark id="27">
            <name>Intsct017 → Intsct046</name>
            <description>
                
        
<![CDATA[
          <b>RefPnt:</b> Intsct017<br>
          <b>Pnt:</b> Intsct046<br>
          <hr>
          <b>Azimuth (RefPnt→Pnt):</b> 327.003°<br>
          <b>Distance:</b> 4.852 miles<br>
          <b>Back Azimuth (Pnt→RefPnt):</b> 146.972°<br>
          <hr>
          <b>Filter Reason(s):</b> Az Whole<br>
          <hr>
          <i>Calculation Method: Spherical</i>
        ]]>                
        
            </description>
            <styleUrl>#28</styleUrl>
            <LineString id="26">
                <coordinates>-76.97594889393882,38.88405616456036,0.0 -77.02512898068386,38.9429546594432,0.0</coordinates>
            </LineString>
        </Placemark>
        <Placemark id="31">
            <name>Intsct029 → Intsct050</name>
            <description>
                
        
<![CDATA[
          <b>RefPnt:</b> Intsct029<br>
          <b>Pnt:</b> Intsct050<br>
          <hr>
          <b>Azimuth (RefPnt→Pnt):</b> 125.996°<br>
          <b>Distance:</b> 6.992 miles<br>
          <b>Back Azimuth (Pnt→RefPnt):</b> 306.062°<br>
          <hr>
          <b>Filter Reason(s):</b> Az multiple:18.0<br>
          <hr>
          <i>Calculation Method: Spherical</i>
        ]]>                
        
            </description>
            <styleUrl>#32</styleUrl>
            <LineString id="30">
                <coordinates>-77.08591332655433,38.93791545891371,0.0 -76.98072166352279,38.87838133334684,0.0</coordinates>
            </LineString>
        </Placemark>
        <Placemark id="35">
            <name>Intsct045 → Intsct050</name>
            <description>
                
        
<![CDATA[
          <b>RefPnt:</b> Intsct045<br>
          <b>Pnt:</b> Intsct050<br>
          <hr>
          <b>Azimuth (RefPnt→Pnt):</b> 150.497°<br>
          <b>Distance:</b> 5.471 miles<br>
          <b>Back Azimuth (Pnt→RefPnt):</b> 330.529°<br>
          <hr>
          <b>Filter Reason(s):</b> Az Half<br>
          <hr>
          <i>Calculation Method: Spherical</i>
        ]]>                
        
            </description>
            <styleUrl>#36</styleUrl>
            <LineString id="34">
                <coordinates>-77.03082403465564,38.94732383413034,0.0 -76.98072166352279,38.87838133334684,0.0</coordinates>
            </LineString>
        </Placemark>
        <Placemark id="39">
            <name>Intsct002 → Intsct060</name>
            <description>
                
        
<![CDATA[
          <b>RefPnt:</b> Intsct002<br>
          <b>Pnt:</b> Intsct060<br>
          <hr>
          <b>Azimuth (RefPnt→Pnt):</b> 283.001°<br>
          <b>Distance:</b> 2.675 miles<br>
          <b>Back Azimuth (Pnt→RefPnt):</b> 102.970°<br>
          <hr>
          <b>Filter Reason(s):</b> Az Whole<br>
          <hr>
          <i>Calculation Method: Spherical</i>
        ]]>                
        
            </description>
            <styleUrl>#40</styleUrl>
            <LineString id="38">
                <coordinates>-77.02189994315107,38.94732133567169,0.0 -77.07042460736741,38.95602332325418,0.0</coordinates>
            </LineString>
        </Placemark>
        <Placemark id="43">
            <name>Intsct052 → Intsct030</name>
            <description>
                
        
<![CDATA[
          <b>RefPnt:</b> Intsct052<br>
          <b>Pnt:</b> Intsct030<br>
          <hr>
          <b>Azimuth (RefPnt→Pnt):</b> 304.498°<br>
          <b>Distance:</b> 6.120 miles<br>
          <b>Back Azimuth (Pnt→RefPnt):</b> 124.439°<br>
          <hr>
          <b>Filter Reason(s):</b> Az Half<br>
          <hr>
          <i>Calculation Method: Spherical</i>
        ]]>                
        
            </description>
            <styleUrl>#44</styleUrl>
            <LineString id="42">
                <coordinates>-76.98318242042795,38.88128115290582,0.0 -77.07704000565165,38.93141909888435,0.0</coordinates>
            </LineString>
        </Placemark>
        <Placemark id="47">
            <name>Intsct062 → Intsct082</name>
            <description>
                
        
<![CDATA[
          <b>RefPnt:</b> Intsct062<br>
          <b>Pnt:</b> Intsct082<br>
          <hr>
          <b>Azimuth (RefPnt→Pnt):</b> 157.003°<br>
          <b>Distance:</b> 7.892 miles<br>
          <b>Back Azimuth (Pnt→RefPnt):</b> 337.039°<br>
          <hr>
          <b>Filter Reason(s):</b> Az Whole<br>
          <hr>
          <i>Calculation Method: Spherical</i>
        ]]>                
        
            </description>
            <styleUrl>#48</styleUrl>
            <LineString id="46">
                <coordinates>-77.06640321945628,38.97586671592201,0.0 -77.0090785493361,38.87069432450439,0.0</coordinates>
            </LineString>
        </Placemark>
        <Placemark id="51">
            <name>Intsct056 → Intsct062</name>
            <description>
                
        
<![CDATA[
          <b>RefPnt:</b> Intsct056<br>
          <b>Pnt:</b> Intsct062<br>
          <hr>
          <b>Azimuth (RefPnt→Pnt):</b> 324.004°<br>
          <b>Distance:</b> 8.744 miles<br>
          <b>Back Azimuth (Pnt→RefPnt):</b> 143.944°<br>
          <hr>
          <b>Filter Reason(s):</b> Az multiple:18.0, Az Whole<br>
          <hr>
          <i>Calculation Method: Spherical</i>
        ]]>                
        
            </description>
            <styleUrl>#52</styleUrl>
            <LineString id="50">
                <coordinates>-76.97070467583606,38.87349247971915,0.0 -77.06640321945628,38.97586671592201,0.0</coordinates>
            </LineString>
        </Placemark>
        <Placemark id="55">
            <name>Intsct051 → Intsct073</name>
            <description>
                
        
<![CDATA[
          <b>RefPnt:</b> Intsct051<br>
          <b>Pnt:</b> Intsct073<br>
          <hr>
          <b>Azimuth (RefPnt→Pnt):</b> 347.001°<br>
          <b>Distance:</b> 0.421 miles<br>
          <b>Back Azimuth (Pnt→RefPnt):</b> 167.000°<br>
          <hr>
          <b>Filter Reason(s):</b> Az Whole<br>
          <hr>
          <i>Calculation Method: Spherical</i>
        ]]>                
        
            </description>
            <styleUrl>#56</styleUrl>
            <LineString id="54">
                <coordinates>-76.98552565100998,38.88033775286354,0.0 -76.98728690433322,38.88627641171033,0.0</coordinates>
            </LineString>
        </Placemark>
        <Placemark id="59">
            <name>Intsct065 → Intsct051</name>
            <description>
                
        
<![CDATA[
          <b>RefPnt:</b> Intsct065<br>
          <b>Pnt:</b> Intsct051<br>
          <hr>
          <b>Azimuth (RefPnt→Pnt):</b> 62.503°<br>
          <b>Distance:</b> 0.367 miles<br>
          <b>Back Azimuth (Pnt→RefPnt):</b> 242.507°<br>
          <hr>
          <b>Filter Reason(s):</b> Az Half<br>
          <hr>
          <i>Calculation Method: Spherical</i>
        ]]>                
        
            </description>
            <styleUrl>#60</styleUrl>
            <LineString id="58">
                <coordinates>-76.99158281042443,38.87788360928428,0.0 -76.98552565100998,38.88033775286354,0.0</coordinates>
            </LineString>
        </Placemark>
        <Placemark id="63">
            <name>Intsct085 → Intsct051</name>
            <description>
                
        
<![CDATA[
          <b>RefPnt:</b> Intsct085<br>
          <b>Pnt:</b> Intsct051<br>
          <hr>
          <b>Azimuth (RefPnt→Pnt):</b> 103.502°<br>
          <b>Distance:</b> 1.402 miles<br>
          <b>Back Azimuth (Pnt→RefPnt):</b> 283.518°<br>
          <hr>
          <b>Filter Reason(s):</b> Az Half<br>
          <hr>
          <i>Calculation Method: Spherical</i>
        ]]>                
        
            </description>
            <styleUrl>#64</styleUrl>
            <LineString id="62">
                <coordinates>-77.01087273630439,38.88507836278518,0.0 -76.98552565100998,38.88033775286354,0.0</coordinates>
            </LineString>
        </Placemark>
        <Placemark id="67">
            <name>Intsct071 → Intsct051</name>
            <description>
                
        
<![CDATA[
          <b>RefPnt:</b> Intsct071<br>
          <b>Pnt:</b> Intsct051<br>
          <hr>
          <b>Azimuth (RefPnt→Pnt):</b> 100.005°<br>
          <b>Distance:</b> 1.153 miles<br>
          <b>Back Azimuth (Pnt→RefPnt):</b> 280.018°<br>
          <hr>
          <b>Filter Reason(s):</b> Az Whole<br>
          <hr>
          <i>Calculation Method: Spherical</i>
        ]]>                
        
            </description>
            <styleUrl>#68</styleUrl>
            <LineString id="66">
                <coordinates>-77.0066360573784,38.88323879096329,0.0 -76.98552565100998,38.88033775286354,0.0</coordinates>
            </LineString>
        </Placemark>
        <Placemark id="71">
            <name>Intsct009 → Intsct051</name>
            <description>
                
        
<![CDATA[
          <b>RefPnt:</b> Intsct009<br>
          <b>Pnt:</b> Intsct051<br>
          <hr>
          <b>Azimuth (RefPnt→Pnt):</b> 123.001°<br>
          <b>Distance:</b> 3.715 miles<br>
          <b>Back Azimuth (Pnt→RefPnt):</b> 303.038°<br>
          <hr>
          <b>Filter Reason(s):</b> Az Whole<br>
          <hr>
          <i>Calculation Method: Spherical</i>
        ]]>                
        
            </description>
            <styleUrl>#72</styleUrl>
            <LineString id="70">
                <coordinates>-77.04345942253296,38.90964122798432,0.0 -76.98552565100998,38.88033775286354,0.0</coordinates>
            </LineString>
        </Placemark>
        <Placemark id="75">
            <name>Intsct051 → Intsct013</name>
            <description>
                
        
<![CDATA[
          <b>RefPnt:</b> Intsct051<br>
          <b>Pnt:</b> Intsct013<br>
          <hr>
          <b>Azimuth (RefPnt→Pnt):</b> 310.497°<br>
          <b>Distance:</b> 3.117 miles<br>
          <b>Back Azimuth (Pnt→RefPnt):</b> 130.470°<br>
          <hr>
          <b>Filter Reason(s):</b> Az Half<br>
          <hr>
          <i>Calculation Method: Spherical</i>
        ]]>                
        
            </description>
            <styleUrl>#76</styleUrl>
            <LineString id="74">
                <coordinates>-76.98552565100998,38.88033775286354,0.0 -77.02962409767211,38.90963432958821,0.0</coordinates>
            </LineString>
        </Placemark>
        <Placemark id="79">
            <name>Intsct073 → Intsct022</name>
            <description>
                
        
<![CDATA[
          <b>RefPnt:</b> Intsct073<br>
          <b>Pnt:</b> Intsct022<br>
          <hr>
          <b>Azimuth (RefPnt→Pnt):</b> 343.004°<br>
          <b>Distance:</b> 5.086 miles<br>
          <b>Back Azimuth (Pnt→RefPnt):</b> 162.987°<br>
          <hr>
          <b>Filter Reason(s):</b> Az Whole<br>
          <hr>
          <i>Calculation Method: Spherical</i>
        ]]>                
        
            </description>
            <styleUrl>#80</styleUrl>
            <LineString id="78">
                <coordinates>-76.98728690433322,38.88627641171033,0.0 -77.01496041933852,38.9566796552525,0.0</coordinates>
            </LineString>
        </Placemark>
        <Placemark id="83">
            <name>Intsct061 → Intsct057</name>
            <description>
                
        
<![CDATA[
          <b>RefPnt:</b> Intsct061<br>
          <b>Pnt:</b> Intsct057<br>
          <hr>
          <b>Azimuth (RefPnt→Pnt):</b> 134.501°<br>
          <b>Distance:</b> 7.553 miles<br>
          <b>Back Azimuth (Pnt→RefPnt):</b> 314.564°<br>
          <hr>
          <b>Filter Reason(s):</b> Az Half<br>
          <hr>
          <i>Calculation Method: Spherical</i>
        ]]>                
        
            </description>
            <styleUrl>#84</styleUrl>
            <LineString id="82">
                <coordinates>-77.08572303514397,38.96078609168632,0.0 -76.98553999503207,38.88410581119781,0.0</coordinates>
            </LineString>
        </Placemark>
        <Placemark id="87">
            <name>Intsct057 → Intsct022</name>
            <description>
                
        
<![CDATA[
          <b>RefPnt:</b> Intsct057<br>
          <b>Pnt:</b> Intsct022<br>
          <hr>
          <b>Azimuth (RefPnt→Pnt):</b> 342.504°<br>
          <b>Distance:</b> 5.257 miles<br>
          <b>Back Azimuth (Pnt→RefPnt):</b> 162.486°<br>
          <hr>
          <b>Filter Reason(s):</b> Az Half<br>
          <hr>
          <i>Calculation Method: Spherical</i>
        ]]>                
        
            </description>
            <styleUrl>#88</styleUrl>
            <LineString id="86">
                <coordinates>-76.98553999503207,38.88410581119781,0.0 -77.01496041933852,38.9566796552525,0.0</coordinates>
            </LineString>
        </Placemark>
        <Placemark id="91">
            <name>Intsct083 → Intsct057</name>
            <description>
                
        
<![CDATA[
          <b>RefPnt:</b> Intsct083<br>
          <b>Pnt:</b> Intsct057<br>
          <hr>
          <b>Azimuth (RefPnt→Pnt):</b> 317.001°<br>
          <b>Distance:</b> 2.091 miles<br>
          <b>Back Azimuth (Pnt→RefPnt):</b> 136.985°<br>
          <hr>
          <b>Filter Reason(s):</b> Az Whole<br>
          <hr>
          <i>Calculation Method: Spherical</i>
        ]]>                
        
            </description>
            <styleUrl>#92</styleUrl>
            <LineString id="90">
                <coordinates>-76.95902409071122,38.86197363998543,0.0 -76.98553999503207,38.88410581119781,0.0</coordinates>
            </LineString>
        </Placemark>
        <Placemark id="95">
            <name>Intsct065 → Intsct084</name>
            <description>
                
        
<![CDATA[
          <b>RefPnt:</b> Intsct065<br>
          <b>Pnt:</b> Intsct084<br>
          <hr>
          <b>Azimuth (RefPnt→Pnt):</b> 116.814°<br>
          <b>Distance:</b> 1.000 miles<br>
          <b>Back Azimuth (Pnt→RefPnt):</b> 296.824°<br>
          <hr>
          <b>Filter Reason(s):</b> Dist Whole<br>
          <hr>
          <i>Calculation Method: Spherical</i>
        ]]>                
        
            </description>
            <styleUrl>#96</styleUrl>
            <LineString id="94">
                <coordinates>-76.99158281042443,38.87788360928428,0.0 -76.97498797962025,38.87135220237067,0.0</coordinates>
            </LineString>
        </Placemark>
        <Placemark id="99">
            <name>Intsct084 → Intsct065</name>
            <description>
                
        
<![CDATA[
          <b>RefPnt:</b> Intsct084<br>
          <b>Pnt:</b> Intsct065<br>
          <hr>
          <b>Azimuth (RefPnt→Pnt):</b> 296.824°<br>
          <b>Distance:</b> 1.000 miles<br>
          <b>Back Azimuth (Pnt→RefPnt):</b> 116.814°<br>
          <hr>
          <b>Filter Reason(s):</b> Dist Whole<br>
          <hr>
          <i>Calculation Method: Spherical</i>
        ]]>                
        
            </description>
            <styleUrl>#100</styleUrl>
            <LineString id="98">
                <coordinates>-76.97498797962025,38.87135220237067,0.0 -76.99158281042443,38.87788360928428,0.0</coordinates>
            </LineString>
        </Placemark>
        <Placemark id="103">
            <name>Intsct016 → Intsct063</name>
            <description>
                
        
<![CDATA[
          <b>RefPnt:</b> Intsct016<br>
          <b>Pnt:</b> Intsct063<br>
          <hr>
          <b>Azimuth (RefPnt→Pnt):</b> 316.004°<br>
          <b>Distance:</b> 3.590 miles<br>
          <b>Back Azimuth (Pnt→RefPnt):</b> 135.975°<br>
          <hr>
          <b>Filter Reason(s):</b> Az Whole<br>
          <hr>
          <i>Calculation Method: Spherical</i>
        ]]>                
        
            </description>
            <styleUrl>#104</styleUrl>
            <LineString id="102">
                <coordinates>-77.0448188981081,38.91909113698802,0.0 -77.09124163684234,38.95646960864397,0.0</coordinates>
            </LineString>
        </Placemark>
        <Placemark id="107">
            <name>Intsct009 → Intsct064</name>
            <description>
                
        
<![CDATA[
          <b>RefPnt:</b> Intsct009<br>
          <b>Pnt:</b> Intsct064<br>
          <hr>
          <b>Azimuth (RefPnt→Pnt):</b> 101.498°<br>
          <b>Distance:</b> 3.293 miles<br>
          <b>Back Azimuth (Pnt→RefPnt):</b> 281.536°<br>
          <hr>
          <b>Filter Reason(s):</b> Az Half<br>
          <hr>
          <i>Calculation Method: Spherical</i>
        ]]>                
        
            </description>
            <styleUrl>#108</styleUrl>
            <LineString id="106">
                <coordinates>-77.04345942253296,38.90964122798432,0.0 -76.9834356610381,38.90012330071623,0.0</coordinates>
            </LineString>
        </Placemark>
        <Placemark id="111">
            <name>Intsct010 → Intsct058</name>
            <description>
                
        
<![CDATA[
          <b>RefPnt:</b> Intsct010<br>
          <b>Pnt:</b> Intsct058<br>
          <hr>
          <b>Azimuth (RefPnt→Pnt):</b> 113.499°<br>
          <b>Distance:</b> 2.438 miles<br>
          <b>Back Azimuth (Pnt→RefPnt):</b> 293.525°<br>
          <hr>
          <b>Filter Reason(s):</b> Az Half<br>
          <hr>
          <i>Calculation Method: Spherical</i>
        ]]>                
        
            </description>
            <styleUrl>#112</styleUrl>
            <LineString id="110">
                <coordinates>-77.03657097283033,38.89828563763562,0.0 -76.99499976259511,38.88420836887803,0.0</coordinates>
            </LineString>
        </Placemark>
        <Placemark id="115">
            <name>Intsct014 → Intsct076</name>
            <description>
                
        
<![CDATA[
          <b>RefPnt:</b> Intsct014<br>
          <b>Pnt:</b> Intsct076<br>
          <hr>
          <b>Azimuth (RefPnt→Pnt):</b> 90.005°<br>
          <b>Distance:</b> 3.334 miles<br>
          <b>Back Azimuth (Pnt→RefPnt):</b> 270.044°<br>
          <hr>
          <b>Filter Reason(s):</b> Az multiple:18.0, Az Whole<br>
          <hr>
          <i>Calculation Method: Spherical</i>
        ]]>                
        
            </description>
            <styleUrl>#116</styleUrl>
            <LineString id="114">
                <coordinates>-77.03197530601018,38.90564871624386,0.0 -76.96995567470593,38.90562823083018,0.0</coordinates>
            </LineString>
        </Placemark>
        <Placemark id="119">
            <name>Intsct085 → Intsct045</name>
            <description>
                
        
<![CDATA[
          <b>RefPnt:</b> Intsct085<br>
          <b>Pnt:</b> Intsct045<br>
          <hr>
          <b>Azimuth (RefPnt→Pnt):</b> 346.003°<br>
          <b>Distance:</b> 4.432 miles<br>
          <b>Back Azimuth (Pnt→RefPnt):</b> 165.990°<br>
          <hr>
          <b>Filter Reason(s):</b> Az Whole<br>
          <hr>
          <i>Calculation Method: Spherical</i>
        ]]>                
        
            </description>
            <styleUrl>#120</styleUrl>
            <LineString id="118">
                <coordinates>-77.01087273630439,38.88507836278518,0.0 -77.03082403465564,38.94732383413034,0.0</coordinates>
            </LineString>
        </Placemark>
        <Placemark id="123">
            <name>Intsct002 → Intsct071</name>
            <description>
                
        
<![CDATA[
          <b>RefPnt:</b> Intsct002<br>
          <b>Pnt:</b> Intsct071<br>
          <hr>
          <b>Azimuth (RefPnt→Pnt):</b> 169.496°<br>
          <b>Distance:</b> 4.502 miles<br>
          <b>Back Azimuth (Pnt→RefPnt):</b> 349.505°<br>
          <hr>
          <b>Filter Reason(s):</b> Az Half<br>
          <hr>
          <i>Calculation Method: Spherical</i>
        ]]>                
        
            </description>
            <styleUrl>#124</styleUrl>
            <LineString id="122">
                <coordinates>-77.02189994315107,38.94732133567169,0.0 -77.0066360573784,38.88323879096329,0.0</coordinates>
            </LineString>
        </Placemark>
        <Placemark id="127">
            <name>Intsct061 → Intsct006</name>
            <description>
                
        
<![CDATA[
          <b>RefPnt:</b> Intsct061<br>
          <b>Pnt:</b> Intsct006<br>
          <hr>
          <b>Azimuth (RefPnt→Pnt):</b> 146.496°<br>
          <b>Distance:</b> 3.848 miles<br>
          <b>Back Azimuth (Pnt→RefPnt):</b> 326.521°<br>
          <hr>
          <b>Filter Reason(s):</b> Az Half<br>
          <hr>
          <i>Calculation Method: Spherical</i>
        ]]>                
        
            </description>
            <styleUrl>#128</styleUrl>
            <LineString id="126">
                <coordinates>-77.08572303514397,38.96078609168632,0.0 -77.04620702352959,38.91433287563066,0.0</coordinates>
            </LineString>
        </Placemark>
        <Placemark id="131">
            <name>Intsct061 → Intsct054</name>
            <description>
                
        
<![CDATA[
          <b>RefPnt:</b> Intsct061<br>
          <b>Pnt:</b> Intsct054<br>
          <hr>
          <b>Azimuth (RefPnt→Pnt):</b> 124.499°<br>
          <b>Distance:</b> 8.653 miles<br>
          <b>Back Azimuth (Pnt→RefPnt):</b> 304.583°<br>
          <hr>
          <b>Filter Reason(s):</b> Az Half<br>
          <hr>
          <i>Calculation Method: Spherical</i>
        ]]>                
        
            </description>
            <styleUrl>#132</styleUrl>
            <LineString id="130">
                <coordinates>-77.08572303514397,38.96078609168632,0.0 -76.95309039068846,38.88976099356584,0.0</coordinates>
            </LineString>
        </Placemark>
        <Placemark id="135">
            <name>Intsct079 → Intsct061</name>
            <description>
                
        
<![CDATA[
          <b>RefPnt:</b> Intsct079<br>
          <b>Pnt:</b> Intsct061<br>
          <hr>
          <b>Azimuth (RefPnt→Pnt):</b> 323.995°<br>
          <b>Distance:</b> 5.736 miles<br>
          <b>Back Azimuth (Pnt→RefPnt):</b> 143.956°<br>
          <hr>
          <b>Filter Reason(s):</b> Az multiple:18.0<br>
          <hr>
          <i>Calculation Method: Spherical</i>
        ]]>                
        
            </description>
            <styleUrl>#136</styleUrl>
            <LineString id="134">
                <coordinates>-77.02295020167529,38.89363293216059,0.0 -77.08572303514397,38.96078609168632,0.0</coordinates>
            </LineString>
        </Placemark>
        <Placemark id="139">
            <name>Intsct082 → Intsct006</name>
            <description>
                
        
<![CDATA[
          <b>RefPnt:</b> Intsct082<br>
          <b>Pnt:</b> Intsct006<br>
          <hr>
          <b>Azimuth (RefPnt→Pnt):</b> 326.499°<br>
          <b>Distance:</b> 3.616 miles<br>
          <b>Back Azimuth (Pnt→RefPnt):</b> 146.475°<br>
          <hr>
          <b>Filter Reason(s):</b> Az Half<br>
          <hr>
          <i>Calculation Method: Spherical</i>
        ]]>                
        
            </description>
            <styleUrl>#140</styleUrl>
            <LineString id="138">
                <coordinates>-77.0090785493361,38.87069432450439,0.0 -77.04620702352959,38.91433287563066,0.0</coordinates>
            </LineString>
        </Placemark>
        <Placemark id="143">
            <name>Intsct009 → Intsct082</name>
            <description>
                
        
<![CDATA[
          <b>RefPnt:</b> Intsct009<br>
          <b>Pnt:</b> Intsct082<br>
          <hr>
          <b>Azimuth (RefPnt→Pnt):</b> 145.496°<br>
          <b>Distance:</b> 3.264 miles<br>
          <b>Back Azimuth (Pnt→RefPnt):</b> 325.518°<br>
          <hr>
          <b>Filter Reason(s):</b> Az Half<br>
          <hr>
          <i>Calculation Method: Spherical</i>
        ]]>                
        
            </description>
            <styleUrl>#144</styleUrl>
            <LineString id="142">
                <coordinates>-77.04345942253296,38.90964122798432,0.0 -77.0090785493361,38.87069432450439,0.0</coordinates>
            </LineString>
        </Placemark>
        <Placemark id="147">
            <name>Intsct082 → Intsct020</name>
            <description>
                
        
<![CDATA[
          <b>RefPnt:</b> Intsct082<br>
          <b>Pnt:</b> Intsct020<br>
          <hr>
          <b>Azimuth (RefPnt→Pnt):</b> 327.501°<br>
          <b>Distance:</b> 3.734 miles<br>
          <b>Back Azimuth (Pnt→RefPnt):</b> 147.478°<br>
          <hr>
          <b>Filter Reason(s):</b> Az Half<br>
          <hr>
          <i>Calculation Method: Spherical</i>
        ]]>                
        
            </description>
            <styleUrl>#148</styleUrl>
            <LineString id="146">
                <coordinates>-77.0090785493361,38.87069432450439,0.0 -77.0464033512485,38.91627565832813,0.0</coordinates>
            </LineString>
        </Placemark>
        <Placemark id="151">
            <name>Intsct082 → Intsct023</name>
            <description>
                
        
<![CDATA[
          <b>RefPnt:</b> Intsct082<br>
          <b>Pnt:</b> Intsct023<br>
          <hr>
          <b>Azimuth (RefPnt→Pnt):</b> 0.004°<br>
          <b>Distance:</b> 5.945 miles<br>
          <b>Back Azimuth (Pnt→RefPnt):</b> 180.004°<br>
          <hr>
          <b>Filter Reason(s):</b> Az multiple:18.0, Az Whole<br>
          <hr>
          <i>Calculation Method: Spherical</i>
        ]]>                
        
            </description>
            <styleUrl>#152</styleUrl>
            <LineString id="150">
                <coordinates>-77.0090785493361,38.87069432450439,0.0 -77.00907050221514,38.95675069279367,0.0</coordinates>
            </LineString>
        </Placemark>
        <Placemark id="155">
            <name>Intsct023 → Intsct082</name>
            <description>
                
        
<![CDATA[
          <b>RefPnt:</b> Intsct023<br>
          <b>Pnt:</b> Intsct082<br>
          <hr>
          <b>Azimuth (RefPnt→Pnt):</b> 180.004°<br>
          <b>Distance:</b> 5.945 miles<br>
          <b>Back Azimuth (Pnt→RefPnt):</b> 0.004°<br>
          <hr>
          <b>Filter Reason(s):</b> Az multiple:18.0, Az Whole<br>
          <hr>
          <i>Calculation Method: Spherical</i>
        ]]>                
        
            </description>
            <styleUrl>#156</styleUrl>
            <LineString id="154">
                <coordinates>-77.00907050221514,38.95675069279367,0.0 -77.0090785493361,38.87069432450439,0.0</coordinates>
            </LineString>
        </Placemark>
        <Placemark id="159">
            <name>Intsct068 → Intsct080</name>
            <description>
                
        
<![CDATA[
          <b>RefPnt:</b> Intsct068<br>
          <b>Pnt:</b> Intsct080<br>
          <hr>
          <b>Azimuth (RefPnt→Pnt):</b> 274.498°<br>
          <b>Distance:</b> 2.575 miles<br>
          <b>Back Azimuth (Pnt→RefPnt):</b> 94.468°<br>
          <hr>
          <b>Filter Reason(s):</b> Az Half<br>
          <hr>
          <i>Calculation Method: Spherical</i>
        ]]>                
        
            </description>
            <styleUrl>#160</styleUrl>
            <LineString id="158">
                <coordinates>-77.00585067211077,38.89606887058728,0.0 -77.0536003134196,38.89898261126365,0.0</coordinates>
            </LineString>
        </Placemark>
        <Placemark id="163">
            <name>Intsct001 → Intsct046</name>
            <description>
                
        
<![CDATA[
          <b>RefPnt:</b> Intsct001<br>
          <b>Pnt:</b> Intsct046<br>
          <hr>
          <b>Azimuth (RefPnt→Pnt):</b> 31.068°<br>
          <b>Distance:</b> 0.054 miles<br>
          <b>Back Azimuth (Pnt→RefPnt):</b> 211.068°<br>
          <hr>
          <b>Filter Reason(s):</b> Dist factor:14.142<br>
          <hr>
          <i>Calculation Method: Spherical</i>
        ]]>                
        
            </description>
            <styleUrl>#164</styleUrl>
            <LineString id="162">
                <coordinates>-77.02564349128788,38.94229044600678,0.0 -77.02512898068386,38.9429546594432,0.0</coordinates>
            </LineString>
        </Placemark>
        <Placemark id="167">
            <name>Intsct046 → Intsct001</name>
            <description>
                
        
<![CDATA[
          <b>RefPnt:</b> Intsct046<br>
          <b>Pnt:</b> Intsct001<br>
          <hr>
          <b>Azimuth (RefPnt→Pnt):</b> 211.068°<br>
          <b>Distance:</b> 0.054 miles<br>
          <b>Back Azimuth (Pnt→RefPnt):</b> 31.068°<br>
          <hr>
          <b>Filter Reason(s):</b> Dist factor:14.142<br>
          <hr>
          <i>Calculation Method: Spherical</i>
        ]]>                
        
            </description>
            <styleUrl>#168</styleUrl>
            <LineString id="166">
                <coordinates>-77.02512898068386,38.9429546594432,0.0 -77.02564349128788,38.94229044600678,0.0</coordinates>
            </LineString>
        </Placemark>
        <Placemark id="171">
            <name>Intsct001 → Intsct078</name>
            <description>
                
        
<![CDATA[
          <b>RefPnt:</b> Intsct001<br>
          <b>Pnt:</b> Intsct078<br>
          <hr>
          <b>Azimuth (RefPnt→Pnt):</b> 177.003°<br>
          <b>Distance:</b> 2.744 miles<br>
          <b>Back Azimuth (Pnt→RefPnt):</b> 357.004°<br>
          <hr>
          <b>Filter Reason(s):</b> Az Whole<br>
          <hr>
          <i>Calculation Method: Spherical</i>
        ]]>                
        
            </description>
            <styleUrl>#172</styleUrl>
            <LineString id="170">
                <coordinates>-77.02564349128788,38.94229044600678,0.0 -77.02297408574574,38.90261744671308,0.0</coordinates>
            </LineString>
        </Placemark>
        <Placemark id="175">
            <name>Intsct078 → Intsct001</name>
            <description>
                
        
<![CDATA[
          <b>RefPnt:</b> Intsct078<br>
          <b>Pnt:</b> Intsct001<br>
          <hr>
          <b>Azimuth (RefPnt→Pnt):</b> 357.004°<br>
          <b>Distance:</b> 2.744 miles<br>
          <b>Back Azimuth (Pnt→RefPnt):</b> 177.003°<br>
          <hr>
          <b>Filter Reason(s):</b> Az Whole<br>
          <hr>
          <i>Calculation Method: Spherical</i>
        ]]>                
        
            </description>
            <styleUrl>#176</styleUrl>
            <LineString id="174">
                <coordinates>-77.02297408574574,38.90261744671308,0.0 -77.02564349128788,38.94229044600678,0.0</coordinates>
            </LineString>
        </Placemark>
        <Placemark id="179">
            <name>Intsct002 → Intsct009</name>
            <description>
                
        
<![CDATA[
          <b>RefPnt:</b> Intsct002<br>
          <b>Pnt:</b> Intsct009<br>
          <hr>
          <b>Azimuth (RefPnt→Pnt):</b> 204.001°<br>
          <b>Distance:</b> 2.849 miles<br>
          <b>Back Azimuth (Pnt→RefPnt):</b> 23.988°<br>
          <hr>
          <b>Filter Reason(s):</b> Az Whole<br>
          <hr>
          <i>Calculation Method: Spherical</i>
        ]]>                
        
            </description>
            <styleUrl>#180</styleUrl>
            <LineString id="178">
                <coordinates>-77.02189994315107,38.94732133567169,0.0 -77.04345942253296,38.90964122798432,0.0</coordinates>
            </LineString>
        </Placemark>
        <Placemark id="183">
            <name>Intsct002 → Intsct028</name>
            <description>
                
        
<![CDATA[
          <b>RefPnt:</b> Intsct002<br>
          <b>Pnt:</b> Intsct028<br>
          <hr>
          <b>Azimuth (RefPnt→Pnt):</b> 271.502°<br>
          <b>Distance:</b> 4.250 miles<br>
          <b>Back Azimuth (Pnt→RefPnt):</b> 91.452°<br>
          <hr>
          <b>Filter Reason(s):</b> Az Half<br>
          <hr>
          <i>Calculation Method: Spherical</i>
        ]]>                
        
            </description>
            <styleUrl>#184</styleUrl>
            <LineString id="182">
                <coordinates>-77.02189994315107,38.94732133567169,0.0 -77.1009746858736,38.94890691318262,0.0</coordinates>
            </LineString>
        </Placemark>
        <Placemark id="187">
            <name>Intsct002 → Intsct029</name>
            <description>
                
        
<![CDATA[
          <b>RefPnt:</b> Intsct002<br>
          <b>Pnt:</b> Intsct029<br>
          <hr>
          <b>Azimuth (RefPnt→Pnt):</b> 259.322°<br>
          <b>Distance:</b> 3.500 miles<br>
          <b>Back Azimuth (Pnt→RefPnt):</b> 79.282°<br>
          <hr>
          <b>Filter Reason(s):</b> Dist Half<br>
          <hr>
          <i>Calculation Method: Spherical</i>
        ]]>                
        
            </description>
            <styleUrl>#188</styleUrl>
            <LineString id="186">
                <coordinates>-77.02189994315107,38.94732133567169,0.0 -77.08591332655433,38.93791545891371,0.0</coordinates>
            </LineString>
        </Placemark>
        <Placemark id="191">
            <name>Intsct029 → Intsct002</name>
            <description>
                
        
<![CDATA[
          <b>RefPnt:</b> Intsct029<br>
          <b>Pnt:</b> Intsct002<br>
          <hr>
          <b>Azimuth (RefPnt→Pnt):</b> 79.282°<br>
          <b>Distance:</b> 3.500 miles<br>
          <b>Back Azimuth (Pnt→RefPnt):</b> 259.322°<br>
          <hr>
          <b>Filter Reason(s):</b> Dist Half<br>
          <hr>
          <i>Calculation Method: Spherical</i>
        ]]>                
        
            </description>
            <styleUrl>#192</styleUrl>
            <LineString id="190">
                <coordinates>-77.08591332655433,38.93791545891371,0.0 -77.02189994315107,38.94732133567169,0.0</coordinates>
            </LineString>
        </Placemark>
        <Placemark id="195">
            <name>Intsct025 → Intsct003</name>
            <description>
                
        
<![CDATA[
          <b>RefPnt:</b> Intsct025<br>
          <b>Pnt:</b> Intsct003<br>
          <hr>
          <b>Azimuth (RefPnt→Pnt):</b> 126.497°<br>
          <b>Distance:</b> 2.784 miles<br>
          <b>Back Azimuth (Pnt→RefPnt):</b> 306.524°<br>
          <hr>
          <b>Filter Reason(s):</b> Az Half<br>
          <hr>
          <i>Calculation Method: Spherical</i>
        ]]>                
        
            </description>
            <styleUrl>#196</styleUrl>
            <LineString id="194">
                <coordinates>-77.06091028980671,38.96708931164586,0.0 -77.01925788564746,38.94311235900818,0.0</coordinates>
            </LineString>
        </Placemark>
        <Placemark id="199">
            <name>Intsct003 → Intsct054</name>
            <description>
                
        
<![CDATA[
          <b>RefPnt:</b> Intsct003<br>
          <b>Pnt:</b> Intsct054<br>
          <hr>
          <b>Azimuth (RefPnt→Pnt):</b> 136.001°<br>
          <b>Distance:</b> 5.122 miles<br>
          <b>Back Azimuth (Pnt→RefPnt):</b> 316.042°<br>
          <hr>
          <b>Filter Reason(s):</b> Az Whole<br>
          <hr>
          <i>Calculation Method: Spherical</i>
        ]]>                
        
            </description>
            <styleUrl>#200</styleUrl>
            <LineString id="198">
                <coordinates>-77.01925788564746,38.94311235900818,0.0 -76.95309039068846,38.88976099356584,0.0</coordinates>
            </LineString>
        </Placemark>
        <Placemark id="203">
            <name>Intsct003 → Intsct056</name>
            <description>
                
        
<![CDATA[
          <b>RefPnt:</b> Intsct003<br>
          <b>Pnt:</b> Intsct056<br>
          <hr>
          <b>Azimuth (RefPnt→Pnt):</b> 151.497°<br>
          <b>Distance:</b> 5.472 miles<br>
          <b>Back Azimuth (Pnt→RefPnt):</b> 331.527°<br>
          <hr>
          <b>Filter Reason(s):</b> Az Half<br>
          <hr>
          <i>Calculation Method: Spherical</i>
        ]]>                
        
            </description>
            <styleUrl>#204</styleUrl>
            <LineString id="202">
                <coordinates>-77.01925788564746,38.94311235900818,0.0 -76.97070467583606,38.87349247971915,0.0</coordinates>
            </LineString>
        </Placemark>
        <Placemark id="207">
            <name>Intsct068 → Intsct003</name>
            <description>
                
        
<![CDATA[
          <b>RefPnt:</b> Intsct068<br>
          <b>Pnt:</b> Intsct003<br>
          <hr>
          <b>Azimuth (RefPnt→Pnt):</b> 347.502°<br>
          <b>Distance:</b> 3.329 miles<br>
          <b>Back Azimuth (Pnt→RefPnt):</b> 167.494°<br>
          <hr>
          <b>Filter Reason(s):</b> Az Half<br>
          <hr>
          <i>Calculation Method: Spherical</i>
        ]]>                
        
            </description>
            <styleUrl>#208</styleUrl>
            <LineString id="206">
                <coordinates>-77.00585067211077,38.89606887058728,0.0 -77.01925788564746,38.94311235900818,0.0</coordinates>
            </LineString>
        </Placemark>
        <Placemark id="211">
            <name>Intsct083 → Intsct003</name>
            <description>
                
        
<![CDATA[
          <b>RefPnt:</b> Intsct083<br>
          <b>Pnt:</b> Intsct003<br>
          <hr>
          <b>Azimuth (RefPnt→Pnt):</b> 330.003°<br>
          <b>Distance:</b> 6.473 miles<br>
          <b>Back Azimuth (Pnt→RefPnt):</b> 149.966°<br>
          <hr>
          <b>Filter Reason(s):</b> Az Whole<br>
          <hr>
          <i>Calculation Method: Spherical</i>
        ]]>                
        
            </description>
            <styleUrl>#212</styleUrl>
            <LineString id="210">
                <coordinates>-76.95902409071122,38.86197363998543,0.0 -77.01925788564746,38.94311235900818,0.0</coordinates>
            </LineString>
        </Placemark>
        <Placemark id="215">
            <name>Intsct055 → Intsct004</name>
            <description>
                
        
<![CDATA[
          <b>RefPnt:</b> Intsct055<br>
          <b>Pnt:</b> Intsct004<br>
          <hr>
          <b>Azimuth (RefPnt→Pnt):</b> 320.003°<br>
          <b>Distance:</b> 5.251 miles<br>
          <b>Back Azimuth (Pnt→RefPnt):</b> 139.964°<br>
          <hr>
          <b>Filter Reason(s):</b> Az Whole<br>
          <hr>
          <i>Calculation Method: Spherical</i>
        ]]>                
        
            </description>
            <styleUrl>#216</styleUrl>
            <LineString id="214">
                <coordinates>-76.9614875714194,38.87809959050269,0.0 -77.02430295127219,38.93631910832696,0.0</coordinates>
            </LineString>
        </Placemark>
        <Placemark id="219">
            <name>Intsct020 → Intsct005</name>
            <description>
                
        
<![CDATA[
          <b>RefPnt:</b> Intsct020<br>
          <b>Pnt:</b> Intsct005<br>
          <hr>
          <b>Azimuth (RefPnt→Pnt):</b> 95.498°<br>
          <b>Distance:</b> 1.549 miles<br>
          <b>Back Azimuth (Pnt→RefPnt):</b> 275.516°<br>
          <hr>
          <b>Filter Reason(s):</b> Az Half<br>
          <hr>
          <i>Calculation Method: Spherical</i>
        ]]>                
        
            </description>
            <styleUrl>#220</styleUrl>
            <LineString id="218">
                <coordinates>-77.0464033512485,38.91627565832813,0.0 -77.01770865052809,38.9141232636027,0.0</coordinates>
            </LineString>
        </Placemark>
        <Placemark id="223">
            <name>Intsct006 → Intsct008</name>
            <description>
                
        
<![CDATA[
          <b>RefPnt:</b> Intsct006<br>
          <b>Pnt:</b> Intsct008<br>
          <hr>
          <b>Azimuth (RefPnt→Pnt):</b> 194.499°<br>
          <b>Distance:</b> 0.843 miles<br>
          <b>Back Azimuth (Pnt→RefPnt):</b> 14.497°<br>
          <hr>
          <b>Filter Reason(s):</b> Az Half<br>
          <hr>
          <i>Calculation Method: Spherical</i>
        ]]>                
        
            </description>
            <styleUrl>#224</styleUrl>
            <LineString id="222">
                <coordinates>-77.04620702352959,38.91433287563066,0.0 -77.05013189771242,38.90252157183857,0.0</coordinates>
            </LineString>
        </Placemark>
        <Placemark id="227">
            <name>Intsct008 → Intsct006</name>
            <description>
                
        
<![CDATA[
          <b>RefPnt:</b> Intsct008<br>
          <b>Pnt:</b> Intsct006<br>
          <hr>
          <b>Azimuth (RefPnt→Pnt):</b> 14.497°<br>
          <b>Distance:</b> 0.843 miles<br>
          <b>Back Azimuth (Pnt→RefPnt):</b> 194.499°<br>
          <hr>
          <b>Filter Reason(s):</b> Az Half<br>
          <hr>
          <i>Calculation Method: Spherical</i>
        ]]>                
        
            </description>
            <styleUrl>#228</styleUrl>
            <LineString id="226">
                <coordinates>-77.05013189771242,38.90252157183857,0.0 -77.04620702352959,38.91433287563066,0.0</coordinates>
            </LineString>
        </Placemark>
        <Placemark id="231">
            <name>Intsct006 → Intsct009</name>
            <description>
                
        
<![CDATA[
          <b>RefPnt:</b> Intsct006<br>
          <b>Pnt:</b> Intsct009<br>
          <hr>
          <b>Azimuth (RefPnt→Pnt):</b> 155.501°<br>
          <b>Distance:</b> 0.356 miles<br>
          <b>Back Azimuth (Pnt→RefPnt):</b> 335.503°<br>
          <hr>
          <b>Filter Reason(s):</b> Az Half<br>
          <hr>
          <i>Calculation Method: Spherical</i>
        ]]>                
        
            </description>
            <styleUrl>#232</styleUrl>
            <LineString id="230">
                <coordinates>-77.04620702352959,38.91433287563066,0.0 -77.04345942253296,38.90964122798432,0.0</coordinates>
            </LineString>
        </Placemark>
        <Placemark id="235">
            <name>Intsct009 → Intsct006</name>
            <description>
                
        
<![CDATA[
          <b>RefPnt:</b> Intsct009<br>
          <b>Pnt:</b> Intsct006<br>
          <hr>
          <b>Azimuth (RefPnt→Pnt):</b> 335.503°<br>
          <b>Distance:</b> 0.356 miles<br>
          <b>Back Azimuth (Pnt→RefPnt):</b> 155.501°<br>
          <hr>
          <b>Filter Reason(s):</b> Az Half<br>
          <hr>
          <i>Calculation Method: Spherical</i>
        ]]>                
        
            </description>
            <styleUrl>#236</styleUrl>
            <LineString id="234">
                <coordinates>-77.04345942253296,38.90964122798432,0.0 -77.04620702352959,38.91433287563066,0.0</coordinates>
            </LineString>
        </Placemark>
        <Placemark id="239">
            <name>Intsct006 → Intsct013</name>
            <description>
                
        
<![CDATA[
          <b>RefPnt:</b> Intsct006<br>
          <b>Pnt:</b> Intsct013<br>
          <hr>
          <b>Azimuth (RefPnt→Pnt):</b> 110.003°<br>
          <b>Distance:</b> 0.949 miles<br>
          <b>Back Azimuth (Pnt→RefPnt):</b> 290.013°<br>
          <hr>
          <b>Filter Reason(s):</b> Az Whole<br>
          <hr>
          <i>Calculation Method: Spherical</i>
        ]]>                
        
            </description>
            <styleUrl>#240</styleUrl>
            <LineString id="238">
                <coordinates>-77.04620702352959,38.91433287563066,0.0 -77.02962409767211,38.90963432958821,0.0</coordinates>
            </LineString>
        </Placemark>
        <Placemark id="243">
            <name>Intsct006 → Intsct020</name>
            <description>
                
        
<![CDATA[
          <b>RefPnt:</b> Intsct006<br>
          <b>Pnt:</b> Intsct020<br>
          <hr>
          <b>Azimuth (RefPnt→Pnt):</b> 355.504°<br>
          <b>Distance:</b> 0.135 miles<br>
          <b>Back Azimuth (Pnt→RefPnt):</b> 175.504°<br>
          <hr>
          <b>Filter Reason(s):</b> Az Half<br>
          <hr>
          <i>Calculation Method: Spherical</i>
        ]]>                
        
            </description>
            <styleUrl>#244</styleUrl>
            <LineString id="242">
                <coordinates>-77.04620702352959,38.91433287563066,0.0 -77.0464033512485,38.91627565832813,0.0</coordinates>
            </LineString>
        </Placemark>
        <Placemark id="247">
            <name>Intsct020 → Intsct006</name>
            <description>
                
        
<![CDATA[
          <b>RefPnt:</b> Intsct020<br>
          <b>Pnt:</b> Intsct006<br>
          <hr>
          <b>Azimuth (RefPnt→Pnt):</b> 175.504°<br>
          <b>Distance:</b> 0.135 miles<br>
          <b>Back Azimuth (Pnt→RefPnt):</b> 355.504°<br>
          <hr>
          <b>Filter Reason(s):</b> Az Half<br>
          <hr>
          <i>Calculation Method: Spherical</i>
        ]]>                
        
            </description>
            <styleUrl>#248</styleUrl>
            <LineString id="246">
                <coordinates>-77.0464033512485,38.91627565832813,0.0 -77.04620702352959,38.91433287563066,0.0</coordinates>
            </LineString>
        </Placemark>
        <Placemark id="251">
            <name>Intsct008 → Intsct011</name>
            <description>
                
        
<![CDATA[
          <b>RefPnt:</b> Intsct008<br>
          <b>Pnt:</b> Intsct011<br>
          <hr>
          <b>Azimuth (RefPnt→Pnt):</b> 36.003°<br>
          <b>Distance:</b> 1.419 miles<br>
          <b>Back Azimuth (Pnt→RefPnt):</b> 216.013°<br>
          <hr>
          <b>Filter Reason(s):</b> Az multiple:18.0, Az Whole<br>
          <hr>
          <i>Calculation Method: Spherical</i>
        ]]>                
        
            </description>
            <styleUrl>#252</styleUrl>
            <LineString id="250">
                <coordinates>-77.05013189771242,38.90252157183857,0.0 -77.0346087201843,38.91914177446829,0.0</coordinates>
            </LineString>
        </Placemark>
        <Placemark id="255">
            <name>Intsct015 → Intsct008</name>
            <description>
                
        
<![CDATA[
          <b>RefPnt:</b> Intsct015<br>
          <b>Pnt:</b> Intsct008<br>
          <hr>
          <b>Azimuth (RefPnt→Pnt):</b> 196.002°<br>
          <b>Distance:</b> 1.451 miles<br>
          <b>Back Azimuth (Pnt→RefPnt):</b> 15.997°<br>
          <hr>
          <b>Filter Reason(s):</b> Az Whole<br>
          <hr>
          <i>Calculation Method: Spherical</i>
        ]]>                
        
            </description>
            <styleUrl>#256</styleUrl>
            <LineString id="254">
                <coordinates>-77.04269348864223,38.92270707513952,0.0 -77.05013189771242,38.90252157183857,0.0</coordinates>
            </LineString>
        </Placemark>
        <Placemark id="259">
            <name>Intsct026 → Intsct010</name>
            <description>
                
        
<![CDATA[
          <b>RefPnt:</b> Intsct026<br>
          <b>Pnt:</b> Intsct010<br>
          <hr>
          <b>Azimuth (RefPnt→Pnt):</b> 155.505°<br>
          <b>Distance:</b> 5.262 miles<br>
          <b>Back Azimuth (Pnt→RefPnt):</b> 335.530°<br>
          <hr>
          <b>Filter Reason(s):</b> Az Half<br>
          <hr>
          <i>Calculation Method: Spherical</i>
        ]]>                
        
            </description>
            <styleUrl>#260</styleUrl>
            <LineString id="258">
                <coordinates>-77.07715100120731,38.96760738015197,0.0 -77.03657097283033,38.89828563763562,0.0</coordinates>
            </LineString>
        </Placemark>
        <Placemark id="263">
            <name>Intsct054 → Intsct010</name>
            <description>
                
        
<![CDATA[
          <b>RefPnt:</b> Intsct054<br>
          <b>Pnt:</b> Intsct010<br>
          <hr>
          <b>Azimuth (RefPnt→Pnt):</b> 277.501°<br>
          <b>Distance:</b> 4.527 miles<br>
          <b>Back Azimuth (Pnt→RefPnt):</b> 97.448°<br>
          <hr>
          <b>Filter Reason(s):</b> Az Half<br>
          <hr>
          <i>Calculation Method: Spherical</i>
        ]]>                
        
            </description>
            <styleUrl>#264</styleUrl>
            <LineString id="262">
                <coordinates>-76.95309039068846,38.88976099356584,0.0 -77.03657097283033,38.89828563763562,0.0</coordinates>
            </LineString>
        </Placemark>
        <Placemark id="267">
            <name>Intsct010 → Intsct083</name>
            <description>
                
        
<![CDATA[
          <b>RefPnt:</b> Intsct010<br>
          <b>Pnt:</b> Intsct083<br>
          <hr>
          <b>Azimuth (RefPnt→Pnt):</b> 121.003°<br>
          <b>Distance:</b> 4.866 miles<br>
          <b>Back Azimuth (Pnt→RefPnt):</b> 301.052°<br>
          <hr>
          <b>Filter Reason(s):</b> Az Whole<br>
          <hr>
          <i>Calculation Method: Spherical</i>
        ]]>                
        
            </description>
            <styleUrl>#268</styleUrl>
            <LineString id="266">
                <coordinates>-77.03657097283033,38.89828563763562,0.0 -76.95902409071122,38.86197363998543,0.0</coordinates>
            </LineString>
        </Placemark>
        <Placemark id="271">
            <name>Intsct011 → Intsct014</name>
            <description>
                
        
<![CDATA[
          <b>RefPnt:</b> Intsct011<br>
          <b>Pnt:</b> Intsct014<br>
          <hr>
          <b>Azimuth (RefPnt→Pnt):</b> 171.364°<br>
          <b>Distance:</b> 0.943 miles<br>
          <b>Back Azimuth (Pnt→RefPnt):</b> 351.366°<br>
          <hr>
          <b>Filter Reason(s):</b> Dist factor:14.142<br>
          <hr>
          <i>Calculation Method: Spherical</i>
        ]]>                
        
            </description>
            <styleUrl>#272</styleUrl>
            <LineString id="270">
                <coordinates>-77.0346087201843,38.91914177446829,0.0 -77.03197530601018,38.90564871624386,0.0</coordinates>
            </LineString>
        </Placemark>
        <Placemark id="275">
            <name>Intsct014 → Intsct011</name>
            <description>
                
        
<![CDATA[
          <b>RefPnt:</b> Intsct014<br>
          <b>Pnt:</b> Intsct011<br>
          <hr>
          <b>Azimuth (RefPnt→Pnt):</b> 351.366°<br>
          <b>Distance:</b> 0.943 miles<br>
          <b>Back Azimuth (Pnt→RefPnt):</b> 171.364°<br>
          <hr>
          <b>Filter Reason(s):</b> Dist factor:14.142<br>
          <hr>
          <i>Calculation Method: Spherical</i>
        ]]>                
        
            </description>
            <styleUrl>#276</styleUrl>
            <LineString id="274">
                <coordinates>-77.03197530601018,38.90564871624386,0.0 -77.0346087201843,38.91914177446829,0.0</coordinates>
            </LineString>
        </Placemark>
        <Placemark id="279">
            <name>Intsct069 → Intsct013</name>
            <description>
                
        
<![CDATA[
          <b>RefPnt:</b> Intsct069<br>
          <b>Pnt:</b> Intsct013<br>
          <hr>
          <b>Azimuth (RefPnt→Pnt):</b> 303.502°<br>
          <b>Distance:</b> 1.533 miles<br>
          <b>Back Azimuth (Pnt→RefPnt):</b> 123.487°<br>
          <hr>
          <b>Filter Reason(s):</b> Az Half<br>
          <hr>
          <i>Calculation Method: Spherical</i>
        ]]>                
        
            </description>
            <styleUrl>#280</styleUrl>
            <LineString id="278">
                <coordinates>-77.00583688474308,38.89738444005945,0.0 -77.02962409767211,38.90963432958821,0.0</coordinates>
            </LineString>
        </Placemark>
        <Placemark id="283">
            <name>Intsct081 → Intsct014</name>
            <description>
                
        
<![CDATA[
          <b>RefPnt:</b> Intsct081<br>
          <b>Pnt:</b> Intsct014<br>
          <hr>
          <b>Azimuth (RefPnt→Pnt):</b> 316.497°<br>
          <b>Distance:</b> 3.715 miles<br>
          <b>Back Azimuth (Pnt→RefPnt):</b> 136.467°<br>
          <hr>
          <b>Filter Reason(s):</b> Az Half<br>
          <hr>
          <i>Calculation Method: Spherical</i>
        ]]>                
        
            </description>
            <styleUrl>#284</styleUrl>
            <LineString id="282">
                <coordinates>-76.98440786221666,38.86665520514831,0.0 -77.03197530601018,38.90564871624386,0.0</coordinates>
            </LineString>
        </Placemark>
        <Placemark id="287">
            <name>Intsct016 → Intsct029</name>
            <description>
                
        
<![CDATA[
          <b>RefPnt:</b> Intsct016<br>
          <b>Pnt:</b> Intsct029<br>
          <hr>
          <b>Azimuth (RefPnt→Pnt):</b> 300.504°<br>
          <b>Distance:</b> 2.563 miles<br>
          <b>Back Azimuth (Pnt→RefPnt):</b> 120.478°<br>
          <hr>
          <b>Filter Reason(s):</b> Az Half<br>
          <hr>
          <i>Calculation Method: Spherical</i>
        ]]>                
        
            </description>
            <styleUrl>#288</styleUrl>
            <LineString id="286">
                <coordinates>-77.0448188981081,38.91909113698802,0.0 -77.08591332655433,38.93791545891371,0.0</coordinates>
            </LineString>
        </Placemark>
        <Placemark id="291">
            <name>Intsct022 → Intsct056</name>
            <description>
                
        
<![CDATA[
          <b>RefPnt:</b> Intsct022<br>
          <b>Pnt:</b> Intsct056<br>
          <hr>
          <b>Azimuth (RefPnt→Pnt):</b> 157.500°<br>
          <b>Distance:</b> 6.219 miles<br>
          <b>Back Azimuth (Pnt→RefPnt):</b> 337.527°<br>
          <hr>
          <b>Filter Reason(s):</b> Az Half<br>
          <hr>
          <i>Calculation Method: Spherical</i>
        ]]>                
        
            </description>
            <styleUrl>#292</styleUrl>
            <LineString id="290">
                <coordinates>-77.01496041933852,38.9566796552525,0.0 -76.97070467583606,38.87349247971915,0.0</coordinates>
            </LineString>
        </Placemark>
        <Placemark id="295">
            <name>Intsct024 → Intsct026</name>
            <description>
                
        
<![CDATA[
          <b>RefPnt:</b> Intsct024<br>
          <b>Pnt:</b> Intsct026<br>
          <hr>
          <b>Azimuth (RefPnt→Pnt):</b> 307.859°<br>
          <b>Distance:</b> 0.744 miles<br>
          <b>Back Azimuth (Pnt→RefPnt):</b> 127.852°<br>
          <hr>
          <b>Filter Reason(s):</b> Dist factor:14.142<br>
          <hr>
          <i>Calculation Method: Spherical</i>
        ]]>                
        
            </description>
            <styleUrl>#296</styleUrl>
            <LineString id="294">
                <coordinates>-77.06621039192564,38.96099564561381,0.0 -77.07715100120731,38.96760738015197,0.0</coordinates>
            </LineString>
        </Placemark>
        <Placemark id="299">
            <name>Intsct026 → Intsct024</name>
            <description>
                
        
<![CDATA[
          <b>RefPnt:</b> Intsct026<br>
          <b>Pnt:</b> Intsct024<br>
          <hr>
          <b>Azimuth (RefPnt→Pnt):</b> 127.852°<br>
          <b>Distance:</b> 0.744 miles<br>
          <b>Back Azimuth (Pnt→RefPnt):</b> 307.859°<br>
          <hr>
          <b>Filter Reason(s):</b> Dist factor:14.142<br>
          <hr>
          <i>Calculation Method: Spherical</i>
        ]]>                
        
            </description>
            <styleUrl>#300</styleUrl>
            <LineString id="298">
                <coordinates>-77.07715100120731,38.96760738015197,0.0 -77.06621039192564,38.96099564561381,0.0</coordinates>
            </LineString>
        </Placemark>
        <Placemark id="303">
            <name>Intsct027 → Intsct024</name>
            <description>
                
        
<![CDATA[
          <b>RefPnt:</b> Intsct027<br>
          <b>Pnt:</b> Intsct024<br>
          <hr>
          <b>Azimuth (RefPnt→Pnt):</b> 33.502°<br>
          <b>Distance:</b> 1.222 miles<br>
          <b>Back Azimuth (Pnt→RefPnt):</b> 213.510°<br>
          <hr>
          <b>Filter Reason(s):</b> Az Half<br>
          <hr>
          <i>Calculation Method: Spherical</i>
        ]]>                
        
            </description>
            <styleUrl>#304</styleUrl>
            <LineString id="302">
                <coordinates>-77.07876308712449,38.94625090761831,0.0 -77.06621039192564,38.96099564561381,0.0</coordinates>
            </LineString>
        </Placemark>
        <Placemark id="307">
            <name>Intsct026 → Intsct030</name>
            <description>
                
        
<![CDATA[
          <b>RefPnt:</b> Intsct026<br>
          <b>Pnt:</b> Intsct030<br>
          <hr>
          <b>Azimuth (RefPnt→Pnt):</b> 179.863°<br>
          <b>Distance:</b> 2.500 miles<br>
          <b>Back Azimuth (Pnt→RefPnt):</b> 359.863°<br>
          <hr>
          <b>Filter Reason(s):</b> Dist Half<br>
          <hr>
          <i>Calculation Method: Spherical</i>
        ]]>                
        
            </description>
            <styleUrl>#308</styleUrl>
            <LineString id="306">
                <coordinates>-77.07715100120731,38.96760738015197,0.0 -77.07704000565165,38.93141909888435,0.0</coordinates>
            </LineString>
        </Placemark>
        <Placemark id="311">
            <name>Intsct030 → Intsct026</name>
            <description>
                
        
<![CDATA[
          <b>RefPnt:</b> Intsct030<br>
          <b>Pnt:</b> Intsct026<br>
          <hr>
          <b>Azimuth (RefPnt→Pnt):</b> 359.863°<br>
          <b>Distance:</b> 2.500 miles<br>
          <b>Back Azimuth (Pnt→RefPnt):</b> 179.863°<br>
          <hr>
          <b>Filter Reason(s):</b> Dist Half<br>
          <hr>
          <i>Calculation Method: Spherical</i>
        ]]>                
        
            </description>
            <styleUrl>#312</styleUrl>
            <LineString id="310">
                <coordinates>-77.07704000565165,38.93141909888435,0.0 -77.07715100120731,38.96760738015197,0.0</coordinates>
            </LineString>
        </Placemark>
        <Placemark id="315">
            <name>Intsct027 → Intsct046</name>
            <description>
                
        
<![CDATA[
          <b>RefPnt:</b> Intsct027<br>
          <b>Pnt:</b> Intsct046<br>
          <hr>
          <b>Azimuth (RefPnt→Pnt):</b> 94.501°<br>
          <b>Distance:</b> 2.891 miles<br>
          <b>Back Azimuth (Pnt→RefPnt):</b> 274.535°<br>
          <hr>
          <b>Filter Reason(s):</b> Az Half<br>
          <hr>
          <i>Calculation Method: Spherical</i>
        ]]>                
        
            </description>
            <styleUrl>#316</styleUrl>
            <LineString id="314">
                <coordinates>-77.07876308712449,38.94625090761831,0.0 -77.02512898068386,38.9429546594432,0.0</coordinates>
            </LineString>
        </Placemark>
        <Placemark id="319">
            <name>Intsct028 → Intsct068</name>
            <description>
                
        
<![CDATA[
          <b>RefPnt:</b> Intsct028<br>
          <b>Pnt:</b> Intsct068<br>
          <hr>
          <b>Azimuth (RefPnt→Pnt):</b> 125.496°<br>
          <b>Distance:</b> 6.282 miles<br>
          <b>Back Azimuth (Pnt→RefPnt):</b> 305.556°<br>
          <hr>
          <b>Filter Reason(s):</b> Az Half<br>
          <hr>
          <i>Calculation Method: Spherical</i>
        ]]>                
        
            </description>
            <styleUrl>#320</styleUrl>
            <LineString id="318">
                <coordinates>-77.1009746858736,38.94890691318262,0.0 -77.00585067211077,38.89606887058728,0.0</coordinates>
            </LineString>
        </Placemark>
        <Placemark id="323">
            <name>Intsct081 → Intsct044</name>
            <description>
                
        
<![CDATA[
          <b>RefPnt:</b> Intsct081<br>
          <b>Pnt:</b> Intsct044<br>
          <hr>
          <b>Azimuth (RefPnt→Pnt):</b> 336.501°<br>
          <b>Distance:</b> 5.427 miles<br>
          <b>Back Azimuth (Pnt→RefPnt):</b> 156.475°<br>
          <hr>
          <b>Filter Reason(s):</b> Az Half<br>
          <hr>
          <i>Calculation Method: Spherical</i>
        ]]>                
        
            </description>
            <styleUrl>#324</styleUrl>
            <LineString id="322">
                <coordinates>-76.98440786221666,38.86665520514831,0.0 -77.02467829619785,38.9386884004513,0.0</coordinates>
            </LineString>
        </Placemark>
        <Placemark id="327">
            <name>Intsct045 → Intsct047</name>
            <description>
                
        
<![CDATA[
          <b>RefPnt:</b> Intsct045<br>
          <b>Pnt:</b> Intsct047<br>
          <hr>
          <b>Azimuth (RefPnt→Pnt):</b> 110.305°<br>
          <b>Distance:</b> 0.240 miles<br>
          <b>Back Azimuth (Pnt→RefPnt):</b> 290.307°<br>
          <hr>
          <b>Filter Reason(s):</b> Dist factor:14.142<br>
          <hr>
          <i>Calculation Method: Spherical</i>
        ]]>                
        
            </description>
            <styleUrl>#328</styleUrl>
            <LineString id="326">
                <coordinates>-77.03082403465564,38.94732383413034,0.0 -77.02663987642144,38.94611970066513,0.0</coordinates>
            </LineString>
        </Placemark>
        <Placemark id="331">
            <name>Intsct047 → Intsct045</name>
            <description>
                
        
<![CDATA[
          <b>RefPnt:</b> Intsct047<br>
          <b>Pnt:</b> Intsct045<br>
          <hr>
          <b>Azimuth (RefPnt→Pnt):</b> 290.307°<br>
          <b>Distance:</b> 0.240 miles<br>
          <b>Back Azimuth (Pnt→RefPnt):</b> 110.305°<br>
          <hr>
          <b>Filter Reason(s):</b> Dist factor:14.142<br>
          <hr>
          <i>Calculation Method: Spherical</i>
        ]]>                
        
            </description>
            <styleUrl>#332</styleUrl>
            <LineString id="330">
                <coordinates>-77.02663987642144,38.94611970066513,0.0 -77.03082403465564,38.94732383413034,0.0</coordinates>
            </LineString>
        </Placemark>
        <Placemark id="335">
            <name>Intsct045 → Intsct074</name>
            <description>
                
        
<![CDATA[
          <b>RefPnt:</b> Intsct045<br>
          <b>Pnt:</b> Intsct074<br>
          <hr>
          <b>Azimuth (RefPnt→Pnt):</b> 163.502°<br>
          <b>Distance:</b> 3.497 miles<br>
          <b>Back Azimuth (Pnt→RefPnt):</b> 343.514°<br>
          <hr>
          <b>Filter Reason(s):</b> Az Half<br>
          <hr>
          <i>Calculation Method: Spherical</i>
        ]]>                
        
            </description>
            <styleUrl>#336</styleUrl>
            <LineString id="334">
                <coordinates>-77.03082403465564,38.94732383413034,0.0 -77.01235282769433,38.89878546878008,0.0</coordinates>
            </LineString>
        </Placemark>
        <Placemark id="339">
            <name>Intsct083 → Intsct047</name>
            <description>
                
        
<![CDATA[
          <b>RefPnt:</b> Intsct083<br>
          <b>Pnt:</b> Intsct047<br>
          <hr>
          <b>Azimuth (RefPnt→Pnt):</b> 328.003°<br>
          <b>Distance:</b> 6.856 miles<br>
          <b>Back Azimuth (Pnt→RefPnt):</b> 147.960°<br>
          <hr>
          <b>Filter Reason(s):</b> Az Whole<br>
          <hr>
          <i>Calculation Method: Spherical</i>
        ]]>                
        
            </description>
            <styleUrl>#340</styleUrl>
            <LineString id="338">
                <coordinates>-76.95902409071122,38.86197363998543,0.0 -77.02663987642144,38.94611970066513,0.0</coordinates>
            </LineString>
        </Placemark>
        <Placemark id="343">
            <name>Intsct069 → Intsct054</name>
            <description>
                
        
<![CDATA[
          <b>RefPnt:</b> Intsct069<br>
          <b>Pnt:</b> Intsct054<br>
          <hr>
          <b>Azimuth (RefPnt→Pnt):</b> 100.503°<br>
          <b>Distance:</b> 2.884 miles<br>
          <b>Back Azimuth (Pnt→RefPnt):</b> 280.536°<br>
          <hr>
          <b>Filter Reason(s):</b> Az Half<br>
          <hr>
          <i>Calculation Method: Spherical</i>
        ]]>                
        
            </description>
            <styleUrl>#344</styleUrl>
            <LineString id="342">
                <coordinates>-77.00583688474308,38.89738444005945,0.0 -76.95309039068846,38.88976099356584,0.0</coordinates>
            </LineString>
        </Placemark>
        <Placemark id="347">
            <name>Intsct069 → Intsct081</name>
            <description>
                
        
<![CDATA[
          <b>RefPnt:</b> Intsct069<br>
          <b>Pnt:</b> Intsct081<br>
          <hr>
          <b>Azimuth (RefPnt→Pnt):</b> 151.498°<br>
          <b>Distance:</b> 2.415 miles<br>
          <b>Back Azimuth (Pnt→RefPnt):</b> 331.512°<br>
          <hr>
          <b>Filter Reason(s):</b> Az Half<br>
          <hr>
          <i>Calculation Method: Spherical</i>
        ]]>                
        
            </description>
            <styleUrl>#348</styleUrl>
            <LineString id="346">
                <coordinates>-77.00583688474308,38.89738444005945,0.0 -76.98440786221666,38.86665520514831,0.0</coordinates>
            </LineString>
        </Placemark>
        <Placemark id="351">
            <name>Intsct079 → Intsct074</name>
            <description>
                
        
<![CDATA[
          <b>RefPnt:</b> Intsct079<br>
          <b>Pnt:</b> Intsct074<br>
          <hr>
          <b>Azimuth (RefPnt→Pnt):</b> 58.003°<br>
          <b>Distance:</b> 0.672 miles<br>
          <b>Back Azimuth (Pnt→RefPnt):</b> 238.010°<br>
          <hr>
          <b>Filter Reason(s):</b> Az Whole<br>
          <hr>
          <i>Calculation Method: Spherical</i>
        ]]>                
        
            </description>
            <styleUrl>#352</styleUrl>
            <LineString id="350">
                <coordinates>-77.02295020167529,38.89363293216059,0.0 -77.01235282769433,38.89878546878008,0.0</coordinates>
            </LineString>
        </Placemark>
        <Placemark id="355">
            <name>Intsct081 → Intsct075</name>
            <description>
                
        
<![CDATA[
          <b>RefPnt:</b> Intsct081<br>
          <b>Pnt:</b> Intsct075<br>
          <hr>
          <b>Azimuth (RefPnt→Pnt):</b> 336.495°<br>
          <b>Distance:</b> 3.329 miles<br>
          <b>Back Azimuth (Pnt→RefPnt):</b> 156.480°<br>
          <hr>
          <b>Filter Reason(s):</b> Az Half<br>
          <hr>
          <i>Calculation Method: Spherical</i>
        ]]>                
        
            </description>
            <styleUrl>#356</styleUrl>
            <LineString id="354">
                <coordinates>-76.98440786221666,38.86665520514831,0.0 -77.00910409527349,38.91083809419791,0.0</coordinates>
            </LineString>
        </Placemark>
    </Document>
</kml>
